,postcode,place_name,state_name,state_code,latitude,longitude,accuracy
5266,3500,Paringi,New South Wales,NSW,-34.1979,142.1515,3.0
5267,3644,Barooga,New South Wales,NSW,-35.906,145.6958,4.0
5268,3644,Lalalty,New South Wales,NSW,-35.9503,145.6546,3.0
5269,3691,Lake Hume Village,New South Wales,NSW,-36.2843,147.0692,3.0
5270,3707,Bringenbrong,New South Wales,NSW,-36.4104,147.9589,3.0
11712,3000,Melbourne,Victoria,VIC,-37.814,144.9633,4.0
11713,3001,Melbourne,Victoria,VIC,-37.814,144.9633,4.0
11714,3002,East Melbourne,Victoria,VIC,-37.8167,144.9879,4.0
11715,3003,West Melbourne,Victoria,VIC,-37.8101,144.95,4.0
11716,3004,Melbourne,Victoria,VIC,-37.814,144.9633,4.0
11717,3004,St Kilda Road Central,Victoria,VIC,-37.814,144.9633,3.0
11718,3004,St Kilda Road Melbourne,Victoria,VIC,-37.814,144.9633,3.0
11719,3005,World Trade Centre,Victoria,VIC,-37.8152,144.9632,1.0
11720,3006,South Wharf,Victoria,VIC,-37.8253,144.9522,4.0
11721,3006,Southbank,Victoria,VIC,-37.8228,144.9643,4.0
11722,3008,Docklands,Victoria,VIC,-37.8149,144.9505,4.0
11723,3010,University Of Melbourne,Victoria,VIC,-37.7958,144.9612,1.0
11724,3011,Seddon,Victoria,VIC,-37.8061,144.8907,4.0
11725,3011,Seddon West,Victoria,VIC,-37.7995,144.8963,3.0
11726,3011,Footscray,Victoria,VIC,-37.8,144.9,4.0
11727,3012,Maidstone,Victoria,VIC,-37.7803,144.8735,4.0
11728,3012,Tottenham,Victoria,VIC,-37.7985,144.8626,4.0
11729,3012,West Footscray,Victoria,VIC,-37.7975,144.8773,4.0
11730,3012,Brooklyn,Victoria,VIC,-37.8161,144.8415,4.0
11731,3012,Kingsville,Victoria,VIC,-37.8082,144.8791,4.0
11732,3013,Yarraville,Victoria,VIC,-37.8167,144.9,4.0
11733,3013,Yarraville West,Victoria,VIC,-37.8249,144.8708,3.0
11734,3015,Newport,Victoria,VIC,-37.8443,144.8848,4.0
11735,3015,Spotswood,Victoria,VIC,-37.8298,144.8852,4.0
11736,3015,South Kingsville,Victoria,VIC,-37.8302,144.8709,4.0
11737,3016,Williamstown North,Victoria,VIC,-37.8552,144.8826,4.0
11738,3016,Williamstown,Victoria,VIC,-37.857,144.8977,4.0
11739,3018,Seaholme,Victoria,VIC,-37.864,144.845,4.0
11740,3018,Altona,Victoria,VIC,-37.8696,144.8304,4.0
11741,3019,Braybrook,Victoria,VIC,-37.7867,144.8548,4.0
11742,3019,Robinson,Victoria,VIC,-37.7867,144.8548,3.0
11743,3020,Sunshine West,Victoria,VIC,-37.7912,144.8164,4.0
11744,3020,Albion,Victoria,VIC,-37.7667,144.8333,4.0
11745,3020,Glengala,Victoria,VIC,-37.775,144.8333,3.0
11746,3020,Sunshine North,Victoria,VIC,-37.7699,144.8279,4.0
11747,3020,Sunshine,Victoria,VIC,-37.7833,144.8333,4.0
11748,3021,Albanvale,Victoria,VIC,-37.7461,144.7686,4.0
11749,3021,St Albans,Victoria,VIC,-37.745,144.8005,4.0
11750,3021,Kealba,Victoria,VIC,-37.7371,144.8283,4.0
11751,3021,Kings Park,Victoria,VIC,-37.734,144.7777,4.0
11752,3022,Deer Park East,Victoria,VIC,-37.7764,144.8016,3.0
11753,3022,Ardeer,Victoria,VIC,-37.7759,144.8014,4.0
11754,3023,Deer Park,Victoria,VIC,-37.7667,144.7833,4.0
11755,3023,Ravenhall,Victoria,VIC,-37.7655,144.751,4.0
11756,3023,Deer Park North,Victoria,VIC,-37.7541,144.7651,3.0
11757,3023,Burnside,Victoria,VIC,-37.7494,144.753,4.0
11758,3023,Cairnlea,Victoria,VIC,-37.7593,144.7878,4.0
11759,3023,Burnside Heights,Victoria,VIC,-37.7269,144.7523,4.0
11760,3023,Caroline Springs,Victoria,VIC,-37.7412,144.7363,4.0
11761,3024,Wyndham Vale,Victoria,VIC,-37.8415,144.541,4.0
11762,3024,Mount Cottrell,Victoria,VIC,-37.8167,144.5833,4.0
11763,3024,Mambourin,Victoria,VIC,-37.8755,144.5032,4.0
11764,3025,Altona North,Victoria,VIC,-37.8349,144.8474,4.0
11765,3025,Altona Gate,Victoria,VIC,-37.8349,144.8474,3.0
11766,3025,Altona East,Victoria,VIC,-37.8349,144.8474,3.0
11767,3026,Laverton North,Victoria,VIC,-37.8205,144.8159,4.0
11768,3027,Williams Landing,Victoria,VIC,-37.8619,144.7437,4.0
11769,3028,Altona Meadows,Victoria,VIC,-37.8841,144.7837,4.0
11770,3028,Laverton,Victoria,VIC,-37.862,144.7698,4.0
11771,3028,Seabrook,Victoria,VIC,-37.8809,144.7587,4.0
11772,3029,Truganina,Victoria,VIC,-37.8167,144.75,4.0
11773,3029,Hoppers Crossing,Victoria,VIC,-37.8826,144.7003,4.0
11774,3029,Tarneit,Victoria,VIC,-37.8667,144.6667,4.0
11775,3030,Point Cook,Victoria,VIC,-37.9148,144.7509,4.0
11776,3030,Quandong,Victoria,VIC,-37.8139,144.4951,4.0
11777,3030,Werribee,Victoria,VIC,-37.9,144.6667,4.0
11778,3030,Derrimut,Victoria,VIC,-37.7924,144.7699,4.0
11779,3030,Cocoroc,Victoria,VIC,-37.9728,144.5643,4.0
11780,3030,Werribee South,Victoria,VIC,-37.9475,144.7167,4.0
11781,3031,Flemington,Victoria,VIC,-37.7882,144.93,4.0
11782,3031,Kensington,Victoria,VIC,-37.7833,144.9333,4.0
11783,3032,Maribyrnong,Victoria,VIC,-37.7833,144.8833,4.0
11784,3032,Highpoint City,Victoria,VIC,-37.7747,144.8999,3.0
11785,3032,Travancore,Victoria,VIC,-37.7808,144.9354,4.0
11786,3032,Ascot Vale,Victoria,VIC,-37.7833,144.9167,4.0
11787,3033,Keilor East,Victoria,VIC,-37.7326,144.865,4.0
11788,3034,Avondale Heights,Victoria,VIC,-37.7616,144.8626,4.0
11789,3036,Keilor North,Victoria,VIC,-37.6963,144.8047,4.0
11790,3036,Keilor,Victoria,VIC,-37.7167,144.8333,4.0
11791,3037,Hillside,Victoria,VIC,-37.6905,144.7417,4.0
11792,3037,Calder Park,Victoria,VIC,-37.6798,144.7611,4.0
11793,3037,Sydenham,Victoria,VIC,-37.7,144.7667,4.0
11794,3037,Taylors Hill,Victoria,VIC,-37.7099,144.7548,4.0
11795,3037,Delahey,Victoria,VIC,-37.7198,144.7773,4.0
11796,3038,Keilor Downs,Victoria,VIC,-37.7234,144.8084,4.0
11797,3038,Watergardens,Victoria,VIC,-37.6986,144.7863,3.0
11798,3038,Taylors Lakes,Victoria,VIC,-37.6986,144.7863,4.0
11799,3038,Keilor Lodge,Victoria,VIC,-37.7,144.8033,4.0
11800,3039,Moonee Ponds,Victoria,VIC,-37.7667,144.9167,4.0
11801,3040,Essendon,Victoria,VIC,-37.7667,144.9167,4.0
11802,3040,Aberfeldie,Victoria,VIC,-37.7596,144.8974,4.0
11803,3040,Essendon West,Victoria,VIC,-37.7576,144.879,4.0
11804,3041,Strathmore,Victoria,VIC,-37.6333,142.4833,4.0
11805,3041,Strathmore Heights,Victoria,VIC,-37.7133,144.8969,4.0
11806,3041,Essendon North,Victoria,VIC,-37.7422,144.9055,4.0
11807,3041,Essendon Fields,Victoria,VIC,-37.7245,144.8989,4.0
11808,3041,Cross Keys,Victoria,VIC,-37.7133,144.8969,3.0
11809,3042,Keilor Park,Victoria,VIC,-37.7203,144.8542,4.0
11810,3042,Niddrie North,Victoria,VIC,-37.7311,144.8867,3.0
11811,3042,Airport West,Victoria,VIC,-37.7247,144.8813,4.0
11812,3042,Niddrie,Victoria,VIC,-37.7375,144.8921,4.0
11813,3043,Gowanbrae,Victoria,VIC,-37.7082,144.8908,4.0
11814,3043,Tullamarine,Victoria,VIC,-37.7013,144.881,4.0
11815,3043,Gladstone Park,Victoria,VIC,-37.6874,144.8868,4.0
11816,3044,Pascoe Vale,Victoria,VIC,-37.7333,144.9333,4.0
11817,3044,Pascoe Vale South,Victoria,VIC,-37.7397,144.9461,4.0
11818,3045,Melbourne Airport,Victoria,VIC,-37.6743,144.8518,4.0
11819,3046,Oak Park,Victoria,VIC,-37.7184,144.9195,4.0
11820,3046,Glenroy,Victoria,VIC,-37.7,144.9333,4.0
11821,3046,Hadfield,Victoria,VIC,-37.7073,144.9416,4.0
11822,3047,Dallas,Victoria,VIC,-37.6708,144.9354,4.0
11823,3047,Broadmeadows,Victoria,VIC,-37.6802,144.9188,4.0
11824,3047,Jacana,Victoria,VIC,-37.6878,144.9111,4.0
11825,3048,Coolaroo,Victoria,VIC,-37.6568,144.9346,4.0
11826,3048,Meadow Heights,Victoria,VIC,-37.6512,144.9186,4.0
11827,3049,Westmeadows,Victoria,VIC,-37.676,144.887,4.0
11828,3049,Attwood,Victoria,VIC,-37.6696,144.8868,4.0
11829,3050,Royal Melbourne Hospital,Victoria,VIC,-37.7981,144.9555,1.0
11830,3051,North Melbourne,Victoria,VIC,-37.8,144.9667,4.0
11831,3051,Hotham Hill,Victoria,VIC,-37.7984,144.9449,3.0
11832,3052,Parkville,Victoria,VIC,-37.7833,144.95,4.0
11833,3052,Melbourne University,Victoria,VIC,-37.7603,144.9502,3.0
11834,3053,Carlton,Victoria,VIC,-37.8,144.9667,4.0
11835,3053,Carlton South,Victoria,VIC,-37.8004,144.9681,3.0
11836,3054,Princes Hill,Victoria,VIC,-37.7818,144.9666,4.0
11837,3054,Carlton North,Victoria,VIC,-37.7833,144.9667,4.0
11838,3055,Brunswick South,Victoria,VIC,-37.7603,144.9502,3.0
11839,3055,Brunswick West,Victoria,VIC,-37.7646,144.9438,4.0
11840,3055,Moreland West,Victoria,VIC,-37.7603,144.9502,3.0
11841,3055,Moonee Vale,Victoria,VIC,-37.7603,144.9502,3.0
11842,3056,Brunswick,Victoria,VIC,-37.7667,144.9667,4.0
11843,3056,Brunswick North,Victoria,VIC,-37.7667,144.9667,3.0
11844,3056,Brunswick Lower,Victoria,VIC,-37.7667,144.9667,3.0
11845,3057,Sumner,Victoria,VIC,-37.7603,144.9502,3.0
11846,3057,Brunswick East,Victoria,VIC,-37.7725,144.9724,4.0
11847,3058,Coburg North,Victoria,VIC,-37.7287,144.9613,4.0
11848,3058,Moreland,Victoria,VIC,-37.7603,144.9502,3.0
11849,3058,Batman,Victoria,VIC,-37.75,144.9667,3.0
11850,3058,Merlynston,Victoria,VIC,-37.7603,144.9502,3.0
11851,3058,Coburg,Victoria,VIC,-37.75,144.9667,4.0
11852,3059,Greenvale,Victoria,VIC,-37.6333,144.8667,4.0
11853,3060,Fawkner,Victoria,VIC,-37.7167,144.9667,4.0
11854,3061,Campbellfield,Victoria,VIC,-37.6833,144.95,4.0
11855,3062,Somerton,Victoria,VIC,-37.65,144.9333,4.0
11856,3063,Yuroke,Victoria,VIC,-37.5911,144.8782,4.0
11857,3063,Oaklands Junction,Victoria,VIC,-37.615,144.8434,4.0
11858,3064,Kalkallo,Victoria,VIC,-37.5333,144.95,4.0
11859,3064,Mickleham,Victoria,VIC,-37.5366,144.902,4.0
11860,3064,Donnybrook,Victoria,VIC,-37.5333,144.9833,4.0
11861,3064,Roxburgh Park,Victoria,VIC,-37.6258,144.9255,4.0
11862,3064,Craigieburn,Victoria,VIC,-37.6,144.95,4.0
11863,3065,Fitzroy,Victoria,VIC,-37.7984,144.9783,4.0
11864,3066,Collingwood,Victoria,VIC,-37.8,144.9833,4.0
11865,3066,Collingwood North,Victoria,VIC,-37.8,144.9833,3.0
11866,3067,Abbotsford,Victoria,VIC,-37.8,145.0,4.0
11867,3068,Fitzroy North,Victoria,VIC,-37.7886,144.9788,4.0
11868,3068,Clifton Hill,Victoria,VIC,-37.7904,144.9975,4.0
11869,3070,Northcote South,Victoria,VIC,-37.7667,145.0,3.0
11870,3070,Northcote,Victoria,VIC,-37.7667,145.0,4.0
11871,3071,Thornbury,Victoria,VIC,-37.75,145.0,4.0
11872,3072,Preston,Victoria,VIC,-37.75,145.0167,4.0
11873,3072,Regent West,Victoria,VIC,-37.7241,145.0179,3.0
11874,3072,Gilberton,Victoria,VIC,-37.75,145.0167,3.0
11875,3072,Preston South,Victoria,VIC,-37.7241,145.0179,3.0
11876,3072,Preston West,Victoria,VIC,-37.75,145.0167,3.0
11877,3072,Northland Centre,Victoria,VIC,-37.7241,145.0179,3.0
11878,3072,Preston Lower,Victoria,VIC,-37.75,145.0167,3.0
11879,3073,Reservoir,Victoria,VIC,-37.7167,145.0,4.0
11880,3073,Keon Park,Victoria,VIC,-37.7,145.0167,4.0
11881,3074,Thomastown,Victoria,VIC,-37.6833,145.0167,4.0
11882,3075,Lalor,Victoria,VIC,-37.6667,145.0167,4.0
11883,3076,Epping Dc,Victoria,VIC,-37.6307,145.006,3.0
11884,3076,Epping,Victoria,VIC,-37.65,145.0333,4.0
11885,3078,Alphington,Victoria,VIC,-37.7804,145.0309,4.0
11886,3078,Fairfield,Victoria,VIC,-37.7798,145.0176,4.0
11887,3079,Ivanhoe,Victoria,VIC,-37.769,145.0431,4.0
11888,3079,Ivanhoe East,Victoria,VIC,-37.7832,145.0525,4.0
11889,3079,Ivanhoe North,Victoria,VIC,-37.769,145.0431,3.0
11890,3081,Heidelberg West,Victoria,VIC,-37.75,145.0333,4.0
11891,3081,Heidelberg Rgh,Victoria,VIC,-37.743,145.0464,3.0
11892,3081,Bellfield,Victoria,VIC,-37.7531,145.0385,4.0
11893,3081,Heidelberg Heights,Victoria,VIC,-37.7431,145.057,4.0
11894,3082,Mill Park,Victoria,VIC,-37.6667,145.0667,4.0
11895,3083,Kingsbury,Victoria,VIC,-37.7141,145.0351,4.0
11896,3083,Bundoora,Victoria,VIC,-37.6982,145.0597,4.0
11897,3083,La Trobe University,Victoria,VIC,-37.7062,145.0474,3.0
11898,3084,Viewbank,Victoria,VIC,-37.7399,145.0932,4.0
11899,3084,Banyule,Victoria,VIC,-37.7464,145.0771,3.0
11900,3084,Rosanna,Victoria,VIC,-37.7396,145.0697,4.0
11901,3084,Heidelberg,Victoria,VIC,-37.75,145.0667,4.0
11902,3084,Eaglemont,Victoria,VIC,-37.7638,145.0638,4.0
11903,3085,Yallambie,Victoria,VIC,-37.7251,145.0935,4.0
11904,3085,Macleod West,Victoria,VIC,-37.7228,145.0817,3.0
11905,3085,Macleod,Victoria,VIC,-37.7204,145.0698,4.0
11906,3086,La Trobe University,Victoria,VIC,-37.7173,145.0826,1.0
11907,3087,Watsonia North,Victoria,VIC,-37.6998,145.0847,4.0
11908,3087,Watsonia,Victoria,VIC,-37.7167,145.0833,4.0
11909,3088,Saint Helena,Victoria,VIC,-37.7,145.1333,4.0
11910,3088,Briar Hill,Victoria,VIC,-37.7167,145.1167,4.0
11911,3088,Greensborough,Victoria,VIC,-37.7046,145.103,4.0
11912,3088,St Helena,Victoria,VIC,-37.6895,145.1296,4.0
11913,3089,Diamond Creek,Victoria,VIC,-37.6667,145.15,4.0
11914,3090,Plenty,Victoria,VIC,-37.6667,145.1167,4.0
11915,3091,Yarrambat,Victoria,VIC,-37.6375,145.1349,4.0
11916,3093,Lower Plenty,Victoria,VIC,-37.7333,145.1167,4.0
11917,3094,Montmorency,Victoria,VIC,-37.7167,145.1167,4.0
11918,3095,Research,Victoria,VIC,-37.7,145.1833,4.0
11919,3095,Eltham,Victoria,VIC,-37.7333,145.15,4.0
11920,3095,Eltham North,Victoria,VIC,-37.7,145.15,4.0
11921,3096,Wattle Glen,Victoria,VIC,-37.6667,145.1833,4.0
11922,3097,Bend Of Islands,Victoria,VIC,-37.7008,145.2848,4.0
11923,3097,Kangaroo Ground,Victoria,VIC,-37.6892,145.2317,4.0
11924,3097,Watsons Creek,Victoria,VIC,-37.6833,145.2333,4.0
11925,3099,Strathewen,Victoria,VIC,-37.55,145.2667,4.0
11926,3099,Hurstbridge,Victoria,VIC,-37.6416,145.1941,4.0
11927,3099,Arthurs Creek,Victoria,VIC,-37.5833,145.2,4.0
11928,3099,Cottles Bridge,Victoria,VIC,-37.6333,145.2167,4.0
11929,3099,Nutfield,Victoria,VIC,-37.6167,145.1833,4.0
11930,3101,Kew,Victoria,VIC,-37.8064,145.0309,4.0
11931,3101,Cotham,Victoria,VIC,-37.8064,145.0309,3.0
11932,3102,Kew East,Victoria,VIC,-37.7976,145.0538,4.0
11933,3103,Balwyn,Victoria,VIC,-37.8117,145.081,4.0
11934,3103,Stradbroke Park,Victoria,VIC,-37.8117,145.081,3.0
11935,3103,Deepdene,Victoria,VIC,-37.8167,145.0667,4.0
11936,3103,Balwyn East,Victoria,VIC,-37.8117,145.081,3.0
11937,3104,Balwyn North,Victoria,VIC,-37.7909,145.0939,4.0
11938,3104,Greythorn,Victoria,VIC,-37.7909,145.0939,3.0
11939,3105,Bulleen,Victoria,VIC,-37.7667,145.0833,4.0
11940,3106,Templestowe,Victoria,VIC,-37.75,145.1167,4.0
11941,3107,Templestowe Lower,Victoria,VIC,-37.7667,145.1167,4.0
11942,3108,Doncaster,Victoria,VIC,-37.7883,145.1237,4.0
11943,3109,Tunstall Square Po,Victoria,VIC,-37.7795,145.1638,3.0
11944,3109,Doncaster East,Victoria,VIC,-37.7876,145.1489,4.0
11945,3109,Doncaster Heights,Victoria,VIC,-37.7795,145.1638,3.0
11946,3110,Nunawading Bc,Victoria,VIC,-37.7576,145.2408,1.0
11947,3111,Donvale,Victoria,VIC,-37.7891,145.1749,4.0
11948,3113,Warrandyte,Victoria,VIC,-37.75,145.2333,4.0
11949,3113,North Warrandyte,Victoria,VIC,-37.7292,145.2157,4.0
11950,3114,Park Orchards,Victoria,VIC,-37.7769,145.2146,4.0
11951,3115,Wonga Park,Victoria,VIC,-37.7333,145.2667,4.0
11952,3116,Chirnside Park,Victoria,VIC,-37.7386,145.3143,4.0
11953,3121,Burnley,Victoria,VIC,-37.8286,145.0077,4.0
11954,3121,Cremorne,Victoria,VIC,-37.8333,145.0,4.0
11955,3121,Richmond,Victoria,VIC,-37.8182,145.0018,4.0
11956,3121,Richmond East,Victoria,VIC,-37.8271,145.0064,3.0
11957,3121,Burnley North,Victoria,VIC,-37.8271,145.0064,3.0
11958,3121,Richmond South,Victoria,VIC,-37.8271,145.0064,3.0
11959,3121,Richmond North,Victoria,VIC,-37.8271,145.0064,3.0
11960,3122,Glenferrie South,Victoria,VIC,-37.8344,145.0397,3.0
11961,3122,Auburn South,Victoria,VIC,-37.8333,145.05,4.0
11962,3122,Hawthorn,Victoria,VIC,-37.8199,145.0358,4.0
11963,3122,Hawthorn North,Victoria,VIC,-37.85,145.0333,3.0
11964,3122,Hawthorn West,Victoria,VIC,-37.8344,145.0397,3.0
11965,3123,Auburn,Victoria,VIC,-37.8167,145.05,4.0
11966,3123,Hawthorn East,Victoria,VIC,-37.8248,145.0464,4.0
11967,3124,Camberwell North,Victoria,VIC,-37.8248,145.0705,3.0
11968,3124,Camberwell,Victoria,VIC,-37.8421,145.0694,4.0
11969,3124,Camberwell West,Victoria,VIC,-37.8248,145.0705,3.0
11970,3124,Camberwell South,Victoria,VIC,-37.8248,145.0705,3.0
11971,3124,Hartwell,Victoria,VIC,-37.8421,145.0694,3.0
11972,3124,Middle Camberwell,Victoria,VIC,-37.8248,145.0705,3.0
11973,3125,Burwood,Victoria,VIC,-37.8505,145.0949,4.0
11974,3125,Surrey Hills South,Victoria,VIC,-37.8498,145.119,3.0
11975,3125,Bennettswood,Victoria,VIC,-37.8495,145.1114,3.0
11976,3126,Canterbury,Victoria,VIC,-37.8247,145.0848,4.0
11977,3126,Camberwell East,Victoria,VIC,-37.8248,145.0705,3.0
11978,3127,Surrey Hills,Victoria,VIC,-37.8252,145.1004,4.0
11979,3127,Surrey Hills North,Victoria,VIC,-37.8128,145.1043,3.0
11980,3127,Mont Albert,Victoria,VIC,-37.8167,145.1,4.0
11981,3128,Box Hill South,Victoria,VIC,-37.8324,145.121,4.0
11982,3128,Box Hill Central,Victoria,VIC,-37.8256,145.1232,3.0
11983,3128,Box Hill,Victoria,VIC,-37.8189,145.1254,4.0
11984,3128,Wattle Park,Victoria,VIC,-37.829,145.1248,3.0
11985,3128,Houston,Victoria,VIC,-37.829,145.1248,3.0
11986,3129,Box Hill North,Victoria,VIC,-37.8027,145.1266,4.0
11987,3129,Kerrimuir,Victoria,VIC,-37.8048,145.1229,3.0
11988,3129,Mont Albert North,Victoria,VIC,-37.8004,145.1083,4.0
11989,3130,Blackburn North,Victoria,VIC,-37.8093,145.1518,4.0
11990,3130,Blackburn South,Victoria,VIC,-37.8398,145.1555,4.0
11991,3130,Blackburn,Victoria,VIC,-37.819,145.1533,4.0
11992,3130,Laburnum,Victoria,VIC,-37.8232,145.1511,3.0
11993,3131,Forest Hill,Victoria,VIC,-37.8333,145.1833,4.0
11994,3131,Brentford Square,Victoria,VIC,-37.8275,145.1739,3.0
11995,3131,Nunawading,Victoria,VIC,-37.8204,145.1731,4.0
11996,3132,Mitcham North,Victoria,VIC,-37.8182,145.199,3.0
11997,3132,Mitcham,Victoria,VIC,-37.8167,145.2,4.0
11998,3132,Rangeview,Victoria,VIC,-37.8186,145.1987,3.0
11999,3133,Vermont,Victoria,VIC,-37.8362,145.1943,4.0
12000,3133,Vermont South,Victoria,VIC,-37.8575,145.1827,4.0
12001,3134,Warrandyte South,Victoria,VIC,-37.7667,145.25,4.0
12002,3134,Heathwood,Victoria,VIC,-37.7944,145.2389,3.0
12003,3134,Warranwood,Victoria,VIC,-37.7756,145.2473,4.0
12004,3134,Ringwood North,Victoria,VIC,-37.8,145.2333,4.0
12005,3134,Ringwood,Victoria,VIC,-37.8167,145.2333,4.0
12006,3135,Bedford Road,Victoria,VIC,-37.8213,145.2489,3.0
12007,3135,Ringwood East,Victoria,VIC,-37.8167,145.25,4.0
12008,3135,Heathmont,Victoria,VIC,-37.8333,145.25,4.0
12009,3136,Croydon North,Victoria,VIC,-37.7833,145.3,4.0
12010,3136,Croydon South,Victoria,VIC,-37.8123,145.2681,4.0
12011,3136,Croydon Hills,Victoria,VIC,-37.7765,145.2636,4.0
12012,3136,Croydon,Victoria,VIC,-37.8,145.2833,4.0
12013,3137,Kilsyth,Victoria,VIC,-37.8,145.3167,4.0
12014,3137,Kilsyth South,Victoria,VIC,-37.8203,145.316,4.0
12015,3138,Mooroolbark,Victoria,VIC,-37.7833,145.3,4.0
12016,3139,Hoddles Creek,Victoria,VIC,-37.8333,145.5833,4.0
12017,3139,Beenak,Victoria,VIC,-37.9,145.6333,4.0
12018,3139,Don Valley,Victoria,VIC,-37.7364,145.5923,4.0
12019,3139,Seville,Victoria,VIC,-37.7667,145.4667,4.0
12020,3139,Woori Yallock,Victoria,VIC,-37.7806,145.5382,4.0
12021,3139,Yellingbo,Victoria,VIC,-37.846,145.5291,4.0
12022,3139,Wandin North,Victoria,VIC,-37.7833,145.4333,4.0
12023,3139,Launching Place,Victoria,VIC,-37.7806,145.5683,4.0
12024,3139,Seville East,Victoria,VIC,-37.775,145.4973,4.0
12025,3139,Wandin East,Victoria,VIC,-37.8151,145.458,4.0
12026,3140,Lilydale,Victoria,VIC,-37.75,145.35,4.0
12027,3141,South Yarra,Victoria,VIC,-37.8333,144.9833,4.0
12028,3142,Toorak,Victoria,VIC,-37.8416,145.0144,4.0
12029,3142,Hawksburn,Victoria,VIC,-37.8416,145.0177,3.0
12030,3143,Armadale,Victoria,VIC,-37.8554,145.0205,4.0
12031,3143,Armadale North,Victoria,VIC,-37.85,145.0333,4.0
12032,3144,Kooyong,Victoria,VIC,-37.8399,145.0352,4.0
12033,3144,Malvern,Victoria,VIC,-37.8626,145.0281,4.0
12034,3144,Malvern North,Victoria,VIC,-37.8512,145.0317,3.0
12035,3145,Malvern East,Victoria,VIC,-37.874,145.0425,4.0
12036,3145,Darling,Victoria,VIC,-37.8775,145.0624,3.0
12037,3145,Caulfield East,Victoria,VIC,-37.8833,145.05,4.0
12038,3145,Central Park,Victoria,VIC,-37.8775,145.0624,3.0
12039,3145,Darling South,Victoria,VIC,-37.874,145.0425,3.0
12040,3145,Wattletree Road Po,Victoria,VIC,-37.874,145.0425,3.0
12041,3146,Glen Iris,Victoria,VIC,-37.8667,145.0667,4.0
12042,3146,Tooronga,Victoria,VIC,-37.8599,145.0549,3.0
12043,3147,Ashwood,Victoria,VIC,-37.8666,145.1055,4.0
12044,3147,Ashburton,Victoria,VIC,-37.8626,145.0794,4.0
12045,3148,Jordanville,Victoria,VIC,-37.8833,145.1167,3.0
12046,3148,Holmesglen,Victoria,VIC,-37.8821,145.1002,3.0
12047,3148,Chadstone,Victoria,VIC,-37.8877,145.0952,4.0
12048,3148,Chadstone Centre,Victoria,VIC,-37.8855,145.1059,3.0
12049,3149,Syndal,Victoria,VIC,-37.8742,145.1479,4.0
12050,3149,Pinewood,Victoria,VIC,-37.8756,145.1387,3.0
12051,3149,Mount Waverley,Victoria,VIC,-37.8771,145.1294,4.0
12052,3150,Wheelers Hill,Victoria,VIC,-37.9,145.1833,4.0
12053,3150,Brandon Park,Victoria,VIC,-37.8891,145.174,3.0
12054,3150,Glen Waverley,Victoria,VIC,-37.8781,145.1648,4.0
12055,3151,Burwood Heights,Victoria,VIC,-37.8535,145.1503,3.0
12056,3151,Burwood East,Victoria,VIC,-37.85,145.15,4.0
12057,3152,Wantirna South,Victoria,VIC,-37.8833,145.2167,4.0
12058,3152,Knox City Centre,Victoria,VIC,-37.8656,145.2228,3.0
12059,3152,Wantirna,Victoria,VIC,-37.85,145.2167,4.0
12060,3152,Studfield,Victoria,VIC,-37.8656,145.2228,3.0
12061,3153,Bayswater North,Victoria,VIC,-37.8261,145.2983,4.0
12062,3153,Bayswater,Victoria,VIC,-37.85,145.2667,4.0
12063,3154,The Basin,Victoria,VIC,-37.85,145.3167,4.0
12064,3155,Boronia,Victoria,VIC,-37.8667,145.2833,4.0
12065,3156,Lysterfield South,Victoria,VIC,-37.9581,145.2727,4.0
12066,3156,Lysterfield,Victoria,VIC,-37.9333,145.3,4.0
12067,3156,Mountain Gate,Victoria,VIC,-37.9136,145.2823,3.0
12068,3156,Upper Ferntree Gully,Victoria,VIC,-37.8942,145.3124,4.0
12069,3156,Ferntree Gully,Victoria,VIC,-37.8846,145.2954,4.0
12070,3158,Upwey,Victoria,VIC,-37.9,145.3333,4.0
12071,3159,Menzies Creek,Victoria,VIC,-37.9167,145.4,4.0
12072,3159,Selby,Victoria,VIC,-37.9167,145.3833,4.0
12073,3160,Tecoma,Victoria,VIC,-37.903,145.3447,4.0
12074,3160,Belgrave South,Victoria,VIC,-37.9333,145.3333,4.0
12075,3160,Belgrave Heights,Victoria,VIC,-37.9167,145.35,4.0
12076,3160,Belgrave,Victoria,VIC,-37.9,145.35,4.0
12077,3161,Caulfield North,Victoria,VIC,-37.8739,145.0249,4.0
12078,3161,Caulfield Junction,Victoria,VIC,-37.872,145.0216,3.0
12079,3162,Caulfield South,Victoria,VIC,-37.8956,145.026,4.0
12080,3162,Hopetoun Gardens,Victoria,VIC,-37.8914,145.0254,3.0
12081,3162,Caulfield,Victoria,VIC,-37.8825,145.0229,4.0
12082,3163,Glen Huntly,Victoria,VIC,-37.8833,145.05,4.0
12083,3163,Carnegie,Victoria,VIC,-37.8833,145.0667,4.0
12084,3163,Booran Road Po,Victoria,VIC,-37.8895,145.0581,3.0
12085,3163,Murrumbeena,Victoria,VIC,-37.8902,145.0711,4.0
12086,3164,Dandenong South,Victoria,VIC,-37.9833,145.2,4.0
12087,3165,Coatesville,Victoria,VIC,-37.9221,145.0667,3.0
12088,3165,Bentleigh East,Victoria,VIC,-37.9193,145.053,4.0
12089,3166,Oakleigh East,Victoria,VIC,-37.9,145.1167,4.0
12090,3166,Oakleigh,Victoria,VIC,-37.8981,145.0884,4.0
12091,3166,Huntingdale,Victoria,VIC,-37.9077,145.1085,4.0
12092,3166,Hughesdale,Victoria,VIC,-37.9,145.0833,4.0
12093,3167,Oakleigh South,Victoria,VIC,-37.9,145.1,4.0
12094,3168,Notting Hill,Victoria,VIC,-37.905,145.1427,4.0
12095,3168,Clayton,Victoria,VIC,-37.9173,145.1304,4.0
12096,3169,Clarinda,Victoria,VIC,-37.9333,145.1167,4.0
12097,3169,Clayton South,Victoria,VIC,-37.9333,145.1167,4.0
12098,3170,Waverley Gardens,Victoria,VIC,-37.9167,145.2,3.0
12099,3170,Mulgrave,Victoria,VIC,-37.9167,145.2,4.0
12100,3171,Sandown Village,Victoria,VIC,-37.9457,145.1581,3.0
12101,3171,Springvale,Victoria,VIC,-37.9485,145.1527,4.0
12102,3172,Springvale South,Victoria,VIC,-37.9667,145.15,4.0
12103,3172,Dingley Village,Victoria,VIC,-37.9827,145.1342,4.0
12104,3173,Keysborough,Victoria,VIC,-37.9912,145.1739,4.0
12105,3174,Noble Park,Victoria,VIC,-37.9667,145.1667,4.0
12106,3174,Noble Park North,Victoria,VIC,-37.9498,145.1926,4.0
12107,3175,Dandenong East,Victoria,VIC,-37.9833,145.2,3.0
12108,3175,Dunearn,Victoria,VIC,-37.9833,145.2,3.0
12109,3175,Dandenong South,Victoria,VIC,-37.9833,145.2,4.0
12110,3175,Dandenong North,Victoria,VIC,-37.9665,145.2081,4.0
12111,3175,Dandenong,Victoria,VIC,-37.9833,145.2,4.0
12112,3175,Bangholme,Victoria,VIC,-38.0384,145.1869,4.0
12113,3176,Scoresby Bc,Victoria,VIC,-37.9636,145.1943,1.0
12114,3177,Doveton,Victoria,VIC,-37.9935,145.2389,4.0
12115,3177,Eumemmerring,Victoria,VIC,-37.9978,145.2482,4.0
12116,3178,Rowville,Victoria,VIC,-37.9333,145.2333,4.0
12117,3179,Scoresby,Victoria,VIC,-37.9,145.2333,4.0
12118,3180,Knoxfield,Victoria,VIC,-37.8898,145.2496,4.0
12119,3181,Prahran,Victoria,VIC,-37.8511,144.9932,4.0
12120,3181,Windsor,Victoria,VIC,-37.8548,144.9927,4.0
12121,3181,Prahran East,Victoria,VIC,-37.853,144.9929,3.0
12122,3182,St Kilda West,Victoria,VIC,-37.8599,144.9711,4.0
12123,3182,St Kilda South,Victoria,VIC,-37.8633,144.9802,3.0
12124,3182,St Kilda,Victoria,VIC,-37.8633,144.9802,3.0
12125,3183,St Kilda East,Victoria,VIC,-37.8659,145.0002,4.0
12126,3183,Balaclava,Victoria,VIC,-37.8692,144.9977,4.0
12127,3184,Elwood,Victoria,VIC,-37.8821,144.9821,4.0
12128,3184,Brighton Road,Victoria,VIC,-37.8809,144.9855,3.0
12129,3185,Elsternwick,Victoria,VIC,-37.8864,145.0025,4.0
12130,3185,Gardenvale,Victoria,VIC,-37.8979,145.0074,4.0
12131,3185,Ripponlea,Victoria,VIC,-37.8833,145.0,4.0
12132,3186,Dendy,Victoria,VIC,-37.895,145.0191,3.0
12133,3186,Brighton,Victoria,VIC,-37.9056,145.0028,4.0
12134,3186,Brighton North,Victoria,VIC,-37.9069,145.0053,4.0
12135,3186,Were Street Po,Victoria,VIC,-37.9057,145.0067,3.0
12136,3187,North Road,Victoria,VIC,-37.9667,145.0167,4.0
12137,3187,Brighton East,Victoria,VIC,-37.9023,145.0173,4.0
12138,3188,Hampton,Victoria,VIC,-37.9372,145.0046,4.0
12139,3188,Hampton East,Victoria,VIC,-37.937,145.0286,4.0
12140,3188,Hampton North,Victoria,VIC,-37.9374,145.0151,3.0
12141,3189,Moorabbin,Victoria,VIC,-37.9367,145.0342,4.0
12142,3189,Moorabbin East,Victoria,VIC,-37.9367,145.0342,4.0
12143,3189,Wishart,Victoria,VIC,-37.9415,145.0578,3.0
12144,3190,Highett,Victoria,VIC,-37.95,145.05,4.0
12145,3191,Sandringham,Victoria,VIC,-37.95,145.0,4.0
12146,3192,Cheltenham,Victoria,VIC,-37.9694,145.0481,4.0
12147,3192,Cheltenham East,Victoria,VIC,-37.9634,145.0615,3.0
12148,3192,Southland Centre,Victoria,VIC,-37.9634,145.0615,3.0
12149,3193,Beaumaris,Victoria,VIC,-37.9822,145.0389,4.0
12150,3193,Black Rock North,Victoria,VIC,-37.9667,145.0167,4.0
12151,3193,Black Rock,Victoria,VIC,-37.9736,145.0164,4.0
12152,3193,Cromer,Victoria,VIC,-37.9773,145.0323,3.0
12153,3194,Mentone,Victoria,VIC,-37.9833,145.0667,4.0
12154,3194,Mentone East,Victoria,VIC,-37.9833,145.0667,3.0
12155,3194,Moorabbin Airport,Victoria,VIC,-37.9799,145.0815,3.0
12156,3195,Braeside,Victoria,VIC,-37.9995,145.1163,4.0
12157,3195,Mordialloc,Victoria,VIC,-38.0,145.0833,4.0
12158,3195,Waterways,Victoria,VIC,-38.0148,145.1305,4.0
12159,3195,Aspendale Gardens,Victoria,VIC,-38.0228,145.118,4.0
12160,3195,Parkdale,Victoria,VIC,-37.9942,145.0734,4.0
12161,3195,Aspendale,Victoria,VIC,-38.0291,145.1027,4.0
12162,3196,Chelsea Heights,Victoria,VIC,-38.0333,145.1333,4.0
12163,3196,Edithvale,Victoria,VIC,-38.0372,145.1097,4.0
12164,3196,Bonbeach,Victoria,VIC,-38.0653,145.1228,4.0
12165,3196,Chelsea,Victoria,VIC,-38.05,145.1167,4.0
12166,3197,Carrum,Victoria,VIC,-38.0833,145.1333,4.0
12167,3197,Patterson Lakes,Victoria,VIC,-38.0693,145.1433,4.0
12168,3198,Belvedere Park,Victoria,VIC,-38.1049,145.1382,3.0
12169,3198,Seaford,Victoria,VIC,-38.1,145.1333,4.0
12170,3199,Karingal Centre,Victoria,VIC,-38.1278,145.15,3.0
12171,3199,Frankston South,Victoria,VIC,-38.166,145.1364,4.0
12172,3199,Frankston East,Victoria,VIC,-38.1333,145.1333,4.0
12173,3199,Frankston,Victoria,VIC,-38.1446,145.1229,4.0
12174,3199,Frankston Heights,Victoria,VIC,-38.1278,145.15,3.0
12175,3199,Karingal,Victoria,VIC,-38.1604,145.1399,3.0
12176,3200,Frankston North,Victoria,VIC,-38.1235,145.1484,4.0
12177,3200,Pines Forest,Victoria,VIC,-38.1213,145.1552,3.0
12178,3201,Carrum Downs,Victoria,VIC,-38.0997,145.1725,4.0
12179,3202,Heatherton,Victoria,VIC,-37.956,145.0984,4.0
12180,3204,Ormond,Victoria,VIC,-37.9039,145.0415,4.0
12181,3204,Patterson,Victoria,VIC,-38.0693,145.1433,4.0
12182,3204,Bentleigh,Victoria,VIC,-37.9181,145.0354,4.0
12183,3204,Mckinnon,Victoria,VIC,-37.9167,145.05,4.0
12184,3205,South Melbourne Dc,Victoria,VIC,-37.8335,144.9571,3.0
12185,3205,South Melbourne,Victoria,VIC,-37.8333,144.9667,4.0
12186,3206,Albert Park,Victoria,VIC,-37.8333,145.0,4.0
12187,3206,Middle Park,Victoria,VIC,-37.8512,144.962,4.0
12188,3207,Garden City,Victoria,VIC,-37.836,144.9183,4.0
12189,3207,Port Melbourne,Victoria,VIC,-37.8396,144.9423,4.0
12190,3211,Little River,Victoria,VIC,-37.9667,144.5,4.0
12191,3212,Avalon,Victoria,VIC,-38.0239,144.4062,3.0
12192,3212,Lara,Victoria,VIC,-38.0239,144.4062,4.0
12193,3212,Point Wilson,Victoria,VIC,-38.0239,144.4062,3.0
12194,3213,Anakie,Victoria,VIC,-37.9167,144.25,4.0
12195,3213,Moorabool,Victoria,VIC,-38.0833,144.3,4.0
12196,3213,Lovely Banks,Victoria,VIC,-38.0667,144.3333,4.0
12197,3213,Batesford,Victoria,VIC,-38.1,144.2833,4.0
12198,3214,Norlane,Victoria,VIC,-38.1014,144.3542,4.0
12199,3214,North Shore,Victoria,VIC,-38.1,144.3667,4.0
12200,3214,Corio,Victoria,VIC,-38.0833,144.3833,4.0
12201,3215,Geelong North,Victoria,VIC,-38.1,144.3667,3.0
12202,3215,Bell Post Hill,Victoria,VIC,-38.0956,144.3197,4.0
12203,3215,North Geelong,Victoria,VIC,-38.1095,144.3513,4.0
12204,3215,Rippleside,Victoria,VIC,-38.1257,144.355,4.0
12205,3215,Hamlyn Heights,Victoria,VIC,-38.1211,144.328,4.0
12206,3215,Drumcondra,Victoria,VIC,-38.1302,144.3538,4.0
12207,3215,Bell Park,Victoria,VIC,-38.1079,144.3384,4.0
12208,3216,Highton,Victoria,VIC,-38.1706,144.3114,4.0
12209,3216,Belmont,Victoria,VIC,-38.1748,144.3428,4.0
12210,3216,Freshwater Creek,Victoria,VIC,-38.2667,144.2833,4.0
12211,3216,Grovedale East,Victoria,VIC,-38.2113,144.3244,3.0
12212,3216,Mount Duneed,Victoria,VIC,-38.2409,144.3375,4.0
12213,3216,Marshall,Victoria,VIC,-38.2,144.3667,4.0
12214,3216,Wandana Heights,Victoria,VIC,-38.1758,144.3039,4.0
12215,3216,Grovedale,Victoria,VIC,-38.2,144.35,4.0
12216,3216,Waurn Ponds,Victoria,VIC,-38.2167,144.2833,4.0
12217,3217,Deakin University,Victoria,VIC,-38.1974,144.3023,3.0
12218,3217,Mount Duneed,Victoria,VIC,-38.2409,144.3375,4.0
12219,3217,Freshwater Creek,Victoria,VIC,-38.2667,144.2833,4.0
12220,3217,Charlemont,Victoria,VIC,-38.2187,144.3677,4.0
12221,3217,Armstrong Creek,Victoria,VIC,-38.2312,144.3737,4.0
12222,3218,Fyansford,Victoria,VIC,-38.1333,144.3167,4.0
12223,3218,Stonehaven,Victoria,VIC,-38.1236,144.2291,4.0
12224,3218,Geelong West,Victoria,VIC,-38.1389,144.3484,4.0
12225,3218,Manifold Heights,Victoria,VIC,-38.1376,144.3337,4.0
12226,3218,Herne Hill,Victoria,VIC,-38.1343,144.3241,4.0
12227,3218,Murgheboluc,Victoria,VIC,-38.0833,144.1333,4.0
12228,3219,Thomson,Victoria,VIC,-38.1698,144.3789,4.0
12229,3219,St Albans Park,Victoria,VIC,-38.188,144.3921,4.0
12230,3219,Newcomb,Victoria,VIC,-38.1662,144.3943,4.0
12231,3219,East Geelong,Victoria,VIC,-38.1557,144.372,4.0
12232,3219,Whittington,Victoria,VIC,-38.1808,144.3932,4.0
12233,3219,Breakwater,Victoria,VIC,-38.1799,144.3676,4.0
12234,3220,South Geelong,Victoria,VIC,-38.1619,144.3556,4.0
12235,3220,Bareena,Victoria,VIC,-38.1505,144.3479,3.0
12236,3220,Newtown,Victoria,VIC,-38.1539,144.3351,4.0
12237,3220,Geelong,Victoria,VIC,-38.1471,144.3607,4.0
12238,3221,Murgheboluc,Victoria,VIC,-38.0833,144.1333,4.0
12239,3221,Fyansford,Victoria,VIC,-38.1333,144.3167,4.0
12240,3221,Stonehaven,Victoria,VIC,-38.1236,144.2291,4.0
12241,3221,Batesford,Victoria,VIC,-38.1,144.2833,4.0
12242,3221,Gnarwarre,Victoria,VIC,-38.1667,144.15,4.0
12243,3221,Moolap,Victoria,VIC,-38.1833,144.4333,4.0
12244,3221,Bellarine,Victoria,VIC,-38.1333,144.6167,4.0
12245,3221,Geelong Mc,Victoria,VIC,-38.2043,144.223,3.0
12246,3221,Ceres,Victoria,VIC,-38.1667,144.2667,4.0
12247,3221,Staughton Vale,Victoria,VIC,-37.85,144.2833,4.0
12248,3221,Wongarra,Victoria,VIC,-38.7167,143.75,4.0
12249,3221,Moorabool,Victoria,VIC,-38.0833,144.3,4.0
12250,3221,Anakie,Victoria,VIC,-37.9167,144.25,4.0
12251,3221,Barrabool,Victoria,VIC,-38.1667,144.2263,4.0
12252,3221,Kennett River,Victoria,VIC,-38.6685,143.8584,4.0
12253,3221,Wye River,Victoria,VIC,-38.6333,143.8833,4.0
12254,3221,Wallington,Victoria,VIC,-38.2,144.4833,4.0
12255,3221,Lovely Banks,Victoria,VIC,-38.0667,144.3333,4.0
12256,3222,Mannerim,Victoria,VIC,-38.2167,144.5833,4.0
12257,3222,Drysdale,Victoria,VIC,-38.1724,144.5699,4.0
12258,3222,Marcus Hill,Victoria,VIC,-38.25,144.5667,4.0
12259,3222,Clifton Springs,Victoria,VIC,-38.1567,144.5551,4.0
12260,3222,Curlewis,Victoria,VIC,-38.1833,144.4833,4.0
12261,3222,Wallington,Victoria,VIC,-38.2,144.4833,4.0
12262,3223,St Leonards,Victoria,VIC,-38.1705,144.718,4.0
12263,3223,Indented Head,Victoria,VIC,-38.1431,144.7134,4.0
12264,3223,Bellarine,Victoria,VIC,-38.1333,144.6167,4.0
12265,3223,Portarlington,Victoria,VIC,-38.1154,144.6556,4.0
12266,3224,Leopold,Victoria,VIC,-38.19,144.4682,4.0
12267,3224,Moolap,Victoria,VIC,-38.1833,144.4333,4.0
12268,3225,Point Lonsdale,Victoria,VIC,-38.2817,144.6105,4.0
12269,3225,Queenscliff,Victoria,VIC,-38.2679,144.6619,4.0
12270,3225,Swan Island,Victoria,VIC,-35.4034,143.6912,4.0
12271,3225,Swan Bay,Victoria,VIC,-38.2756,144.631,3.0
12272,3226,Ocean Grove,Victoria,VIC,-38.2653,144.5147,4.0
12273,3227,Connewarre,Victoria,VIC,-38.2667,144.4,4.0
12274,3227,Breamlea,Victoria,VIC,-38.2597,144.4509,3.0
12275,3227,Barwon Heads,Victoria,VIC,-38.2653,144.5147,4.0
12276,3228,Bellbrae,Victoria,VIC,-38.3333,144.2667,4.0
12277,3228,Torquay,Victoria,VIC,-38.3308,144.3264,4.0
12278,3228,Bells Beach,Victoria,VIC,-38.3751,144.2564,4.0
12279,3228,Jan Juc,Victoria,VIC,-38.3445,144.2952,4.0
12280,3230,Anglesea,Victoria,VIC,-38.4073,144.1859,4.0
12281,3231,Aireys Inlet,Victoria,VIC,-38.464,144.1039,4.0
12282,3231,Eastern View,Victoria,VIC,-38.4595,144.0909,3.0
12283,3231,Fairhaven,Victoria,VIC,-38.35,145.2833,4.0
12284,3231,Big Hill,Victoria,VIC,-38.407,144.6936,3.0
12285,3231,Moggs Creek,Victoria,VIC,-38.4595,144.0909,3.0
12286,3232,Lorne,Victoria,VIC,-38.5404,143.9764,4.0
12287,3233,Apollo Bay,Victoria,VIC,-38.7594,143.6722,4.0
12288,3233,Cape Otway,Victoria,VIC,-38.85,143.5167,4.0
12289,3233,Skenes Creek North,Victoria,VIC,-38.7803,143.6403,3.0
12290,3233,Marengo,Victoria,VIC,-38.7783,143.6555,4.0
12291,3233,Petticoat Creek,Victoria,VIC,-38.7803,143.6403,3.0
12292,3233,Skenes Creek,Victoria,VIC,-38.7333,143.7167,4.0
12293,3234,Grey River,Victoria,VIC,-38.6622,143.8466,3.0
12294,3234,Wye River,Victoria,VIC,-38.6333,143.8833,4.0
12295,3234,Wongarra,Victoria,VIC,-38.7167,143.75,4.0
12296,3234,Separation Creek,Victoria,VIC,-38.6304,143.8945,4.0
12297,3234,Sugarloaf,Victoria,VIC,-38.6622,143.8466,3.0
12298,3234,Kennett River,Victoria,VIC,-38.6685,143.8584,4.0
12299,3235,Deans Marsh,Victoria,VIC,-38.4,143.8667,4.0
12300,3235,Boonah,Victoria,VIC,-38.4167,143.9333,4.0
12301,3235,Pennyroyal,Victoria,VIC,-38.4167,143.85,4.0
12302,3235,Benwerrin,Victoria,VIC,-38.4111,143.8833,3.0
12303,3236,Mount Sabine,Victoria,VIC,-38.6333,143.7167,4.0
12304,3236,Forrest,Victoria,VIC,-38.5167,143.7167,4.0
12305,3237,Beech Forest,Victoria,VIC,-38.6366,143.5678,4.0
12306,3237,Wattle Hill,Victoria,VIC,-38.7833,143.25,4.0
12307,3237,Aire Valley,Victoria,VIC,-38.703,143.5728,4.0
12308,3237,Wyelangta,Victoria,VIC,-38.6333,143.4667,4.0
12309,3237,Ferguson,Victoria,VIC,-38.631,143.5258,4.0
12310,3237,Gellibrand Lower,Victoria,VIC,-38.7167,143.25,4.0
12311,3237,Yuulong,Victoria,VIC,-38.6722,143.4278,3.0
12312,3237,Weeaproinah,Victoria,VIC,-38.6333,143.5,4.0
12313,3238,Johanna,Victoria,VIC,-38.756,143.3893,4.0
12314,3238,Lavers Hill,Victoria,VIC,-38.6667,143.4,4.0
12315,3238,Hordern Vale,Victoria,VIC,-38.7782,143.5004,4.0
12316,3238,Glenaire,Victoria,VIC,-38.7333,143.4278,3.0
12317,3239,Chapple Vale,Victoria,VIC,-38.6333,143.3167,4.0
12318,3239,Carlisle River,Victoria,VIC,-38.5667,143.3833,4.0
12319,3239,Kennedys Creek,Victoria,VIC,-38.6,143.25,4.0
12320,3239,Gellibrand,Victoria,VIC,-38.5167,143.5333,4.0
12321,3240,Moriac,Victoria,VIC,-38.2409,144.1748,4.0
12322,3240,Modewarre,Victoria,VIC,-38.25,144.1333,4.0
12323,3240,Buckley,Victoria,VIC,-38.2333,144.1,4.0
12324,3240,Mount Moriac,Victoria,VIC,-38.2167,144.1833,4.0
12325,3240,Paraparap,Victoria,VIC,-38.2504,144.139,3.0
12326,3240,Gherang,Victoria,VIC,-38.3113,144.1034,4.0
12327,3241,Wensleydale,Victoria,VIC,-38.35,144.0333,4.0
12328,3241,Winchelsea,Victoria,VIC,-38.2448,143.9832,4.0
12329,3241,Bambra,Victoria,VIC,-38.3667,143.9333,4.0
12330,3241,Ombersley,Victoria,VIC,-38.3154,144.0,3.0
12331,3241,Winchelsea South,Victoria,VIC,-38.3154,144.0,3.0
12332,3241,Wurdiboluc,Victoria,VIC,-38.3,144.05,4.0
12333,3242,Birregurra,Victoria,VIC,-38.3368,143.7847,4.0
12334,3243,Whoorel,Victoria,VIC,-38.3667,143.8167,4.0
12335,3243,Murroon,Victoria,VIC,-38.4333,143.8167,4.0
12336,3243,Gerangamete,Victoria,VIC,-38.45,143.7333,4.0
12337,3243,Barwon Downs,Victoria,VIC,-38.4667,143.75,4.0
12338,3243,Warncoort,Victoria,VIC,-38.3167,143.7167,4.0
12339,3249,Barongarook,Victoria,VIC,-38.4167,143.6,4.0
12340,3249,Swan Marsh,Victoria,VIC,-38.3667,143.3833,4.0
12341,3249,Dreeite,Victoria,VIC,-38.1833,143.5167,4.0
12342,3249,Barongarook West,Victoria,VIC,-38.364,143.5632,3.0
12343,3249,Yeo,Victoria,VIC,-38.4167,143.7,4.0
12344,3249,Dreeite South,Victoria,VIC,-38.364,143.5632,3.0
12345,3249,Larpent,Victoria,VIC,-38.35,143.5,4.0
12346,3249,Coragulac,Victoria,VIC,-38.2667,143.5333,4.0
12347,3249,Irrewarra,Victoria,VIC,-38.3167,143.6333,4.0
12348,3249,Pirron Yallock,Victoria,VIC,-38.35,143.4333,4.0
12349,3249,Tanybryn,Victoria,VIC,-38.65,143.7167,4.0
12350,3249,Pomborneit East,Victoria,VIC,-38.364,143.5632,3.0
12351,3249,Yeodene,Victoria,VIC,-38.4167,143.7,4.0
12352,3249,Corunnun,Victoria,VIC,-38.3019,143.5942,3.0
12353,3249,Warrion,Victoria,VIC,-38.2333,143.5667,4.0
12354,3249,Wool Wool,Victoria,VIC,-38.25,143.4167,4.0
12355,3249,Ondit,Victoria,VIC,-38.25,143.6333,4.0
12356,3249,Irrewillipe East,Victoria,VIC,-38.364,143.5632,3.0
12357,3249,Gerangamete,Victoria,VIC,-38.45,143.7333,4.0
12358,3249,Balintore,Victoria,VIC,-38.364,143.5632,3.0
12359,3249,Nalangil,Victoria,VIC,-38.3,143.45,4.0
12360,3249,Kawarren,Victoria,VIC,-38.4833,143.5833,4.0
12361,3249,Irrewillipe,Victoria,VIC,-38.4,143.4167,4.0
12362,3249,Barramunga,Victoria,VIC,-38.5833,143.6833,4.0
12363,3249,Alvie,Victoria,VIC,-38.2333,143.5,4.0
12364,3250,Colac West,Victoria,VIC,-38.3445,143.5841,3.0
12365,3250,Colac East,Victoria,VIC,-38.3445,143.5841,3.0
12366,3250,Colac,Victoria,VIC,-38.339,143.5849,4.0
12367,3250,Elliminyt,Victoria,VIC,-38.35,143.5833,4.0
12368,3251,Cundare North,Victoria,VIC,-38.1167,143.5667,4.0
12369,3251,Cundare,Victoria,VIC,-38.1167,143.5667,4.0
12370,3251,Weering,Victoria,VIC,-38.1,143.6333,4.0
12371,3251,Beeac,Victoria,VIC,-38.1938,143.6413,4.0
12372,3251,Eurack,Victoria,VIC,-38.15,143.7,4.0
12373,3254,Cororooke,Victoria,VIC,-38.2833,143.5167,4.0
12374,3260,Kariah,Victoria,VIC,-38.1833,143.2167,4.0
12375,3260,Gnotuk,Victoria,VIC,-38.2167,143.1167,4.0
12376,3260,Carpendeit,Victoria,VIC,-38.3833,143.2667,4.0
12377,3260,Pomborneit North,Victoria,VIC,-38.2612,143.2241,3.0
12378,3260,Bostocks Creek,Victoria,VIC,-38.3,143.1167,4.0
12379,3260,Pomborneit,Victoria,VIC,-38.3,143.3,4.0
12380,3260,Weerite,Victoria,VIC,-38.25,143.25,4.0
12381,3260,Koallah,Victoria,VIC,-38.2612,143.2241,3.0
12382,3260,Leslie Manor,Victoria,VIC,-38.1333,143.3833,4.0
12383,3260,Camperdown,Victoria,VIC,-38.2339,143.1498,4.0
12384,3260,Tandarook,Victoria,VIC,-38.2612,143.2241,3.0
12385,3260,South Purrumbete,Victoria,VIC,-38.35,143.2167,4.0
12386,3260,Tesbury,Victoria,VIC,-38.2612,143.2241,3.0
12387,3260,Skibo,Victoria,VIC,-38.2612,143.2241,3.0
12388,3260,Chocolyn,Victoria,VIC,-38.2612,143.2241,3.0
12389,3260,Bookaar,Victoria,VIC,-38.2612,143.2241,3.0
12390,3260,Bungador,Victoria,VIC,-38.2512,143.2045,3.0
12391,3260,Stonyford,Victoria,VIC,-38.2512,143.2045,3.0
12392,3264,Terang,Victoria,VIC,-38.2408,142.9212,4.0
12393,3265,Boorcan,Victoria,VIC,-38.2167,143.0167,4.0
12394,3265,Noorat East,Victoria,VIC,-38.2472,142.8397,3.0
12395,3265,Kolora,Victoria,VIC,-38.1333,142.9167,4.0
12396,3265,The Sisters,Victoria,VIC,-38.2,142.7833,4.0
12397,3265,Ellerslie,Victoria,VIC,-38.15,142.7,4.0
12398,3265,Taroon,Victoria,VIC,-38.2472,142.8397,3.0
12399,3265,Dixie,Victoria,VIC,-38.3,142.9333,4.0
12400,3265,Garvoc,Victoria,VIC,-38.3,142.8333,4.0
12401,3265,Glenormiston South,Victoria,VIC,-38.1833,142.9667,4.0
12402,3265,Framlingham East,Victoria,VIC,-38.2,142.7,4.0
12403,3265,Laang,Victoria,VIC,-38.3667,142.8167,4.0
12404,3265,Panmure,Victoria,VIC,-38.3333,142.7333,4.0
12405,3265,Cudgee,Victoria,VIC,-38.35,142.65,4.0
12406,3265,Noorat,Victoria,VIC,-38.1916,142.9287,4.0
12407,3265,Glenormiston North,Victoria,VIC,-38.15,142.9833,4.0
12408,3265,Ecklin South,Victoria,VIC,-38.4,142.9167,4.0
12409,3265,Framlingham,Victoria,VIC,-38.2333,142.7167,4.0
12410,3266,Jancourt East,Victoria,VIC,-38.4143,143.1039,3.0
12411,3266,Elingamite North,Victoria,VIC,-38.35,143.0167,4.0
12412,3266,Elingamite,Victoria,VIC,-38.3833,143.0167,4.0
12413,3266,Simpson,Victoria,VIC,-38.5022,143.2501,4.0
12414,3266,Bullaharre,Victoria,VIC,-38.3753,143.0622,3.0
12415,3266,Jancourt,Victoria,VIC,-38.3667,143.1,4.0
12416,3266,Cobrico,Victoria,VIC,-38.3,143.0333,4.0
12417,3266,Naroghid,Victoria,VIC,-38.3753,143.0622,3.0
12418,3266,Glenfyne,Victoria,VIC,-38.4,142.9833,4.0
12419,3266,Cobden,Victoria,VIC,-38.3286,143.0748,4.0
12420,3267,Scotts Creek,Victoria,VIC,-38.4333,143.05,4.0
12421,3268,Nirranda,Victoria,VIC,-38.5,142.7833,4.0
12422,3268,Nullawarre,Victoria,VIC,-38.4667,142.7667,4.0
12423,3268,Timboon,Victoria,VIC,-38.4843,142.9803,4.0
12424,3268,Newfield,Victoria,VIC,-38.5667,143.0167,4.0
12425,3268,Ayrford,Victoria,VIC,-38.4249,142.8596,4.0
12426,3268,Brucknell,Victoria,VIC,-38.45,142.9333,4.0
12427,3268,Nirranda South,Victoria,VIC,-38.4987,142.9281,3.0
12428,3268,Heytesbury Lower,Victoria,VIC,-38.5667,142.9333,4.0
12429,3268,Curdie Vale,Victoria,VIC,-38.5167,142.8333,4.0
12430,3268,The Cove,Victoria,VIC,-38.4987,142.9281,3.0
12431,3268,Curdievale,Victoria,VIC,-38.4987,142.9281,3.0
12432,3268,Cowleys Creek,Victoria,VIC,-38.5,143.0,4.0
12433,3268,Curdies River,Victoria,VIC,-38.45,142.9667,4.0
12434,3268,Cooriemungle,Victoria,VIC,-38.5597,143.1363,4.0
12435,3268,Nirranda East,Victoria,VIC,-38.4987,142.9281,3.0
12436,3268,Nullawarre North,Victoria,VIC,-38.4987,142.9281,3.0
12437,3268,Timboon West,Victoria,VIC,-38.4987,142.9281,3.0
12438,3268,Paaratte,Victoria,VIC,-38.4987,142.9281,3.0
12439,3269,Princetown,Victoria,VIC,-38.6833,143.15,4.0
12440,3269,Port Campbell,Victoria,VIC,-38.6192,142.9958,4.0
12441,3269,Waarre,Victoria,VIC,-38.6513,143.0729,3.0
12442,3270,Peterborough,Victoria,VIC,-38.6035,142.8733,4.0
12443,3271,Dundonnell,Victoria,VIC,-37.85,142.9833,4.0
12444,3271,Darlington,Victoria,VIC,-38.0,143.05,4.0
12445,3271,Pura Pura,Victoria,VIC,-37.8167,143.0833,4.0
12446,3272,Mortlake,Victoria,VIC,-38.081,142.8083,4.0
12447,3272,Woorndoo,Victoria,VIC,-37.9,142.8167,4.0
12448,3273,Hexham,Victoria,VIC,-38.0,142.7,4.0
12449,3274,Caramut,Victoria,VIC,-37.95,142.5167,4.0
12450,3275,Mailer Flat,Victoria,VIC,-38.2876,142.4615,3.0
12451,3275,Mailors Flat,Victoria,VIC,-38.3,142.4667,4.0
12452,3276,Minjah,Victoria,VIC,-38.2,142.4333,3.0
12453,3276,Woolsthorpe,Victoria,VIC,-38.2,142.4333,4.0
12454,3277,Mepunga East,Victoria,VIC,-38.45,142.7333,4.0
12455,3277,Allansford,Victoria,VIC,-38.3864,142.5943,4.0
12456,3277,Naringal East,Victoria,VIC,-38.4216,142.6902,3.0
12457,3277,Naringal,Victoria,VIC,-38.4,142.7,4.0
12458,3277,Mepunga,Victoria,VIC,-38.45,142.7333,4.0
12459,3277,Mepunga West,Victoria,VIC,-38.4216,142.6902,3.0
12460,3278,Purnim,Victoria,VIC,-38.2833,142.6333,4.0
12461,3278,Purnim West,Victoria,VIC,-38.2833,142.6333,3.0
12462,3279,Wangoom,Victoria,VIC,-38.3333,142.5833,4.0
12463,3279,Ballangeich,Victoria,VIC,-38.2167,142.6667,4.0
12464,3280,Warrnambool,Victoria,VIC,-38.3818,142.488,4.0
12465,3280,Dennington,Victoria,VIC,-38.3667,142.45,4.0
12466,3281,Grassmere,Victoria,VIC,-38.2833,142.5333,4.0
12467,3281,Woodford,Victoria,VIC,-38.3167,142.4667,4.0
12468,3281,Bushfield,Victoria,VIC,-38.3333,142.5167,4.0
12469,3281,Winslow,Victoria,VIC,-38.2333,142.45,4.0
12470,3282,Koroit,Victoria,VIC,-38.2918,142.3673,4.0
12471,3282,Illowa,Victoria,VIC,-38.3333,142.4167,4.0
12472,3283,Warrong,Victoria,VIC,-38.2333,142.3667,4.0
12473,3283,Crossley,Victoria,VIC,-38.3,142.3333,4.0
12474,3283,Tower Hill,Victoria,VIC,-38.3333,142.35,4.0
12475,3283,Yangery,Victoria,VIC,-38.3167,142.4167,4.0
12476,3283,Southern Cross,Victoria,VIC,-38.3,142.4,4.0
12477,3283,Yarpturk,Victoria,VIC,-38.3,142.4333,4.0
12478,3283,Killarney,Victoria,VIC,-38.35,142.3333,4.0
12479,3283,Tarrone,Victoria,VIC,-38.2852,142.3574,3.0
12480,3283,Kirkstall,Victoria,VIC,-38.2667,142.3167,4.0
12481,3283,Willatook,Victoria,VIC,-38.1667,142.2667,4.0
12482,3284,Port Fairy,Victoria,VIC,-38.3853,142.2371,4.0
12483,3284,Orford,Victoria,VIC,-38.2035,142.1009,4.0
12484,3285,Yambuk,Victoria,VIC,-38.3156,142.0651,4.0
12485,3285,Codrington,Victoria,VIC,-38.2667,141.9667,4.0
12486,3285,Rosebrook,Victoria,VIC,-38.3536,142.2545,4.0
12487,3285,St Helens,Victoria,VIC,-38.2395,141.9049,3.0
12488,3285,Narrawong,Victoria,VIC,-38.25,141.7167,4.0
12489,3285,Toolong,Victoria,VIC,-38.2395,141.9049,3.0
12490,3285,Tyrendarra,Victoria,VIC,-38.2167,141.7833,4.0
12491,3285,Tyrendarra East,Victoria,VIC,-38.25,141.9,4.0
12492,3286,Warrabkook,Victoria,VIC,-38.0,142.0167,4.0
12493,3286,Macarthur,Victoria,VIC,-38.0339,142.0018,4.0
12494,3286,Condah Swamp,Victoria,VIC,-38.0113,141.9617,3.0
12495,3286,Knebsworth,Victoria,VIC,-38.0,141.8667,4.0
12496,3287,Minhamite,Victoria,VIC,-37.9833,142.35,4.0
12497,3287,Hawkesdale,Victoria,VIC,-38.1167,142.3167,4.0
12498,3289,Gazette,Victoria,VIC,-37.8751,142.2913,3.0
12499,3289,Tabor,Victoria,VIC,-37.8333,142.2,4.0
12500,3289,Gerrigerrup,Victoria,VIC,-37.8751,142.2913,3.0
12501,3289,Penshurst,Victoria,VIC,-37.8753,142.2907,4.0
12502,3289,Purdeet,Victoria,VIC,-37.9167,142.3833,4.0
12503,3292,Nelson,Victoria,VIC,-38.05,141.0167,4.0
12504,3293,Glenthompson,Victoria,VIC,-37.7187,142.5402,1.0
12505,3293,Narrapumelap South,Victoria,VIC,-37.7187,142.5402,1.0
12506,3293,Nareeb,Victoria,VIC,-37.6555,142.0879,1.0
12507,3294,Moutajup,Victoria,VIC,-37.6667,142.2333,4.0
12508,3294,Victoria Point,Victoria,VIC,-37.5766,142.3021,3.0
12509,3294,Mirranatwa,Victoria,VIC,-37.4167,142.4167,4.0
12510,3294,Woodhouse,Victoria,VIC,-37.5766,142.3021,3.0
12511,3294,Dunkeld,Victoria,VIC,-37.6499,142.3439,4.0
12512,3294,Karabeal,Victoria,VIC,-37.6,142.1833,4.0
12513,3294,Victoria Valley,Victoria,VIC,-37.55,142.3333,4.0
12514,3300,Hamilton,Victoria,VIC,-37.7442,142.022,4.0
12515,3300,Byaduk North,Victoria,VIC,-37.8928,141.9553,4.0
12516,3301,Yatchaw,Victoria,VIC,-37.8167,142.1,4.0
12517,3301,Wannon,Victoria,VIC,-37.6667,141.8333,4.0
12518,3301,Croxton East,Victoria,VIC,-37.8,142.2167,4.0
12519,3301,Mount Napier,Victoria,VIC,-37.7904,142.0065,3.0
12520,3301,Bochara,Victoria,VIC,-37.7,141.9333,4.0
12521,3301,Tahara,Victoria,VIC,-37.7333,141.7,4.0
12522,3301,Tarrington,Victoria,VIC,-37.7667,142.1,4.0
12523,3301,Hensley Park,Victoria,VIC,-37.7904,142.0065,3.0
12524,3301,Byaduk,Victoria,VIC,-37.9523,141.9552,4.0
12525,3301,Warrayure,Victoria,VIC,-37.6833,142.15,4.0
12526,3301,Broadwater,Victoria,VIC,-38.1253,142.0497,4.0
12527,3301,Morgiana,Victoria,VIC,-37.7904,142.0065,3.0
12528,3301,Strathkellar,Victoria,VIC,-37.7,142.1,4.0
12529,3301,Yulecart,Victoria,VIC,-37.7475,141.9389,4.0
12530,3301,Buckley Swamp,Victoria,VIC,-37.7904,142.0065,3.0
12531,3302,Grassdale,Victoria,VIC,-37.8,141.65,4.0
12532,3302,Branxholme,Victoria,VIC,-37.8667,141.8,4.0
12533,3303,Condah,Victoria,VIC,-37.95,141.75,4.0
12534,3303,Wallacedale,Victoria,VIC,-37.9333,141.8,4.0
12535,3303,Breakaway Creek,Victoria,VIC,-38.0167,141.8,4.0
12536,3303,Lake Condah,Victoria,VIC,-38.1167,141.8,4.0
12537,3303,Hotspur,Victoria,VIC,-37.9333,141.5667,4.0
12538,3304,Heywood,Victoria,VIC,-38.1329,141.6295,4.0
12539,3304,Drik Drik,Victoria,VIC,-38.0,141.3,4.0
12540,3304,Drumborg,Victoria,VIC,-38.0833,141.6,4.0
12541,3304,Mumbannar,Victoria,VIC,-37.9269,141.1875,4.0
12542,3304,Myamyn,Victoria,VIC,-38.0,141.7333,4.0
12543,3304,Lyons,Victoria,VIC,-38.0167,141.4667,4.0
12544,3304,Dartmoor,Victoria,VIC,-37.9222,141.2749,4.0
12545,3304,Greenwald,Victoria,VIC,-37.9667,141.3667,4.0
12546,3304,Winnap,Victoria,VIC,-37.95,141.3167,4.0
12547,3304,Bessiebelle,Victoria,VIC,-38.15,141.9667,4.0
12548,3304,Homerton,Victoria,VIC,-38.1333,141.7833,4.0
12549,3304,Milltown,Victoria,VIC,-38.05,141.7167,4.0
12550,3305,Mount Richmond,Victoria,VIC,-38.2019,141.3416,4.0
12551,3305,Cape Bridgewater,Victoria,VIC,-38.3705,141.3995,4.0
12552,3305,Bolwarra,Victoria,VIC,-38.2833,141.6167,4.0
12553,3305,Portland,Victoria,VIC,-38.3462,141.6026,4.0
12554,3305,Gorae,Victoria,VIC,-38.2333,141.55,4.0
12555,3305,Allestree,Victoria,VIC,-38.2833,141.65,4.0
12556,3305,Gorae West,Victoria,VIC,-38.25,141.4833,4.0
12557,3305,Cashmore,Victoria,VIC,-38.3116,141.4774,4.0
12558,3305,Portland West,Victoria,VIC,-38.354,141.574,4.0
12559,3305,Portland North,Victoria,VIC,-38.2855,141.5377,3.0
12560,3305,Dutton Way,Victoria,VIC,-38.2855,141.5377,3.0
12561,3305,Heathmere,Victoria,VIC,-38.2167,141.6167,4.0
12562,3309,Digby,Victoria,VIC,-37.8,141.5333,4.0
12563,3310,Merino,Victoria,VIC,-37.7205,141.5483,4.0
12564,3310,Tahara West,Victoria,VIC,-37.7205,141.5483,3.0
12565,3311,Casterton,Victoria,VIC,-37.5849,141.403,4.0
12566,3311,Corndale,Victoria,VIC,-37.5849,141.403,3.0
12567,3312,Lindsay,Victoria,VIC,-37.6333,140.9667,4.0
12568,3312,Bahgallah,Victoria,VIC,-37.6333,141.3833,4.0
12569,3312,Lake Mundi,Victoria,VIC,-37.55,141.0,4.0
12570,3312,Dunrobin,Victoria,VIC,-37.4799,141.2923,3.0
12571,3312,Powers Creek,Victoria,VIC,-37.2,141.2833,4.0
12572,3312,Henty,Victoria,VIC,-37.6667,141.5167,4.0
12573,3312,Wando Vale,Victoria,VIC,-37.5167,141.45,4.0
12574,3312,Nangeela,Victoria,VIC,-37.4799,141.2923,3.0
12575,3312,Carapook,Victoria,VIC,-37.55,141.5333,4.0
12576,3312,Warrock,Victoria,VIC,-37.4799,141.2923,3.0
12577,3312,Brimboal,Victoria,VIC,-37.3833,141.4,4.0
12578,3312,Killara,Victoria,VIC,-37.75,145.5,4.0
12579,3312,Poolaijelo,Victoria,VIC,-37.2324,141.0988,4.0
12580,3312,Sandford,Victoria,VIC,-37.6167,141.4333,4.0
12581,3312,Strathdownie,Victoria,VIC,-37.7333,141.1833,4.0
12582,3312,Chetwynd,Victoria,VIC,-37.2833,141.4167,4.0
12583,3312,Dorodong,Victoria,VIC,-37.3332,141.0697,4.0
12584,3312,Dergholm,Victoria,VIC,-37.3833,141.2167,4.0
12585,3312,Wando Bridge,Victoria,VIC,-37.4833,141.4333,4.0
12586,3314,Mooralla,Victoria,VIC,-37.4,142.1333,4.0
12587,3314,Grampians,Victoria,VIC,-37.0297,142.4986,4.0
12588,3314,Cavendish,Victoria,VIC,-37.5167,142.0333,4.0
12589,3314,Glenisla,Victoria,VIC,-37.2333,142.1667,4.0
12590,3314,Bulart,Victoria,VIC,-37.55,141.95,4.0
12591,3315,Nareen,Victoria,VIC,-37.3833,141.5667,4.0
12592,3315,Paschendale,Victoria,VIC,-37.6667,141.6,4.0
12593,3315,Konongwootong,Victoria,VIC,-37.5333,141.6833,4.0
12594,3315,Tarrenlea,Victoria,VIC,-37.6833,141.7333,4.0
12595,3315,Muntham,Victoria,VIC,-37.5833,141.5667,4.0
12596,3315,Tahara Bridge,Victoria,VIC,-37.4943,141.6909,3.0
12597,3315,Tarrayoukyan,Victoria,VIC,-37.3167,141.5833,4.0
12598,3315,Clover Flat,Victoria,VIC,-37.4943,141.6909,3.0
12599,3315,Gritjurk,Victoria,VIC,-37.5833,141.7667,4.0
12600,3315,Brit Brit,Victoria,VIC,-37.4333,141.7667,4.0
12601,3315,Coleraine,Victoria,VIC,-37.5983,141.6912,4.0
12602,3315,Coojar,Victoria,VIC,-37.4943,141.6909,3.0
12603,3315,Melville Forest,Victoria,VIC,-37.5,141.8667,4.0
12604,3315,Gringegalgona,Victoria,VIC,-37.4167,141.8167,4.0
12605,3315,Culla,Victoria,VIC,-37.2333,141.65,4.0
12606,3315,Hilgay,Victoria,VIC,-37.4943,141.6909,3.0
12607,3315,Wootong Vale,Victoria,VIC,-37.4943,141.6909,3.0
12608,3317,Harrow,Victoria,VIC,-37.1667,141.6,4.0
12609,3318,Edenhope,Victoria,VIC,-37.0365,141.2966,4.0
12610,3318,Kadnook,Victoria,VIC,-37.0255,141.3217,3.0
12611,3318,Connewirricoo,Victoria,VIC,-37.2,141.4667,4.0
12612,3318,Ullswater,Victoria,VIC,-36.9667,141.3833,4.0
12613,3318,Langkoop,Victoria,VIC,-37.1,141.0333,4.0
12614,3318,Patyah,Victoria,VIC,-36.9,141.2333,4.0
12615,3318,Charam,Victoria,VIC,-36.95,141.5167,4.0
12616,3319,Bringalbert,Victoria,VIC,-36.85,141.1667,4.0
12617,3319,Apsley,Victoria,VIC,-36.9667,141.0833,4.0
12618,3319,Benayeo,Victoria,VIC,-36.9,141.05,4.0
12619,3321,Hesse,Victoria,VIC,-38.1009,144.0575,3.0
12620,3321,Inverleigh,Victoria,VIC,-38.1018,144.0513,4.0
12621,3321,Wingeel,Victoria,VIC,-38.1009,144.0575,3.0
12622,3322,Cressy,Victoria,VIC,-38.0333,143.6333,4.0
12623,3323,Foxhow,Victoria,VIC,-38.05,143.4667,4.0
12624,3323,Duverney,Victoria,VIC,-38.0167,143.5667,4.0
12625,3323,Berrybank,Victoria,VIC,-37.9833,143.4833,4.0
12626,3324,Lismore,Victoria,VIC,-37.9527,143.3378,4.0
12627,3324,Mount Bute,Victoria,VIC,-37.8667,143.4167,4.0
12628,3324,Mingay,Victoria,VIC,-37.8333,143.3167,4.0
12629,3325,Derrinallum,Victoria,VIC,-37.9479,143.2203,4.0
12630,3325,Vite Vite North,Victoria,VIC,-37.7833,143.2,4.0
12631,3325,Vite Vite,Victoria,VIC,-37.8833,143.1667,4.0
12632,3325,Larralea,Victoria,VIC,-37.8715,143.1957,3.0
12633,3328,Teesdale,Victoria,VIC,-38.0333,144.05,4.0
12634,3329,Shelford,Victoria,VIC,-38.0167,143.9667,4.0
12635,3329,Barunah Park,Victoria,VIC,-38.0167,143.9667,3.0
12636,3329,Barunah Plains,Victoria,VIC,-38.0167,143.9667,3.0
12637,3330,Rokewood,Victoria,VIC,-37.9,143.7167,4.0
12638,3331,She Oaks,Victoria,VIC,-37.9,144.1333,4.0
12639,3331,Sutherlands Creek,Victoria,VIC,-37.9176,144.1721,3.0
12640,3331,Maude,Victoria,VIC,-37.95,144.1667,4.0
12641,3331,Steiglitz,Victoria,VIC,-37.8833,144.1833,4.0
12642,3331,Russells Bridge,Victoria,VIC,-38.0166,144.1818,3.0
12643,3331,Gheringhap,Victoria,VIC,-38.0833,144.2333,4.0
12644,3331,Bannockburn,Victoria,VIC,-38.0489,144.1688,4.0
12645,3332,Lethbridge,Victoria,VIC,-37.9657,144.1357,4.0
12646,3333,Bamganie,Victoria,VIC,-37.9333,143.9833,4.0
12647,3333,Meredith,Victoria,VIC,-37.8454,144.0774,4.0
12648,3334,Bungal,Victoria,VIC,-37.7889,144.0333,3.0
12649,3334,Elaine,Victoria,VIC,-37.7833,144.0333,4.0
12650,3334,Mount Doran,Victoria,VIC,-37.7889,144.0333,3.0
12651,3334,Morrisons,Victoria,VIC,-37.7833,144.1,4.0
12652,3334,Cargerie,Victoria,VIC,-37.8,143.9667,4.0
12653,3335,Plumpton,Victoria,VIC,-37.687,144.6908,4.0
12654,3335,Rockbank,Victoria,VIC,-37.7335,144.67,4.0
12655,3337,Melton,Victoria,VIC,-37.6834,144.5854,4.0
12656,3337,Melton West,Victoria,VIC,-37.6785,144.5688,4.0
12657,3337,Kurunjang,Victoria,VIC,-37.6759,144.5969,4.0
12658,3337,Toolern Vale,Victoria,VIC,-37.6,144.6,4.0
12659,3338,Brookfield,Victoria,VIC,-37.7008,144.5603,4.0
12660,3338,Eynesbury,Victoria,VIC,-37.8004,144.5746,4.0
12661,3338,Melton South,Victoria,VIC,-37.7077,144.5749,4.0
12662,3338,Exford,Victoria,VIC,-37.7259,144.53,4.0
12663,3340,Staughton Vale,Victoria,VIC,-37.85,144.2833,4.0
12664,3340,Balliang East,Victoria,VIC,-37.7833,144.45,4.0
12665,3340,Hopetoun Park,Victoria,VIC,-37.6928,144.501,4.0
12666,3340,Balliang,Victoria,VIC,-37.8333,144.3667,4.0
12667,3340,Bacchus Marsh,Victoria,VIC,-37.6727,144.4383,4.0
12668,3340,Merrimu,Victoria,VIC,-37.6576,144.4535,4.0
12669,3340,Parwan,Victoria,VIC,-37.705,144.4699,4.0
12670,3340,Maddingley,Victoria,VIC,-37.6852,144.4324,4.0
12671,3340,Darley,Victoria,VIC,-37.6581,144.4434,4.0
12672,3340,Coimadai,Victoria,VIC,-37.6167,144.4667,4.0
12673,3340,Long Forest,Victoria,VIC,-37.6727,144.514,4.0
12674,3340,Glenmore,Victoria,VIC,-37.7127,144.3185,4.0
12675,3340,Rowsley,Victoria,VIC,-37.7199,144.3727,4.0
12676,3341,Korobeit,Victoria,VIC,-37.5465,144.313,3.0
12677,3341,Dales Creek,Victoria,VIC,-37.5226,144.298,4.0
12678,3341,Myrniong,Victoria,VIC,-37.6167,144.35,4.0
12679,3341,Pentland Hills,Victoria,VIC,-37.6632,144.4085,4.0
12680,3341,Greendale,Victoria,VIC,-37.5603,144.2968,4.0
12681,3342,Colbrook,Victoria,VIC,-37.6426,144.2293,3.0
12682,3342,Beremboke,Victoria,VIC,-37.7833,144.25,4.0
12683,3342,Ballan,Victoria,VIC,-37.5999,144.2289,4.0
12684,3342,Fiskville,Victoria,VIC,-37.6819,144.2264,4.0
12685,3342,Mount Wallace,Victoria,VIC,-37.75,144.2167,4.0
12686,3342,Bunding,Victoria,VIC,-37.5167,144.1667,4.0
12687,3342,Durdidwarrah,Victoria,VIC,-37.6426,144.2293,3.0
12688,3342,Blakeville,Victoria,VIC,-37.5167,144.2167,4.0
12689,3342,Ingliston,Victoria,VIC,-37.65,144.3,4.0
12690,3345,Gordon,Victoria,VIC,-37.5823,144.1093,4.0
12691,3350,Brown Hill,Victoria,VIC,-37.55,143.9,4.0
12692,3350,Black Hill,Victoria,VIC,-37.55,143.8667,4.0
12693,3350,Ballarat,Victoria,VIC,-37.5662,143.8496,4.0
12694,3350,Lake Wendouree,Victoria,VIC,-37.5499,143.8473,4.0
12695,3350,Bakery Hill,Victoria,VIC,-37.5635,143.8658,4.0
12696,3350,Mount Pleasant,Victoria,VIC,-37.5833,143.8667,4.0
12697,3350,Ballarat Central,Victoria,VIC,-37.5621,143.8508,4.0
12698,3350,Golden Point,Victoria,VIC,-37.5749,143.8687,4.0
12699,3350,Mount Helen,Victoria,VIC,-37.6246,143.8789,4.0
12700,3350,Nerrina,Victoria,VIC,-37.55,143.8833,4.0
12701,3350,Sovereign Hill,Victoria,VIC,-37.5677,143.8786,3.0
12702,3350,Mount Clear,Victoria,VIC,-37.6,143.8833,4.0
12703,3350,Canadian,Victoria,VIC,-37.5761,143.8774,4.0
12704,3350,Alfredton,Victoria,VIC,-37.5667,143.8167,4.0
12705,3350,Invermay Park,Victoria,VIC,-37.5306,143.858,4.0
12706,3350,Eureka,Victoria,VIC,-37.5647,143.8826,4.0
12707,3350,Ballarat North,Victoria,VIC,-37.5369,143.8624,3.0
12708,3350,Redan,Victoria,VIC,-37.5765,143.8386,4.0
12709,3350,Ballarat West,Victoria,VIC,-37.5677,143.8786,3.0
12710,3350,Ballarat East,Victoria,VIC,-37.5667,143.8667,4.0
12711,3350,Soldiers Hill,Victoria,VIC,-37.5496,143.8587,4.0
12712,3350,Lucas,Victoria,VIC,-37.5536,143.7717,4.0
12713,3350,Newington,Victoria,VIC,-37.564,143.8276,4.0
12714,3351,Chepstowe,Victoria,VIC,-37.5833,143.5,4.0
12715,3351,Carngham,Victoria,VIC,-37.5833,143.5833,4.0
12716,3351,Springdallah,Victoria,VIC,-37.7667,143.6333,4.0
12717,3351,Lake Bolac,Victoria,VIC,-37.7126,142.8396,4.0
12718,3351,Streatham,Victoria,VIC,-37.6667,143.0667,4.0
12719,3351,Cape Clear,Victoria,VIC,-37.7833,143.6167,4.0
12720,3351,Ross Creek,Victoria,VIC,-37.65,143.75,4.0
12721,3351,Newtown,Victoria,VIC,-37.7,143.65,4.0
12722,3351,Snake Valley,Victoria,VIC,-37.6116,143.585,4.0
12723,3351,Bo Peep,Victoria,VIC,-37.6967,143.5151,3.0
12724,3351,Westmere,Victoria,VIC,-37.6833,142.9667,4.0
12725,3351,Smythes Creek,Victoria,VIC,-37.6,143.7833,4.0
12726,3351,Illabarook,Victoria,VIC,-37.8333,143.6667,4.0
12727,3351,Mount Emu,Victoria,VIC,-37.6967,143.5151,3.0
12728,3351,Staffordshire Reef,Victoria,VIC,-37.75,143.7,4.0
12729,3351,Wallinduc,Victoria,VIC,-37.8667,143.5167,4.0
12730,3351,Hillcrest,Victoria,VIC,-37.6167,143.6333,4.0
12731,3351,Smythesdale,Victoria,VIC,-37.6431,143.6862,4.0
12732,3351,Nintingbool,Victoria,VIC,-37.6167,143.7167,4.0
12733,3351,Scarsdale,Victoria,VIC,-37.65,143.6667,4.0
12734,3351,Berringa,Victoria,VIC,-37.7667,143.7,4.0
12735,3351,Pitfield,Victoria,VIC,-37.8,143.6,4.0
12736,3351,Rokewood Junction,Victoria,VIC,-37.85,143.6833,4.0
12737,3351,Mininera,Victoria,VIC,-37.6,142.9667,4.0
12738,3351,Piggoreet,Victoria,VIC,-37.7167,143.6333,4.0
12739,3351,Haddon,Victoria,VIC,-37.6,143.7167,4.0
12740,3351,Nerrin Nerrin,Victoria,VIC,-37.7667,143.0167,4.0
12741,3352,Mount Rowan,Victoria,VIC,-37.5,143.85,4.0
12742,3352,Mount Bolton,Victoria,VIC,-37.558,143.8518,3.0
12743,3352,Bunkers Hill,Victoria,VIC,-37.5716,143.746,4.0
12744,3352,Weatherboard,Victoria,VIC,-37.4333,143.6667,4.0
12745,3352,Waubra,Victoria,VIC,-37.3667,143.65,4.0
12746,3352,Chapel Flat,Victoria,VIC,-37.558,143.8518,3.0
12747,3352,Blowhard,Victoria,VIC,-37.4333,143.8,4.0
12748,3352,Gong Gong,Victoria,VIC,-37.55,143.9333,4.0
12749,3352,Dereel,Victoria,VIC,-37.8167,143.7667,4.0
12750,3352,Ballarat Roadside Delivery,Victoria,VIC,-37.558,143.8518,3.0
12751,3352,Wattle Flat,Victoria,VIC,-37.4667,143.95,4.0
12752,3352,Enfield,Victoria,VIC,-37.7281,143.7945,4.0
12753,3352,Dean,Victoria,VIC,-37.45,143.9833,4.0
12754,3352,Navigators,Victoria,VIC,-37.6167,143.9333,4.0
12755,3352,Bolwarrah,Victoria,VIC,-37.5167,144.1,4.0
12756,3352,Mount Egerton,Victoria,VIC,-37.6333,144.1,4.0
12757,3352,Lamplough,Victoria,VIC,-37.1333,143.5167,4.0
12758,3352,Langi Kal Kal,Victoria,VIC,-37.558,143.8518,3.0
12759,3352,Clarkes Hill,Victoria,VIC,-37.4833,143.9833,4.0
12760,3352,Claretown,Victoria,VIC,-37.558,143.8518,3.0
12761,3352,Bullarook,Victoria,VIC,-37.5277,143.9976,4.0
12762,3352,Bungaree,Victoria,VIC,-37.5667,144.0,4.0
12763,3352,Magpie,Victoria,VIC,-37.6167,143.85,4.0
12764,3352,Lexton,Victoria,VIC,-37.2667,143.5167,4.0
12765,3352,Bonshaw,Victoria,VIC,-37.604,143.8226,4.0
12766,3352,Ercildoune,Victoria,VIC,-37.558,143.8518,3.0
12767,3352,Clarendon,Victoria,VIC,-37.7,143.9667,4.0
12768,3352,Millbrook,Victoria,VIC,-37.5833,144.05,4.0
12769,3352,Barkstead,Victoria,VIC,-37.45,144.1,4.0
12770,3352,Cardigan,Victoria,VIC,-37.5333,143.75,4.0
12771,3352,Yendon,Victoria,VIC,-37.6333,143.9667,4.0
12772,3352,Miners Rest,Victoria,VIC,-37.4808,143.8011,4.0
12773,3352,Garibaldi,Victoria,VIC,-37.7333,143.8833,4.0
12774,3352,Glenbrae,Victoria,VIC,-37.35,143.5667,4.0
12775,3352,Addington,Victoria,VIC,-37.3833,143.6833,4.0
12776,3352,Wallace,Victoria,VIC,-37.55,144.05,4.0
12777,3352,Lal Lal,Victoria,VIC,-37.6833,144.0333,4.0
12778,3352,Mount Mercer,Victoria,VIC,-37.8167,143.85,4.0
12779,3352,Durham Lead,Victoria,VIC,-37.7,143.8833,4.0
12780,3352,Glen Park,Victoria,VIC,-37.558,143.8518,3.0
12781,3352,Corindhap,Victoria,VIC,-37.8833,143.7333,4.0
12782,3352,Grenville,Victoria,VIC,-37.7667,143.8833,4.0
12783,3352,Napoleons,Victoria,VIC,-37.6667,143.8333,4.0
12784,3352,Pootilla,Victoria,VIC,-37.5167,143.9667,4.0
12785,3352,Burrumbeet,Victoria,VIC,-37.4667,143.6667,4.0
12786,3352,Dunnstown,Victoria,VIC,-37.6,143.9833,4.0
12787,3352,Sulky,Victoria,VIC,-37.4667,143.8667,4.0
12788,3352,Scotchmans Lead,Victoria,VIC,-37.558,143.8518,3.0
12789,3352,Cambrian Hill,Victoria,VIC,-37.6333,143.8333,4.0
12790,3352,Werneth,Victoria,VIC,-37.95,143.6167,4.0
12791,3352,Windermere,Victoria,VIC,-37.4833,143.7167,4.0
12792,3352,Springbank,Victoria,VIC,-37.531,144.0574,4.0
12793,3352,Brewster,Victoria,VIC,-37.4833,143.5167,4.0
12794,3352,Mitchell Park,Victoria,VIC,-37.5069,143.7798,4.0
12795,3352,Warrenheip,Victoria,VIC,-37.5667,143.9333,4.0
12796,3352,Invermay,Victoria,VIC,-37.5164,143.8818,4.0
12797,3352,Scotsburn,Victoria,VIC,-37.6667,143.9333,4.0
12798,3352,Cardigan Village,Victoria,VIC,-37.5109,143.7062,4.0
12799,3352,Learmonth,Victoria,VIC,-37.4188,143.7122,4.0
12800,3352,Mollongghip,Victoria,VIC,-37.4833,144.0333,4.0
12801,3352,Leigh Creek,Victoria,VIC,-37.5667,143.9667,4.0
12802,3353,Ballarat,Victoria,VIC,-37.5662,143.8496,4.0
12803,3354,Ballarat Mc,Victoria,VIC,-37.5987,143.7607,3.0
12804,3354,Bakery Hill,Victoria,VIC,-37.5635,143.8658,4.0
12805,3355,Wendouree Village,Victoria,VIC,-37.5314,143.8286,3.0
12806,3355,Wendouree,Victoria,VIC,-37.55,143.8333,4.0
12807,3355,Mitchell Park,Victoria,VIC,-37.5069,143.7798,4.0
12808,3355,Lake Gardens,Victoria,VIC,-37.5463,143.8165,4.0
12809,3356,Delacombe,Victoria,VIC,-37.5891,143.8147,4.0
12810,3356,Sebastopol,Victoria,VIC,-37.5853,143.8395,4.0
12811,3357,Buninyong,Victoria,VIC,-37.6502,143.8839,4.0
12812,3360,Happy Valley,Victoria,VIC,-37.7167,143.6,4.0
12813,3360,Pittong,Victoria,VIC,-37.6667,143.4833,4.0
12814,3360,Linton,Victoria,VIC,-37.6863,143.5629,4.0
12815,3360,Willowvale,Victoria,VIC,-37.8,143.4667,4.0
12816,3360,Mannibadar,Victoria,VIC,-37.7667,143.5,4.0
12817,3361,Carranballac,Victoria,VIC,-37.7,143.2167,4.0
12818,3361,Bradvale,Victoria,VIC,-37.7833,143.4,4.0
12819,3361,Skipton,Victoria,VIC,-37.686,143.3647,4.0
12820,3363,Mount Beckworth,Victoria,VIC,-37.3167,143.6833,4.0
12821,3363,Creswick North,Victoria,VIC,-37.3781,143.8123,3.0
12822,3363,Dean,Victoria,VIC,-37.45,143.9833,4.0
12823,3363,Langdons Hill,Victoria,VIC,-37.3781,143.8123,3.0
12824,3363,Tourello,Victoria,VIC,-37.35,143.7833,4.0
12825,3363,Creswick,Victoria,VIC,-37.424,143.8947,4.0
12826,3363,Glendaruel,Victoria,VIC,-37.35,143.7167,4.0
12827,3364,Kooroocheang,Victoria,VIC,-37.2833,144.0333,4.0
12828,3364,Werona,Victoria,VIC,-37.25,144.0333,4.0
12829,3364,Barkstead,Victoria,VIC,-37.45,144.1,4.0
12830,3364,Mount Prospect,Victoria,VIC,-37.3317,143.9508,3.0
12831,3364,Ascot,Victoria,VIC,-37.4,143.8,4.0
12832,3364,Broomfield,Victoria,VIC,-37.3867,143.9119,4.0
12833,3364,Newlyn,Victoria,VIC,-37.4167,143.9833,4.0
12834,3364,Glendonald,Victoria,VIC,-37.3333,143.8333,4.0
12835,3364,Rocklyn,Victoria,VIC,-37.4333,144.05,4.0
12836,3364,Strathlea,Victoria,VIC,-37.1333,143.9667,4.0
12837,3364,Allendale,Victoria,VIC,-37.3667,143.9333,4.0
12838,3364,Cabbage Tree,Victoria,VIC,-37.6967,148.7197,4.0
12839,3364,Smeaton,Victoria,VIC,-37.3333,143.95,4.0
12840,3364,Blampied,Victoria,VIC,-37.3667,144.05,4.0
12841,3364,Ullina,Victoria,VIC,-37.2833,143.9,4.0
12842,3364,Smokeytown,Victoria,VIC,-37.3317,143.9508,3.0
12843,3364,Joyces Creek,Victoria,VIC,-37.0833,144.0167,4.0
12844,3364,Newlyn North,Victoria,VIC,-37.4,144.0,4.0
12845,3364,Campbelltown,Victoria,VIC,-37.2,143.95,4.0
12846,3364,Kingston,Victoria,VIC,-37.35,143.9667,4.0
12847,3364,Coghills Creek,Victoria,VIC,-37.3833,143.7667,4.0
12848,3364,Springmount,Victoria,VIC,-37.4167,143.9333,4.0
12849,3364,Lawrence,Victoria,VIC,-37.3167,143.9,4.0
12850,3364,Bald Hills,Victoria,VIC,-37.4333,143.85,4.0
12851,3370,Clunes,Victoria,VIC,-37.2947,143.7864,4.0
12852,3370,Mount Cameron,Victoria,VIC,-37.2649,143.8566,3.0
12853,3370,Ullina,Victoria,VIC,-37.2833,143.9,4.0
12854,3370,Glengower,Victoria,VIC,-37.2167,143.8833,4.0
12855,3371,Lillicur,Victoria,VIC,-37.2037,143.6586,3.0
12856,3371,Red Lion,Victoria,VIC,-37.2037,143.6586,3.0
12857,3371,Evansford,Victoria,VIC,-37.25,143.6333,4.0
12858,3371,Burnbank,Victoria,VIC,-37.2333,143.6,4.0
12859,3371,Talbot,Victoria,VIC,-37.1723,143.7017,4.0
12860,3371,Amherst,Victoria,VIC,-37.15,143.6667,4.0
12861,3371,Dunach,Victoria,VIC,-37.2167,143.7167,4.0
12862,3371,Mount Glasgow,Victoria,VIC,-37.2037,143.6586,3.0
12863,3371,Stony Creek,Victoria,VIC,-38.5833,146.0333,4.0
12864,3371,Caralulup,Victoria,VIC,-37.2,143.6333,4.0
12865,3373,Trawalla,Victoria,VIC,-37.4333,143.4667,4.0
12866,3373,Mena Park,Victoria,VIC,-37.4293,143.3908,3.0
12867,3373,Lake Goldsmith,Victoria,VIC,-37.55,143.4,4.0
12868,3373,Nerring,Victoria,VIC,-37.4667,143.4333,4.0
12869,3373,Raglan,Victoria,VIC,-37.35,143.35,4.0
12870,3373,Stoneleigh,Victoria,VIC,-37.4293,143.3908,3.0
12871,3373,Waterloo,Victoria,VIC,-37.3667,143.4167,4.0
12872,3373,Chute,Victoria,VIC,-37.3333,143.3833,4.0
12873,3373,Main Lead,Victoria,VIC,-37.3833,143.3667,4.0
12874,3373,Cross Roads,Victoria,VIC,-37.4293,143.3908,3.0
12875,3373,Beaufort,Victoria,VIC,-37.43,143.3835,4.0
12876,3373,Lake Wongan,Victoria,VIC,-37.4293,143.3908,3.0
12877,3373,Stockyard Hill,Victoria,VIC,-37.55,143.3167,4.0
12878,3374,Great Western,Victoria,VIC,-37.15,142.85,4.0
12879,3375,Buangor,Victoria,VIC,-37.3667,143.1667,4.0
12880,3375,Bayindeen,Victoria,VIC,-37.3167,143.1667,4.0
12881,3375,Middle Creek,Victoria,VIC,-37.4,143.2333,4.0
12882,3375,Ballyrogan,Victoria,VIC,-37.4333,143.1333,4.0
12883,3377,Rocky Point,Victoria,VIC,-37.2626,142.9809,3.0
12884,3377,Warrak,Victoria,VIC,-37.2667,143.15,4.0
12885,3377,Rhymney,Victoria,VIC,-37.2667,142.7833,4.0
12886,3377,Dobie,Victoria,VIC,-37.3167,143.0333,4.0
12887,3377,Shays Flat,Victoria,VIC,-37.2626,142.9809,3.0
12888,3377,Mount Cole,Victoria,VIC,-37.25,143.2,4.0
12889,3377,Crowlands,Victoria,VIC,-37.15,143.1167,4.0
12890,3377,Mount Cole Creek,Victoria,VIC,-37.2333,143.1333,4.0
12891,3377,Cathcart,Victoria,VIC,-37.2626,142.9809,3.0
12892,3377,Langi Logan,Victoria,VIC,-37.35,142.95,4.0
12893,3377,Denicull Creek,Victoria,VIC,-37.3333,142.9,4.0
12894,3377,Eversley,Victoria,VIC,-37.2,143.1667,4.0
12895,3377,Bulgana,Victoria,VIC,-37.2626,142.9809,3.0
12896,3377,Ararat,Victoria,VIC,-37.2854,142.9273,4.0
12897,3377,Norval,Victoria,VIC,-37.2667,142.8833,4.0
12898,3377,Moyston,Victoria,VIC,-37.3,142.7667,4.0
12899,3377,Rossbridge,Victoria,VIC,-37.2626,142.9809,3.0
12900,3377,Dunneworthy,Victoria,VIC,-37.2,143.0667,4.0
12901,3377,Maroona,Victoria,VIC,-37.4167,142.8667,4.0
12902,3377,Great Western,Victoria,VIC,-37.15,142.85,4.0
12903,3377,Armstrong,Victoria,VIC,-37.2167,142.9,4.0
12904,3378,Yalla-Y-Poora,Victoria,VIC,-37.5333,143.0667,4.0
12905,3378,Tatyoon,Victoria,VIC,-37.5167,142.95,4.0
12906,3379,Chatsworth,Victoria,VIC,-37.858,142.6511,4.0
12907,3379,Bornes Hill,Victoria,VIC,-37.6717,142.6812,3.0
12908,3379,Willaura North,Victoria,VIC,-37.6717,142.6812,3.0
12909,3379,Mafeking,Victoria,VIC,-37.6717,142.6812,3.0
12910,3379,Stavely,Victoria,VIC,-37.6,142.6167,4.0
12911,3379,Wickliffe,Victoria,VIC,-37.6833,142.7167,4.0
12912,3379,Willaura,Victoria,VIC,-37.5454,142.7404,4.0
12913,3380,Stawell,Victoria,VIC,-37.0563,142.7809,4.0
12914,3380,Stawell West,Victoria,VIC,-37.0563,142.7809,3.0
12915,3381,Bellellen,Victoria,VIC,-37.0132,142.692,3.0
12916,3381,Bellfield,Victoria,VIC,-37.7531,145.0385,4.0
12917,3381,Lubeck,Victoria,VIC,-36.7333,142.5667,4.0
12918,3381,Mount Dryden,Victoria,VIC,-37.0132,142.692,3.0
12919,3381,Mokepilly,Victoria,VIC,-37.0132,142.692,3.0
12920,3381,Black Range,Victoria,VIC,-37.0132,142.692,3.0
12921,3381,Pomonal,Victoria,VIC,-37.1917,142.6076,4.0
12922,3381,Lake Lonsdale,Victoria,VIC,-37.0333,142.5833,4.0
12923,3381,Lake Fyans,Victoria,VIC,-37.0132,142.692,3.0
12924,3381,Halls Gap,Victoria,VIC,-37.1365,142.5185,4.0
12925,3381,Campbells Bridge,Victoria,VIC,-36.9333,142.7833,4.0
12926,3381,Illawarra,Victoria,VIC,-37.0667,142.7,4.0
12927,3381,Barkly,Victoria,VIC,-36.9333,143.2,4.0
12928,3381,Fyans Creek,Victoria,VIC,-37.0864,142.5558,4.0
12929,3384,Joel South,Victoria,VIC,-37.1333,143.0667,4.0
12930,3384,Wattle Creek,Victoria,VIC,-36.9833,143.1167,4.0
12931,3384,Landsborough,Victoria,VIC,-37.0167,143.15,4.0
12932,3384,Barkly,Victoria,VIC,-36.9333,143.2,4.0
12933,3384,Concongella,Victoria,VIC,-36.9972,143.1028,3.0
12934,3384,Joel Joel,Victoria,VIC,-37.0167,142.9833,4.0
12935,3384,Navarre,Victoria,VIC,-36.9,143.1,4.0
12936,3384,Frenchmans,Victoria,VIC,-36.9972,143.1028,3.0
12937,3384,Tulkara,Victoria,VIC,-36.9972,143.1028,3.0
12938,3384,Landsborough West,Victoria,VIC,-36.9972,143.1028,3.0
12939,3385,Lubeck,Victoria,VIC,-36.7333,142.5667,4.0
12940,3385,Dadswells Bridge,Victoria,VIC,-36.9,142.5167,4.0
12941,3385,Roses Gap,Victoria,VIC,-36.8733,142.6233,3.0
12942,3385,Riachella,Victoria,VIC,-36.8733,142.6233,3.0
12943,3385,Deep Lead,Victoria,VIC,-37.0167,142.7333,4.0
12944,3385,Wal Wal,Victoria,VIC,-36.8167,142.6167,4.0
12945,3385,Glenorchy,Victoria,VIC,-36.9,142.6833,4.0
12946,3385,Ledcourt,Victoria,VIC,-36.8733,142.6233,3.0
12947,3387,Morrl Morrl,Victoria,VIC,-36.85,142.9333,4.0
12948,3387,Marnoo,Victoria,VIC,-36.65,142.8833,4.0
12949,3387,Callawadda,Victoria,VIC,-36.8,142.8,4.0
12950,3387,Wallaloo,Victoria,VIC,-36.7167,142.8833,4.0
12951,3387,Kanya,Victoria,VIC,-36.7667,143.0,4.0
12952,3387,Wallaloo East,Victoria,VIC,-36.7833,142.9333,4.0
12953,3387,Bolangum,Victoria,VIC,-36.8042,142.8958,3.0
12954,3387,Campbells Bridge,Victoria,VIC,-36.9333,142.7833,4.0
12955,3387,Germania,Victoria,VIC,-36.8042,142.8958,3.0
12956,3387,Greens Creek,Victoria,VIC,-36.9333,142.95,4.0
12957,3387,Marnoo West,Victoria,VIC,-36.8042,142.8958,3.0
12958,3388,Banyena,Victoria,VIC,-36.5667,142.8333,4.0
12959,3388,Rupanyup,Victoria,VIC,-36.6285,142.6315,4.0
12960,3390,Kewell,Victoria,VIC,-36.5,142.4167,4.0
12961,3390,Murtoa,Victoria,VIC,-36.6201,142.4668,4.0
12962,3391,Brim,Victoria,VIC,-36.0833,142.4167,4.0
12963,3392,Sheep Hills,Victoria,VIC,-36.3333,142.55,4.0
12964,3392,Minyip,Victoria,VIC,-36.4596,142.5878,4.0
12965,3392,Boolite,Victoria,VIC,-36.35,142.6667,4.0
12966,3393,Crymelon,Victoria,VIC,-36.2043,142.3909,3.0
12967,3393,Kellalac,Victoria,VIC,-36.3808,142.4012,4.0
12968,3393,Willenabrina,Victoria,VIC,-36.0667,142.2,4.0
12969,3393,Wilkur,Victoria,VIC,-36.0667,142.6167,4.0
12970,3393,Bangerang,Victoria,VIC,-36.2,142.5833,4.0
12971,3393,Warracknabeal,Victoria,VIC,-36.2533,142.3928,4.0
12972,3393,Lah,Victoria,VIC,-36.1333,142.45,4.0
12973,3393,Aubrey,Victoria,VIC,-36.2333,142.2333,4.0
12974,3393,Cannum,Victoria,VIC,-36.3,142.25,4.0
12975,3395,Kenmare,Victoria,VIC,-35.9167,142.1667,4.0
12976,3395,Beulah,Victoria,VIC,-35.9378,142.4222,4.0
12977,3395,Reedy Dam,Victoria,VIC,-35.9667,142.65,4.0
12978,3395,Rosebery,Victoria,VIC,-35.8167,142.4167,4.0
12979,3396,Hopetoun,Victoria,VIC,-35.727,142.3663,4.0
12980,3400,Horsham,Victoria,VIC,-36.7113,142.1998,4.0
12981,3401,Kalkee,Victoria,VIC,-36.5333,142.2333,4.0
12982,3401,Quantong,Victoria,VIC,-36.7333,142.0167,4.0
12983,3401,Nurcoung,Victoria,VIC,-36.7333,141.6833,4.0
12984,3401,Wallup,Victoria,VIC,-36.35,142.25,4.0
12985,3401,Laharum,Victoria,VIC,-36.7821,142.1128,3.0
12986,3401,St Helens Plains,Victoria,VIC,-36.8,142.3833,4.0
12987,3401,Dooen,Victoria,VIC,-36.6667,142.2833,4.0
12988,3401,Mockinya,Victoria,VIC,-36.9667,142.15,4.0
12989,3401,Zumsteins,Victoria,VIC,-36.7821,142.1128,3.0
12990,3401,Nurrabiel,Victoria,VIC,-36.9167,142.05,4.0
12991,3401,Murra Warra,Victoria,VIC,-36.7821,142.1128,3.0
12992,3401,Telangatuk East,Victoria,VIC,-37.0833,141.9667,4.0
12993,3401,Drung,Victoria,VIC,-36.7167,142.3333,4.0
12994,3401,Lower Norton,Victoria,VIC,-36.7667,142.1,4.0
12995,3401,Haven,Victoria,VIC,-36.7607,142.1943,4.0
12996,3401,Toolondo,Victoria,VIC,-36.9833,141.9333,4.0
12997,3401,Kanagulk,Victoria,VIC,-37.1333,141.8667,4.0
12998,3401,Longerenong,Victoria,VIC,-36.6667,142.4,4.0
12999,3401,Rocklands,Victoria,VIC,-36.7717,141.9796,3.0
13000,3401,Gymbowen,Victoria,VIC,-36.7333,141.6,4.0
13001,3401,Vectis,Victoria,VIC,-36.7821,142.1128,3.0
13002,3401,Wartook,Victoria,VIC,-37.0239,142.3385,4.0
13003,3401,Riverside,Victoria,VIC,-36.7717,141.9796,3.0
13004,3401,Brimpaen,Victoria,VIC,-37.0333,142.2,4.0
13005,3401,Cherrypool,Victoria,VIC,-37.1,142.1833,4.0
13006,3401,Blackheath,Victoria,VIC,-36.4667,142.25,4.0
13007,3401,Wonwondah,Victoria,VIC,-36.7821,142.1128,3.0
13008,3401,Mckenzie Creek,Victoria,VIC,-36.8,142.1833,4.0
13009,3401,Bungalally,Victoria,VIC,-36.8,142.25,4.0
13010,3401,Karnak,Victoria,VIC,-36.8667,141.5,4.0
13011,3401,Jung,Victoria,VIC,-36.6167,142.3667,4.0
13012,3401,Wail,Victoria,VIC,-36.5,142.1,4.0
13013,3401,Pimpinio,Victoria,VIC,-36.5833,142.1167,4.0
13014,3402,Horsham,Victoria,VIC,-36.7113,142.1998,4.0
13015,3407,Englefield,Victoria,VIC,-37.3167,141.8333,4.0
13016,3407,Vasey,Victoria,VIC,-37.3667,141.8833,4.0
13017,3407,Balmoral,Victoria,VIC,-37.25,141.85,4.0
13018,3407,Pigeon Ponds,Victoria,VIC,-37.3,141.6833,4.0
13019,3407,Gatum,Victoria,VIC,-37.4167,141.9333,4.0
13020,3409,Natimuk,Victoria,VIC,-36.7403,141.9452,4.0
13021,3409,Grass Flat,Victoria,VIC,-36.86,141.7958,3.0
13022,3409,Clear Lake,Victoria,VIC,-36.9333,141.8667,4.0
13023,3409,Arapiles,Victoria,VIC,-36.7333,141.85,4.0
13024,3409,Mitre,Victoria,VIC,-36.7333,141.7833,4.0
13025,3409,Duchembegarra,Victoria,VIC,-36.86,141.7958,3.0
13026,3409,Noradjuha,Victoria,VIC,-36.8333,141.9667,4.0
13027,3409,Douglas,Victoria,VIC,-37.0333,141.7333,4.0
13028,3409,Wombelano,Victoria,VIC,-37.0,141.6,4.0
13029,3409,Jilpanger,Victoria,VIC,-36.86,141.7958,3.0
13030,3409,Tooan,Victoria,VIC,-36.8,141.7833,4.0
13031,3409,Miga Lake,Victoria,VIC,-36.9333,141.6333,4.0
13032,3412,Goroke,Victoria,VIC,-36.7179,141.4731,4.0
13033,3413,Neuarpurr,Victoria,VIC,-36.7667,141.0833,4.0
13034,3413,Ozenkadnook,Victoria,VIC,-36.85,141.3333,4.0
13035,3413,Minimay,Victoria,VIC,-36.7167,141.1833,4.0
13036,3413,Peronne,Victoria,VIC,-36.7333,141.3833,4.0
13037,3414,Antwerp,Victoria,VIC,-36.3,142.05,4.0
13038,3414,Dimboola,Victoria,VIC,-36.4562,142.0329,4.0
13039,3414,Tarranyurk,Victoria,VIC,-36.2167,142.05,4.0
13040,3415,Miram,Victoria,VIC,-36.3667,141.35,4.0
13041,3418,Gerang Gerung,Victoria,VIC,-36.3594,141.8555,4.0
13042,3418,Nhill,Victoria,VIC,-36.3333,141.6501,4.0
13043,3418,Kiata,Victoria,VIC,-36.3667,141.8,4.0
13044,3418,Lawloit,Victoria,VIC,-36.4167,141.4667,4.0
13045,3418,Broughton,Victoria,VIC,-36.1667,141.35,4.0
13046,3418,Lorquon,Victoria,VIC,-36.1667,141.75,4.0
13047,3418,Little Desert,Victoria,VIC,-36.4956,141.7474,4.0
13048,3418,Yanac,Victoria,VIC,-36.1333,141.4333,4.0
13049,3418,Glenlee,Victoria,VIC,-36.2167,141.85,4.0
13050,3418,Netherby,Victoria,VIC,-36.1167,141.65,4.0
13051,3419,Kaniva,Victoria,VIC,-36.3786,141.2422,4.0
13052,3420,Telopea Downs,Victoria,VIC,-36.375,141.0583,3.0
13053,3420,Serviceton,Victoria,VIC,-36.3833,140.9833,4.0
13054,3420,Lillimur,Victoria,VIC,-36.3667,141.1333,4.0
13055,3423,Jeparit,Victoria,VIC,-36.1425,141.9882,4.0
13056,3424,Yaapeet,Victoria,VIC,-35.7667,142.05,4.0
13057,3424,Albacutya,Victoria,VIC,-35.8167,142.0,4.0
13058,3424,Rainbow,Victoria,VIC,-35.8958,141.9979,4.0
13059,3427,Diggers Rest,Victoria,VIC,-37.626,144.7188,4.0
13060,3428,Bulla,Victoria,VIC,-37.6384,144.8074,4.0
13061,3429,Sunbury,Victoria,VIC,-37.5774,144.7261,4.0
13062,3429,Wildwood,Victoria,VIC,-37.5735,144.7881,4.0
13063,3430,Clarkefield,Victoria,VIC,-37.4833,144.75,4.0
13064,3431,Riddells Creek,Victoria,VIC,-37.4605,144.6796,4.0
13065,3432,Bolinda,Victoria,VIC,-37.4333,144.75,4.0
13066,3433,Monegeetta,Victoria,VIC,-37.4167,144.75,4.0
13067,3434,Romsey,Victoria,VIC,-37.3507,144.743,4.0
13068,3434,Cherokee,Victoria,VIC,-37.342,144.7798,3.0
13069,3434,Springfield,Victoria,VIC,-37.3333,144.8167,4.0
13070,3434,Kerrie,Victoria,VIC,-37.3684,144.754,3.0
13071,3435,Lancefield,Victoria,VIC,-37.2773,144.736,4.0
13072,3435,Goldie,Victoria,VIC,-37.247,144.718,3.0
13073,3435,Benloch,Victoria,VIC,-37.2167,144.7,4.0
13074,3435,Nulla Vale,Victoria,VIC,-37.247,144.718,3.0
13075,3437,Bullengarook,Victoria,VIC,-37.5167,144.4833,4.0
13076,3437,Gisborne South,Victoria,VIC,-37.5026,144.5388,3.0
13077,3437,Gisborne,Victoria,VIC,-37.4886,144.5942,4.0
13078,3438,New Gisborne,Victoria,VIC,-37.4428,144.6184,1.0
13079,3440,Macedon,Victoria,VIC,-37.4196,144.5624,4.0
13080,3441,Mount Macedon,Victoria,VIC,-37.4005,144.5841,4.0
13081,3442,Hesket,Victoria,VIC,-37.35,144.65,4.0
13082,3442,Ashbourne,Victoria,VIC,-37.3355,144.5399,3.0
13083,3442,Rochford,Victoria,VIC,-37.3167,144.6833,4.0
13084,3442,Carlsruhe,Victoria,VIC,-37.2833,144.5,4.0
13085,3442,Woodend,Victoria,VIC,-37.3547,144.529,4.0
13086,3442,Cadello,Victoria,VIC,-37.3174,144.5993,3.0
13087,3442,Newham,Victoria,VIC,-37.3333,144.6,4.0
13088,3442,Cobaw,Victoria,VIC,-37.2667,144.6333,4.0
13089,3442,Woodend North,Victoria,VIC,-37.3174,144.5993,3.0
13090,3444,Barfold,Victoria,VIC,-37.0833,144.5167,4.0
13091,3444,Pastoria,Victoria,VIC,-37.1538,144.4934,3.0
13092,3444,Lyal,Victoria,VIC,-36.95,144.4833,4.0
13093,3444,Redesdale,Victoria,VIC,-37.0167,144.5167,4.0
13094,3444,Langley,Victoria,VIC,-37.15,144.5,4.0
13095,3444,Tylden South,Victoria,VIC,-37.1538,144.4934,3.0
13096,3444,Kyneton,Victoria,VIC,-37.2444,144.4515,4.0
13097,3444,Glenhope,Victoria,VIC,-37.0833,144.6,4.0
13098,3444,Tylden,Victoria,VIC,-37.3258,144.4062,4.0
13099,3444,Greenhill,Victoria,VIC,-37.1538,144.4934,3.0
13100,3444,Baynton,Victoria,VIC,-37.1492,144.6337,4.0
13101,3444,Pipers Creek,Victoria,VIC,-37.25,144.5333,4.0
13102,3444,Mia Mia,Victoria,VIC,-37.0,144.5667,4.0
13103,3444,Metcalfe East,Victoria,VIC,-37.1538,144.4934,3.0
13104,3444,Lauriston,Victoria,VIC,-37.25,144.3833,4.0
13105,3444,Edgecombe,Victoria,VIC,-37.1833,144.4333,4.0
13106,3444,Sidonia,Victoria,VIC,-37.1667,144.55,4.0
13107,3444,Baynton East,Victoria,VIC,-37.1538,144.4934,3.0
13108,3444,Spring Hill,Victoria,VIC,-37.3,144.3333,4.0
13109,3444,Kyneton South,Victoria,VIC,-37.1538,144.4934,3.0
13110,3444,Pastoria East,Victoria,VIC,-37.1538,144.4934,3.0
13111,3446,Malmsbury,Victoria,VIC,-37.1886,144.3847,4.0
13112,3446,Drummond North,Victoria,VIC,-37.189,144.3822,3.0
13113,3447,Taradale,Victoria,VIC,-37.15,144.3667,4.0
13114,3448,Sutton Grange,Victoria,VIC,-36.9833,144.3667,4.0
13115,3448,Elphinstone,Victoria,VIC,-37.1,144.3333,4.0
13116,3448,Metcalfe,Victoria,VIC,-37.1,144.4333,4.0
13117,3450,Moonlight Flat,Victoria,VIC,-37.0671,144.2168,3.0
13118,3450,Castlemaine,Victoria,VIC,-37.0671,144.2168,4.0
13119,3451,Gower,Victoria,VIC,-37.1426,144.1861,3.0
13120,3451,Mckenzie Hill,Victoria,VIC,-37.1426,144.1861,3.0
13121,3451,Campbells Creek,Victoria,VIC,-37.0867,144.202,4.0
13122,3451,Golden Point,Victoria,VIC,-37.5749,143.8687,4.0
13123,3451,Barkers Creek,Victoria,VIC,-37.0167,144.25,4.0
13124,3451,Muckleford,Victoria,VIC,-37.0167,144.15,4.0
13125,3451,Guildford,Victoria,VIC,-37.1667,144.1667,4.0
13126,3451,Yapeen,Victoria,VIC,-37.1333,144.1833,4.0
13127,3451,Chewton Bushlands,Victoria,VIC,-37.1426,144.1861,3.0
13128,3451,Faraday,Victoria,VIC,-37.05,144.3,4.0
13129,3451,Vaughan,Victoria,VIC,-37.1426,144.1861,3.0
13130,3451,Glenluce,Victoria,VIC,-37.1667,144.2333,4.0
13131,3451,Chewton,Victoria,VIC,-37.0814,144.2568,4.0
13132,3451,Fryerstown,Victoria,VIC,-37.1333,144.25,4.0
13133,3451,Tarilta,Victoria,VIC,-37.1426,144.1861,3.0
13134,3451,Irishtown,Victoria,VIC,-37.1426,144.1861,3.0
13135,3453,Ravenswood,Victoria,VIC,-36.9,144.2167,4.0
13136,3453,Harcourt North,Victoria,VIC,-36.9521,144.2382,3.0
13137,3453,Harcourt,Victoria,VIC,-36.9998,144.2599,4.0
13138,3453,Ravenswood South,Victoria,VIC,-36.9566,144.2381,4.0
13139,3458,Newbury,Victoria,VIC,-37.4167,144.3167,4.0
13140,3458,Trentham,Victoria,VIC,-37.3888,144.3216,4.0
13141,3458,Fern Hill,Victoria,VIC,-37.3667,144.4,4.0
13142,3458,Trentham East,Victoria,VIC,-37.3833,144.3833,4.0
13143,3458,Blackwood,Victoria,VIC,-37.4722,144.3034,4.0
13144,3458,Lerderderg,Victoria,VIC,-37.3823,144.3389,3.0
13145,3458,Little Hampton,Victoria,VIC,-37.4157,144.3378,3.0
13146,3458,Barrys Reef,Victoria,VIC,-37.454,144.2964,4.0
13147,3458,North Blackwood,Victoria,VIC,-37.4157,144.3378,3.0
13148,3460,Daylesford,Victoria,VIC,-37.3411,144.1426,4.0
13149,3460,Basalt,Victoria,VIC,-37.3411,144.1426,3.0
13150,3461,Korweinguboora,Victoria,VIC,-37.45,144.1333,4.0
13151,3461,Strangways,Victoria,VIC,-37.15,144.1167,4.0
13152,3461,Hepburn Springs,Victoria,VIC,-37.3163,144.1379,4.0
13153,3461,Porcupine Ridge,Victoria,VIC,-37.3268,144.1641,3.0
13154,3461,Musk Vale,Victoria,VIC,-37.3833,144.1333,4.0
13155,3461,Eganstown,Victoria,VIC,-37.3667,144.0833,4.0
13156,3461,Yandoit,Victoria,VIC,-37.2,144.1,4.0
13157,3461,Elevated Plains,Victoria,VIC,-37.3268,144.1641,3.0
13158,3461,Hepburn,Victoria,VIC,-37.3167,144.1333,4.0
13159,3461,Leonards Hill,Victoria,VIC,-37.4333,144.1167,4.0
13160,3461,Spargo Creek,Victoria,VIC,-37.4833,144.15,4.0
13161,3461,Sailors Hill,Victoria,VIC,-37.3268,144.1641,3.0
13162,3461,Franklinford,Victoria,VIC,-37.2333,144.1,4.0
13163,3461,Yandoit Hills,Victoria,VIC,-37.3268,144.1641,3.0
13164,3461,Drummond,Victoria,VIC,-37.2333,144.3333,4.0
13165,3461,Bullarto South,Victoria,VIC,-37.3268,144.1641,3.0
13166,3461,Musk,Victoria,VIC,-37.3833,144.1333,4.0
13167,3461,Denver,Victoria,VIC,-37.2667,144.3,4.0
13168,3461,Sailors Falls,Victoria,VIC,-37.4,144.1333,4.0
13169,3461,Mount Franklin,Victoria,VIC,-37.3268,144.1641,3.0
13170,3461,Lyonville,Victoria,VIC,-37.3833,144.2667,4.0
13171,3461,Shepherds Flat,Victoria,VIC,-37.3268,144.1641,3.0
13172,3461,Glenlyon,Victoria,VIC,-37.3,144.25,4.0
13173,3461,Dry Diggings,Victoria,VIC,-37.3268,144.1641,3.0
13174,3461,Bullarto,Victoria,VIC,-37.4,144.2333,4.0
13175,3461,Coomoora,Victoria,VIC,-37.3268,144.1641,3.0
13176,3461,Wheatsheaf,Victoria,VIC,-37.3268,144.1641,3.0
13177,3461,Clydesdale,Victoria,VIC,-37.1833,144.1,4.0
13178,3462,Newstead,Victoria,VIC,-37.106,144.0647,4.0
13179,3462,Muckleford South,Victoria,VIC,-37.1,144.1333,4.0
13180,3462,Sandon,Victoria,VIC,-37.0909,144.0827,3.0
13181,3462,Welshmans Reef,Victoria,VIC,-37.0667,144.05,4.0
13182,3462,Green Gully,Victoria,VIC,-37.0909,144.0827,3.0
13183,3463,Maldon,Victoria,VIC,-36.9957,144.0683,4.0
13184,3463,Laanecoorie,Victoria,VIC,-36.8167,143.9,4.0
13185,3463,Baringhup,Victoria,VIC,-36.9833,143.9667,4.0
13186,3463,Bradford,Victoria,VIC,-36.916,144.0058,3.0
13187,3463,Walmer,Victoria,VIC,-36.9667,144.15,4.0
13188,3463,Baringhup West,Victoria,VIC,-36.916,144.0058,3.0
13189,3463,Eastville,Victoria,VIC,-36.85,143.9333,4.0
13190,3463,Tarrengower,Victoria,VIC,-36.916,144.0058,3.0
13191,3463,Nuggetty,Victoria,VIC,-36.916,144.0058,3.0
13192,3463,Woodstock West,Victoria,VIC,-36.9317,144.0176,3.0
13193,3463,Neereman,Victoria,VIC,-36.916,144.0058,3.0
13194,3463,Shelbourne,Victoria,VIC,-36.8833,144.0167,4.0
13195,3464,Carisbrook,Victoria,VIC,-37.0481,143.8167,4.0
13196,3465,Havelock,Victoria,VIC,-36.9667,143.7833,4.0
13197,3465,Maryborough,Victoria,VIC,-37.0456,143.7392,4.0
13198,3465,Timor West,Victoria,VIC,-36.9667,143.7,4.0
13199,3465,Wareek,Victoria,VIC,-36.9833,143.6167,4.0
13200,3465,Cotswold,Victoria,VIC,-37.1333,143.9,4.0
13201,3465,Homebush,Victoria,VIC,-37.05,143.5333,4.0
13202,3465,Moonlight Flat,Victoria,VIC,-37.0633,143.6975,3.0
13203,3465,Bung Bong,Victoria,VIC,-37.0667,143.6167,4.0
13204,3465,Moolort,Victoria,VIC,-37.0833,143.9333,4.0
13205,3465,Bowenvale,Victoria,VIC,-37.0,143.7167,4.0
13206,3465,Rathscar,Victoria,VIC,-36.9667,143.5667,4.0
13207,3465,Daisy Hill,Victoria,VIC,-37.1167,143.7167,4.0
13208,3465,Natte Yallock,Victoria,VIC,-36.95,143.5,4.0
13209,3465,Timor,Victoria,VIC,-36.9859,143.7139,4.0
13210,3465,Simson,Victoria,VIC,-37.0301,143.7073,3.0
13211,3465,Alma,Victoria,VIC,-37.0333,143.6833,4.0
13212,3465,Majorca,Victoria,VIC,-37.1167,143.8,4.0
13213,3465,Adelaide Lead,Victoria,VIC,-37.0667,143.6833,4.0
13214,3465,Flagstaff,Victoria,VIC,-37.0633,143.6975,3.0
13215,3465,Rathscar West,Victoria,VIC,-37.0333,143.4833,4.0
13216,3465,Craigie,Victoria,VIC,-37.0301,143.7073,3.0
13217,3465,Golden Point,Victoria,VIC,-37.5749,143.8687,4.0
13218,3467,Avoca,Victoria,VIC,-37.0904,143.4736,4.0
13219,3468,Mount Lonarch,Victoria,VIC,-37.25,143.4,4.0
13220,3468,Amphitheatre,Victoria,VIC,-37.1667,143.4167,4.0
13221,3469,Nowhere Creek,Victoria,VIC,-37.1389,143.2611,3.0
13222,3469,Elmhurst,Victoria,VIC,-37.1667,143.25,4.0
13223,3469,Glenlogie,Victoria,VIC,-37.1389,143.2611,3.0
13224,3469,Glenpatrick,Victoria,VIC,-37.1333,143.3167,4.0
13225,3469,Glenlofty,Victoria,VIC,-37.1167,143.2167,4.0
13226,3472,Bet Bet,Victoria,VIC,-36.9167,143.75,4.0
13227,3472,Eddington,Victoria,VIC,-36.8833,143.85,4.0
13228,3472,Bromley,Victoria,VIC,-36.8833,143.7667,4.0
13229,3472,Betley,Victoria,VIC,-36.9,143.8,4.0
13230,3472,Moliagul,Victoria,VIC,-36.75,143.6667,4.0
13231,3472,Goldsborough,Victoria,VIC,-36.8167,143.6833,4.0
13232,3472,Dunluce,Victoria,VIC,-36.9,143.6,4.0
13233,3472,Inkerman,Victoria,VIC,-36.9148,143.6487,3.0
13234,3472,Dunolly,Victoria,VIC,-36.8601,143.7336,4.0
13235,3472,Mount Hooghly,Victoria,VIC,-36.9,143.6667,4.0
13236,3472,Mcintyre,Victoria,VIC,-36.8678,143.7241,3.0
13237,3475,Emu,Victoria,VIC,-36.7333,143.4667,4.0
13238,3475,Logan,Victoria,VIC,-36.6167,143.4667,4.0
13239,3475,Cochranes Creek,Victoria,VIC,-36.7267,143.51,3.0
13240,3475,Archdale,Victoria,VIC,-36.8333,143.5167,4.0
13241,3475,Archdale Junction,Victoria,VIC,-36.7267,143.51,3.0
13242,3475,Burkes Flat,Victoria,VIC,-36.65,143.55,4.0
13243,3475,Bealiba,Victoria,VIC,-36.8,143.55,4.0
13244,3477,Traynors Lagoon,Victoria,VIC,-36.5833,143.0,4.0
13245,3477,Grays Bridge,Victoria,VIC,-36.6653,143.2081,3.0
13246,3477,Redbank,Victoria,VIC,-36.9333,143.3167,4.0
13247,3477,Rostron,Victoria,VIC,-36.7667,143.1833,4.0
13248,3477,Gowar East,Victoria,VIC,-36.55,143.4167,4.0
13249,3477,Coonooer West,Victoria,VIC,-36.6653,143.2081,3.0
13250,3477,Paradise,Victoria,VIC,-36.8333,143.1333,4.0
13251,3477,Stuart Mill,Victoria,VIC,-36.8053,143.2862,4.0
13252,3477,Gre Gre North,Victoria,VIC,-36.5833,143.0667,4.0
13253,3477,Gre Gre South,Victoria,VIC,-36.6653,143.2081,3.0
13254,3477,Avon Plains,Victoria,VIC,-36.55,142.9333,4.0
13255,3477,Moyreisk,Victoria,VIC,-36.9167,143.3833,4.0
13256,3477,St Arnaud North,Victoria,VIC,-36.6653,143.2081,3.0
13257,3477,Marnoo East,Victoria,VIC,-36.6653,143.2081,3.0
13258,3477,Carapooee West,Victoria,VIC,-36.6653,143.2081,3.0
13259,3477,Beazleys Bridge,Victoria,VIC,-36.7,143.1667,4.0
13260,3477,Gre Gre,Victoria,VIC,-36.6667,143.0667,4.0
13261,3477,York Plains,Victoria,VIC,-36.6653,143.2081,3.0
13262,3477,Carapooee,Victoria,VIC,-36.7,143.3333,4.0
13263,3477,Gooroc,Victoria,VIC,-36.4667,143.2,4.0
13264,3477,Winjallok,Victoria,VIC,-36.8167,143.2,4.0
13265,3477,St Arnaud East,Victoria,VIC,-36.6653,143.2081,3.0
13266,3477,Coonooer Bridge,Victoria,VIC,-36.4667,143.3167,4.0
13267,3477,Moolerr,Victoria,VIC,-36.6333,143.2167,4.0
13268,3477,Swanwater,Victoria,VIC,-36.4833,143.1333,4.0
13269,3477,Dalyenong,Victoria,VIC,-36.6653,143.2081,3.0
13270,3477,Sutherland,Victoria,VIC,-36.55,143.2,4.0
13271,3477,Tottington,Victoria,VIC,-36.7833,143.1167,4.0
13272,3477,Slaty Creek,Victoria,VIC,-36.55,143.3,4.0
13273,3477,Kooreh,Victoria,VIC,-36.6333,143.4,4.0
13274,3478,Redbank,Victoria,VIC,-36.9333,143.3167,4.0
13275,3478,Percydale,Victoria,VIC,-37.05,143.4,4.0
13276,3478,Stuart Mill,Victoria,VIC,-36.8053,143.2862,4.0
13277,3478,Warrenmang,Victoria,VIC,-37.0333,143.3,4.0
13278,3478,Medlyn,Victoria,VIC,-36.827,143.2969,3.0
13279,3478,Moonambel,Victoria,VIC,-36.9833,143.3167,4.0
13280,3478,St Arnaud,Victoria,VIC,-36.6168,143.2587,4.0
13281,3478,Yawong Hills,Victoria,VIC,-36.827,143.2969,3.0
13282,3478,Tanwood,Victoria,VIC,-36.827,143.2969,3.0
13283,3478,Dooboobetic,Victoria,VIC,-36.3667,143.2,4.0
13284,3480,Carron,Victoria,VIC,-36.3,142.7167,4.0
13285,3480,Lawler,Victoria,VIC,-36.3668,142.9058,3.0
13286,3480,Areegra,Victoria,VIC,-36.2833,142.6333,4.0
13287,3480,Corack East,Victoria,VIC,-36.1167,143.05,4.0
13288,3480,Donald,Victoria,VIC,-36.3686,142.9811,4.0
13289,3480,Jeffcott North,Victoria,VIC,-36.3668,142.9058,3.0
13290,3480,Laen North,Victoria,VIC,-36.4,142.8167,4.0
13291,3480,Cope Cope,Victoria,VIC,-36.45,143.05,4.0
13292,3480,Corack,Victoria,VIC,-36.1667,143.05,4.0
13293,3480,Jeffcott,Victoria,VIC,-36.35,143.1333,4.0
13294,3480,Laen East,Victoria,VIC,-36.3833,142.8833,4.0
13295,3480,Litchfield,Victoria,VIC,-36.3,142.8667,4.0
13296,3480,Swanwater West,Victoria,VIC,-36.5333,143.0167,4.0
13297,3480,Laen,Victoria,VIC,-36.45,142.8167,4.0
13298,3480,Rich Avon,Victoria,VIC,-36.5167,142.8333,4.0
13299,3480,Rich Avon East,Victoria,VIC,-36.3668,142.9058,3.0
13300,3480,Rich Avon West,Victoria,VIC,-36.5167,142.8333,4.0
13301,3480,Gil Gil,Victoria,VIC,-36.3668,142.9058,3.0
13302,3482,Warmur,Victoria,VIC,-36.1167,142.7833,4.0
13303,3482,Massey,Victoria,VIC,-36.2167,142.8667,4.0
13304,3482,Watchem,Victoria,VIC,-36.15,142.85,4.0
13305,3482,Morton Plains,Victoria,VIC,-36.0833,142.9,4.0
13306,3482,Watchem West,Victoria,VIC,-36.1417,142.85,3.0
13307,3483,Narraport,Victoria,VIC,-36.0,143.0333,4.0
13308,3483,Birchip,Victoria,VIC,-35.9838,142.9173,4.0
13309,3483,Kinnabulla,Victoria,VIC,-35.8833,142.8,4.0
13310,3483,Karyrie,Victoria,VIC,-35.9,142.85,4.0
13311,3483,Birchip West,Victoria,VIC,-35.9063,142.8876,3.0
13312,3483,Whirily,Victoria,VIC,-35.8667,142.9667,4.0
13313,3483,Ballapur,Victoria,VIC,-35.9667,142.7667,4.0
13314,3483,Curyo,Victoria,VIC,-35.8333,142.8,4.0
13315,3483,Marlbed,Victoria,VIC,-35.9063,142.8876,3.0
13316,3483,Jil Jil,Victoria,VIC,-35.8167,142.9667,4.0
13317,3485,Woomelang,Victoria,VIC,-35.6811,142.6617,4.0
13318,3485,Willangie,Victoria,VIC,-35.65,142.85,4.0
13319,3485,Banyan,Victoria,VIC,-35.6333,142.75,4.0
13320,3485,Watchupga,Victoria,VIC,-35.75,142.7167,4.0
13321,3487,Lascelles,Victoria,VIC,-35.6167,142.5833,4.0
13322,3488,Turriff East,Victoria,VIC,-35.4,142.5333,4.0
13323,3488,Speed,Victoria,VIC,-35.4,142.4333,4.0
13324,3488,Turriff,Victoria,VIC,-35.45,142.45,4.0
13325,3489,Tempy,Victoria,VIC,-35.3333,142.4167,4.0
13326,3490,Mittyack,Victoria,VIC,-35.15,142.65,4.0
13327,3490,Murray-Sunset,Victoria,VIC,-34.751,141.5034,4.0
13328,3490,Torrita,Victoria,VIC,-35.15,141.9333,4.0
13329,3490,Kulwin,Victoria,VIC,-35.0333,142.6167,4.0
13330,3490,Boinka,Victoria,VIC,-35.2,141.6,4.0
13331,3490,Big Desert,Victoria,VIC,-35.0817,142.0153,3.0
13332,3490,Ouyen,Victoria,VIC,-35.0709,142.3203,4.0
13333,3490,Tutye,Victoria,VIC,-35.2167,141.4833,4.0
13334,3491,Patchewollock,Victoria,VIC,-35.3833,142.2,4.0
13335,3494,Nangiloc,Victoria,VIC,-34.5,142.2916,3.0
13336,3494,Iraak,Victoria,VIC,-34.4304,142.354,4.0
13337,3494,Carwarp,Victoria,VIC,-34.4602,142.199,4.0
13338,3494,Colignan,Victoria,VIC,-34.5248,142.3656,4.0
13339,3496,Sunnycliffs,Victoria,VIC,-34.5668,141.5741,3.0
13340,3496,Cullulleraine,Victoria,VIC,-34.278,141.5994,4.0
13341,3496,Werrimull,Victoria,VIC,-34.3887,141.5993,4.0
13342,3496,Red Cliffs,Victoria,VIC,-34.3094,142.1897,4.0
13343,3496,Merrinee,Victoria,VIC,-34.3188,141.7502,3.0
13344,3496,Cardross,Victoria,VIC,-34.3071,142.1253,4.0
13345,3496,Meringur,Victoria,VIC,-34.3886,141.3343,4.0
13346,3496,Neds Corner,Victoria,VIC,-34.1425,141.3304,4.0
13347,3496,Lindsay Point,Victoria,VIC,-34.3188,141.7502,3.0
13348,3498,Irymple,Victoria,VIC,-34.2354,142.171,4.0
13349,3500,Mildura West,Victoria,VIC,-34.1631,142.0026,4.0
13350,3500,Mildura,Victoria,VIC,-34.1855,142.1625,4.0
13351,3501,Mildura Centre Plaza,Victoria,VIC,-34.6355,142.3253,3.0
13352,3501,Nichols Point,Victoria,VIC,-34.2121,142.2144,4.0
13353,3501,Hattah,Victoria,VIC,-34.7625,142.2815,4.0
13354,3501,Koorlong,Victoria,VIC,-34.2776,142.0874,4.0
13355,3501,Mildura South,Victoria,VIC,-34.4207,142.1937,3.0
13356,3502,Mildura,Victoria,VIC,-34.1855,142.1625,4.0
13357,3505,Wargan,Victoria,VIC,-34.1853,142.0476,3.0
13358,3505,Birdwoodton,Victoria,VIC,-34.2012,142.0697,4.0
13359,3505,Merbein,Victoria,VIC,-34.168,142.066,4.0
13360,3505,Cabarita,Victoria,VIC,-34.1975,142.0845,4.0
13361,3505,Merbein West,Victoria,VIC,-34.1631,142.0026,4.0
13362,3505,Yelta,Victoria,VIC,-34.1284,142.0152,4.0
13363,3505,Merbein South,Victoria,VIC,-34.2333,142.0333,4.0
13364,3506,Cowangie,Victoria,VIC,-35.2333,141.3667,4.0
13365,3507,Walpeup,Victoria,VIC,-35.1333,142.0333,4.0
13366,3509,Linga,Victoria,VIC,-35.1667,141.7,4.0
13367,3509,Underbool,Victoria,VIC,-35.1695,141.8056,4.0
13368,3512,Carina,Victoria,VIC,-35.25,141.1,4.0
13369,3512,Murrayville,Victoria,VIC,-35.2625,141.1835,4.0
13370,3512,Panitya,Victoria,VIC,-35.2333,141.0,4.0
13371,3515,Shelbourne,Victoria,VIC,-36.8833,144.0167,4.0
13372,3515,Wilsons Hill,Victoria,VIC,-36.8083,144.075,3.0
13373,3515,Marong,Victoria,VIC,-36.7333,144.1333,4.0
13374,3516,Bridgewater On Loddon,Victoria,VIC,-36.6027,143.9423,4.0
13375,3516,Derby,Victoria,VIC,-36.65,144.0167,4.0
13376,3516,Yarraberb,Victoria,VIC,-36.6167,144.0667,4.0
13377,3516,Leichardt,Victoria,VIC,-36.6833,144.0667,4.0
13378,3516,Bridgewater,Victoria,VIC,-36.6027,143.9423,4.0
13379,3516,Bridgewater North,Victoria,VIC,-36.6311,144.0069,3.0
13380,3517,Glenalbyn,Victoria,VIC,-36.5167,143.7333,4.0
13381,3517,Jarklin,Victoria,VIC,-36.2667,143.9667,4.0
13382,3517,Serpentine,Victoria,VIC,-36.4333,143.9833,4.0
13383,3517,Kurting,Victoria,VIC,-36.5333,143.85,4.0
13384,3517,Powlett Plains,Victoria,VIC,-36.45,143.8667,4.0
13385,3517,Salisbury West,Victoria,VIC,-36.5167,143.9667,4.0
13386,3517,Inglewood,Victoria,VIC,-36.575,143.8683,4.0
13387,3517,Bears Lagoon,Victoria,VIC,-36.328,143.9755,4.0
13388,3517,Rheola,Victoria,VIC,-36.65,143.7,4.0
13389,3517,Brenanah,Victoria,VIC,-36.4886,143.866,3.0
13390,3517,Kingower,Victoria,VIC,-36.6167,143.75,4.0
13391,3518,Richmond Plains,Victoria,VIC,-36.3833,143.45,4.0
13392,3518,Skinners Flat,Victoria,VIC,-36.4161,143.6325,3.0
13393,3518,Borung,Victoria,VIC,-36.3,143.75,4.0
13394,3518,Kurraca West,Victoria,VIC,-36.5,143.5667,4.0
13395,3518,Fernihurst,Victoria,VIC,-36.25,143.8667,4.0
13396,3518,Woolshed Flat,Victoria,VIC,-36.4161,143.6325,3.0
13397,3518,Berrimal,Victoria,VIC,-36.4833,143.4833,4.0
13398,3518,Wedderburn Junction,Victoria,VIC,-36.4167,143.7,4.0
13399,3518,Mysia,Victoria,VIC,-36.25,143.7667,4.0
13400,3518,Wehla,Victoria,VIC,-36.7833,143.6,4.0
13401,3518,Nine Mile,Victoria,VIC,-36.4333,143.4833,4.0
13402,3518,Fentons Creek,Victoria,VIC,-36.5667,143.5333,4.0
13403,3518,Woosang,Victoria,VIC,-36.3333,143.4833,4.0
13404,3518,Kurraca,Victoria,VIC,-36.5,143.5667,4.0
13405,3518,Fiery Flat,Victoria,VIC,-36.4,143.8,4.0
13406,3518,Wedderburn,Victoria,VIC,-36.419,143.6139,4.0
13407,3520,Korong Vale,Victoria,VIC,-36.3561,143.7034,4.0
13408,3520,Kinypanial,Victoria,VIC,-36.35,143.8,4.0
13409,3521,Pyalong,Victoria,VIC,-37.1129,144.8523,4.0
13410,3522,Tooborac,Victoria,VIC,-37.05,144.8333,4.0
13411,3522,Glenhope East,Victoria,VIC,-37.05,144.8333,3.0
13412,3523,Costerfield,Victoria,VIC,-36.8667,144.8,4.0
13413,3523,Derrinal,Victoria,VIC,-36.8833,144.6333,4.0
13414,3523,Argyle,Victoria,VIC,-36.95,144.7333,4.0
13415,3523,Moormbool West,Victoria,VIC,-36.8,144.9,4.0
13416,3523,Redcastle,Victoria,VIC,-36.7833,144.7833,4.0
13417,3523,Heathcote,Victoria,VIC,-36.9221,144.7084,4.0
13418,3523,Ladys Pass,Victoria,VIC,-36.8627,144.7345,3.0
13419,3523,Knowsley,Victoria,VIC,-36.8333,144.5833,4.0
13420,3523,Heathcote South,Victoria,VIC,-36.8627,144.7345,3.0
13421,3523,Mount Camel,Victoria,VIC,-36.8627,144.7345,3.0
13422,3525,Wychitella North,Victoria,VIC,-36.2726,143.4353,3.0
13423,3525,Charlton,Victoria,VIC,-36.2644,143.349,4.0
13424,3525,Buckrabanyule,Victoria,VIC,-36.25,143.5167,4.0
13425,3525,Granite Flat,Victoria,VIC,-36.2726,143.4353,3.0
13426,3525,Wooroonook,Victoria,VIC,-36.25,143.2,4.0
13427,3525,Yeungroon,Victoria,VIC,-36.3833,143.4,4.0
13428,3525,Barrakee,Victoria,VIC,-36.2667,143.45,4.0
13429,3525,Terrappee,Victoria,VIC,-36.2726,143.4353,3.0
13430,3525,Wychitella,Victoria,VIC,-36.2833,143.6167,4.0
13431,3525,Yeungroon East,Victoria,VIC,-36.35,143.4333,4.0
13432,3525,Chirrip,Victoria,VIC,-36.2726,143.4353,3.0
13433,3525,Lake Marmal,Victoria,VIC,-36.132,143.516,4.0
13434,3525,Nareewillock,Victoria,VIC,-36.2726,143.4353,3.0
13435,3527,Jeruk,Victoria,VIC,-36.05,143.3833,4.0
13436,3527,Bunguluke,Victoria,VIC,-36.0561,143.3904,4.0
13437,3527,Thalia,Victoria,VIC,-36.0667,143.0833,4.0
13438,3527,Ninyeunook,Victoria,VIC,-35.9871,143.4019,4.0
13439,3527,Towaninny South,Victoria,VIC,-35.9229,143.3527,4.0
13440,3527,Glenloth,Victoria,VIC,-36.1451,143.3388,4.0
13441,3527,Towaninny,Victoria,VIC,-35.9229,143.3527,4.0
13442,3527,Wycheproof South,Victoria,VIC,-36.0563,143.2848,3.0
13443,3527,Dumosa,Victoria,VIC,-35.936,143.2245,4.0
13444,3527,Teddywaddy West,Victoria,VIC,-36.0563,143.2848,3.0
13445,3527,Wycheproof,Victoria,VIC,-36.0776,143.2271,4.0
13446,3527,Glenloth East,Victoria,VIC,-36.0563,143.2848,3.0
13447,3527,Teddywaddy,Victoria,VIC,-36.1937,143.3374,4.0
13448,3529,Nullawil,Victoria,VIC,-35.85,143.1833,4.0
13449,3529,Kalpienung,Victoria,VIC,-35.7826,143.2558,4.0
13450,3530,Warne,Victoria,VIC,-35.7808,143.1242,4.0
13451,3530,Wangie,Victoria,VIC,-35.725,143.0417,3.0
13452,3530,Sutton,Victoria,VIC,-35.7333,143.0,4.0
13453,3530,Culgoa,Victoria,VIC,-35.7167,143.0833,4.0
13454,3531,Boigbeat,Victoria,VIC,-35.55,142.9167,4.0
13455,3531,Berriwillock,Victoria,VIC,-35.6333,143.0,4.0
13456,3533,Sea Lake,Victoria,VIC,-35.5039,142.8498,4.0
13457,3533,Lake Tyrrell,Victoria,VIC,-35.4244,142.9857,3.0
13458,3533,Ninda,Victoria,VIC,-35.4667,142.75,4.0
13459,3533,Nyarrin,Victoria,VIC,-35.3833,142.6833,4.0
13460,3533,Pier Milan,Victoria,VIC,-35.4244,142.9857,3.0
13461,3533,Straten,Victoria,VIC,-35.4244,142.9857,3.0
13462,3533,Nandaly,Victoria,VIC,-35.3,142.7,4.0
13463,3533,Tyenna,Victoria,VIC,-35.4244,142.9857,3.0
13464,3533,Tyrrell,Victoria,VIC,-35.3667,142.9667,4.0
13465,3533,Bimbourie,Victoria,VIC,-35.4244,142.9857,3.0
13466,3533,Tyrrell Downs,Victoria,VIC,-35.3667,142.9667,4.0
13467,3533,Myall,Victoria,VIC,-35.581,144.0013,4.0
13468,3537,Canary Island,Victoria,VIC,-35.9917,143.843,4.0
13469,3537,Barraport West,Victoria,VIC,-36.0308,143.7505,3.0
13470,3537,Gredgwin,Victoria,VIC,-35.9694,143.6191,4.0
13471,3537,Leaghur,Victoria,VIC,-35.9637,143.7847,4.0
13472,3537,Minmindie,Victoria,VIC,-36.0402,143.7511,4.0
13473,3537,Catumnal,Victoria,VIC,-36.0308,143.7505,3.0
13474,3537,Barraport,Victoria,VIC,-36.0078,143.6709,4.0
13475,3537,Yando,Victoria,VIC,-36.0789,143.8058,4.0
13476,3537,Boort,Victoria,VIC,-36.1157,143.7199,4.0
13477,3540,Oakvale,Victoria,VIC,-35.9109,143.5635,4.0
13478,3540,Quambatook,Victoria,VIC,-35.8524,143.5207,4.0
13479,3540,Cannie,Victoria,VIC,-35.754,143.4485,4.0
13480,3542,Lalbert,Victoria,VIC,-35.6672,143.3779,4.0
13481,3542,Tittybong,Victoria,VIC,-35.7466,143.372,4.0
13482,3542,Cokum,Victoria,VIC,-35.725,143.3667,3.0
13483,3544,Gowanford,Victoria,VIC,-35.4187,143.1916,4.0
13484,3544,Ultima East,Victoria,VIC,-35.4222,143.1778,3.0
13485,3544,Waitchie,Victoria,VIC,-35.3667,143.0833,4.0
13486,3544,Chinangin,Victoria,VIC,-35.4222,143.1778,3.0
13487,3544,Springfield,Victoria,VIC,-37.3333,144.8167,4.0
13488,3544,Murnungin,Victoria,VIC,-35.4222,143.1778,3.0
13489,3544,Ultima,Victoria,VIC,-35.468,143.2709,4.0
13490,3546,Chinkapook,Victoria,VIC,-35.1891,142.9431,4.0
13491,3546,Gerahmin,Victoria,VIC,-35.0977,142.9331,3.0
13492,3546,Turoar,Victoria,VIC,-35.1667,143.05,4.0
13493,3546,Manangatang,Victoria,VIC,-35.0551,142.8823,4.0
13494,3546,Cocamba,Victoria,VIC,-35.116,142.8978,4.0
13495,3546,Bolton,Victoria,VIC,-34.9666,142.8815,4.0
13496,3546,Winnambool,Victoria,VIC,-35.0977,142.9331,3.0
13497,3549,Robinvale,Victoria,VIC,-34.5836,142.7723,4.0
13498,3549,Robinvale Irrigation District Section B,Victoria,VIC,-34.7137,142.753,3.0
13499,3549,Annuello,Victoria,VIC,-34.85,142.8333,4.0
13500,3549,Happy Valley,Victoria,VIC,-37.7167,143.6,4.0
13501,3549,Bannerton,Victoria,VIC,-34.6992,142.7883,4.0
13502,3549,Tol Tol,Victoria,VIC,-34.6514,142.8258,4.0
13503,3549,Wemen,Victoria,VIC,-34.7887,142.6301,4.0
13504,3549,Robinvale Irrigation District Section E,Victoria,VIC,-34.7137,142.753,3.0
13505,3549,Wandown,Victoria,VIC,-34.7137,142.753,3.0
13506,3549,Robinvale Irrigation District Section D,Victoria,VIC,-34.7137,142.753,3.0
13507,3549,Liparoo,Victoria,VIC,-34.7848,142.5431,4.0
13508,3549,Robinvale Irrigation District Section C,Victoria,VIC,-34.7137,142.753,3.0
13509,3550,Flora Hill,Victoria,VIC,-36.7812,144.2956,4.0
13510,3550,East Bendigo,Victoria,VIC,-36.7366,144.3178,3.0
13511,3550,North Bendigo,Victoria,VIC,-36.731,144.2997,3.0
13512,3550,Strathdale,Victoria,VIC,-36.7657,144.3155,4.0
13513,3550,Kennington,Victoria,VIC,-36.7833,144.3,4.0
13514,3550,Spring Gully,Victoria,VIC,-36.7575,144.2908,3.0
13515,3550,Long Gully,Victoria,VIC,-36.7431,144.2579,4.0
13516,3550,White Hills,Victoria,VIC,-36.7287,144.3053,4.0
13517,3550,West Bendigo,Victoria,VIC,-36.4167,144.5833,4.0
13518,3550,Bendigo South,Victoria,VIC,-36.85,144.2833,3.0
13519,3550,Quarry Hill,Victoria,VIC,-36.7765,144.2802,4.0
13520,3550,Ironbark,Victoria,VIC,-36.7548,144.2638,4.0
13521,3550,Tysons Reef,Victoria,VIC,-36.7575,144.2908,3.0
13522,3550,Bendigo,Victoria,VIC,-36.7582,144.2802,4.0
13523,3550,Sandhurst East,Victoria,VIC,-36.7575,144.2908,3.0
13524,3551,Toolleen,Victoria,VIC,-36.7167,144.7,4.0
13525,3551,Lake Eppalock,Victoria,VIC,-36.7536,144.2402,3.0
13526,3551,Wellsford,Victoria,VIC,-36.6333,144.4667,4.0
13527,3551,Myrtle Creek,Victoria,VIC,-36.7536,144.2402,3.0
13528,3551,Maiden Gully,Victoria,VIC,-36.7539,144.2079,4.0
13529,3551,Huntly,Victoria,VIC,-36.6645,144.3338,4.0
13530,3551,Arnold West,Victoria,VIC,-36.6667,143.8,4.0
13531,3551,Huntly North,Victoria,VIC,-36.7536,144.2402,3.0
13532,3551,Emu Creek,Victoria,VIC,-36.8333,144.35,4.0
13533,3551,Tarnagulla,Victoria,VIC,-36.75,143.8333,4.0
13534,3551,Lockwood,Victoria,VIC,-36.8111,144.1576,4.0
13535,3551,Painswick,Victoria,VIC,-36.7519,144.2656,3.0
13536,3551,Bendigo Forward,Victoria,VIC,-36.7536,144.2402,3.0
13537,3551,Myola,Victoria,VIC,-36.6333,144.65,4.0
13538,3551,Waanyarra,Victoria,VIC,-36.8,143.8,4.0
13539,3551,Junortoun,Victoria,VIC,-36.7711,144.3631,4.0
13540,3551,Llanelly,Victoria,VIC,-36.7333,143.8667,4.0
13541,3551,Longlea,Victoria,VIC,-36.7833,144.4333,4.0
13542,3551,Mandurang,Victoria,VIC,-36.8167,144.3,4.0
13543,3551,Axedale,Victoria,VIC,-36.8,144.5167,4.0
13544,3551,Woodstock On Loddon,Victoria,VIC,-36.7833,144.05,4.0
13545,3551,Bagshot,Victoria,VIC,-36.65,144.4167,4.0
13546,3551,Murphys Creek,Victoria,VIC,-36.75,143.7667,4.0
13547,3551,Bagshot North,Victoria,VIC,-36.7536,144.2402,3.0
13548,3551,Newbridge,Victoria,VIC,-36.7333,143.9167,4.0
13549,3551,Eppalock,Victoria,VIC,-36.8333,144.4167,4.0
13550,3551,Arnold,Victoria,VIC,-36.6833,143.8667,4.0
13551,3551,Axe Creek,Victoria,VIC,-36.7536,144.2402,3.0
13552,3551,Mandurang South,Victoria,VIC,-36.85,144.2833,4.0
13553,3551,Kimbolton,Victoria,VIC,-36.7536,144.2402,3.0
13554,3551,Epsom,Victoria,VIC,-36.7167,144.3167,4.0
13555,3551,Cornella,Victoria,VIC,-36.7,144.75,4.0
13556,3551,Strathfieldsaye,Victoria,VIC,-36.8067,144.3549,4.0
13557,3551,Lockwood South,Victoria,VIC,-36.8436,144.1584,4.0
13558,3551,Ascot,Victoria,VIC,-36.7,144.3333,4.0
13559,3551,Sedgwick,Victoria,VIC,-36.8833,144.3167,4.0
13560,3552,Bendigo,Victoria,VIC,-36.7582,144.2802,4.0
13561,3554,Bendigo Dc,Victoria,VIC,-36.731,144.2997,1.0
13562,3555,Golden Gully,Victoria,VIC,-37.7,143.6667,4.0
13563,3555,Golden Square,Victoria,VIC,-36.7726,144.2527,4.0
13564,3555,Kangaroo Flat,Victoria,VIC,-36.8,144.25,4.0
13565,3555,Lansell Plaza,Victoria,VIC,-37.0909,144.0565,3.0
13566,3555,Big Hill,Victoria,VIC,-37.0909,144.0565,3.0
13567,3556,Campbells Forest,Victoria,VIC,-36.6,144.1333,4.0
13568,3556,Eaglehawk,Victoria,VIC,-36.7333,144.25,4.0
13569,3556,Sebastian,Victoria,VIC,-36.6,144.2,4.0
13570,3556,Eaglehawk North,Victoria,VIC,-36.6731,144.221,3.0
13571,3556,California Gully,Victoria,VIC,-36.7289,144.2609,4.0
13572,3556,Woodvale,Victoria,VIC,-36.65,144.2167,4.0
13573,3556,Comet Hill,Victoria,VIC,-36.6879,144.2346,3.0
13574,3556,Jackass Flat,Victoria,VIC,-36.7159,144.286,4.0
13575,3556,Myers Flat,Victoria,VIC,-36.6833,144.2,4.0
13576,3556,Whipstick,Victoria,VIC,-36.6731,144.221,3.0
13577,3556,Sailors Gully,Victoria,VIC,-36.6731,144.221,3.0
13578,3557,Goornong,Victoria,VIC,-36.6165,144.5072,4.0
13579,3557,Barnadown,Victoria,VIC,-36.65,144.55,4.0
13580,3557,Muskerry,Victoria,VIC,-36.6833,144.6333,4.0
13581,3557,Fosterville,Victoria,VIC,-36.7,144.5,4.0
13582,3558,Elmore,Victoria,VIC,-36.4946,144.6105,4.0
13583,3558,Hunter,Victoria,VIC,-36.45,144.5167,4.0
13584,3558,Burnewang,Victoria,VIC,-36.4723,144.5636,3.0
13585,3558,Runnymede,Victoria,VIC,-36.4723,144.5636,3.0
13586,3558,Corop West,Victoria,VIC,-36.4723,144.5636,3.0
13587,3559,Avonmore,Victoria,VIC,-36.5333,144.5667,4.0
13588,3559,Gobarup,Victoria,VIC,-36.5333,144.7278,3.0
13589,3559,Colbinabbin,Victoria,VIC,-36.6,144.8167,4.0
13590,3559,Corop,Victoria,VIC,-36.4667,144.8,4.0
13591,3559,Burramboot,Victoria,VIC,-36.5333,144.7278,3.0
13592,3561,Fairy Dell,Victoria,VIC,-36.3333,144.75,4.0
13593,3561,Rochester,Victoria,VIC,-36.3635,144.7008,4.0
13594,3561,Ballendella,Victoria,VIC,-36.3,144.65,4.0
13595,3561,Bonn,Victoria,VIC,-36.3305,144.712,3.0
13596,3561,Timmering,Victoria,VIC,-36.3667,144.9167,4.0
13597,3561,Nanneella,Victoria,VIC,-36.3167,144.7833,4.0
13598,3561,Bamawm,Victoria,VIC,-36.2145,144.6089,4.0
13599,3561,Diggora,Victoria,VIC,-36.4167,144.5833,4.0
13600,3562,Torrumbarry,Victoria,VIC,-36.0231,144.5533,4.0
13601,3563,Lockington,Victoria,VIC,-36.2712,144.5373,4.0
13602,3564,Roslynmead,Victoria,VIC,-36.1262,144.6892,3.0
13603,3564,Echuca South,Victoria,VIC,-36.1262,144.6892,3.0
13604,3564,Wharparilla,Victoria,VIC,-36.129,144.6289,4.0
13605,3564,Simmie,Victoria,VIC,-36.1292,144.6995,3.0
13606,3564,Echuca,Victoria,VIC,-36.1406,144.7518,4.0
13607,3564,Echuca Village,Victoria,VIC,-36.1333,144.8167,4.0
13608,3564,Bamawm Extension,Victoria,VIC,-36.2145,144.6089,4.0
13609,3564,Kanyapella,Victoria,VIC,-36.1574,144.7962,4.0
13610,3564,Echuca West,Victoria,VIC,-36.1262,144.6892,3.0
13611,3564,Patho,Victoria,VIC,-36.0087,144.4304,4.0
13612,3565,Kotta,Victoria,VIC,-36.2003,144.5363,4.0
13613,3566,Gunbower,Victoria,VIC,-35.9561,144.3692,4.0
13614,3567,Horfield,Victoria,VIC,-35.9039,144.3022,3.0
13615,3567,Leitchville,Victoria,VIC,-35.9039,144.3022,4.0
13616,3568,Mead,Victoria,VIC,-35.8147,144.1738,3.0
13617,3568,Cohuna,Victoria,VIC,-35.807,144.2189,4.0
13618,3568,Gannawarra,Victoria,VIC,-35.7333,144.15,4.0
13619,3568,Macorna North,Victoria,VIC,-35.8391,144.0922,4.0
13620,3568,Cullen,Victoria,VIC,-35.8147,144.1738,3.0
13621,3568,Keely,Victoria,VIC,-35.85,144.25,4.0
13622,3568,Mincha West,Victoria,VIC,-35.8147,144.1738,3.0
13623,3568,Mcmillans,Victoria,VIC,-35.8333,144.15,4.0
13624,3568,Wee Wee Rup,Victoria,VIC,-35.8147,144.1738,3.0
13625,3568,Daltons Bridge,Victoria,VIC,-35.8147,144.1738,3.0
13626,3568,Burkes Bridge,Victoria,VIC,-35.8147,144.1738,3.0
13627,3570,Kamarooka,Victoria,VIC,-36.4707,144.3336,4.0
13628,3570,Raywood,Victoria,VIC,-36.5333,144.2167,4.0
13629,3570,Drummartin,Victoria,VIC,-36.45,144.4333,4.0
13630,3570,Auchmore,Victoria,VIC,-36.5972,144.2121,3.0
13631,3570,Neilborough,Victoria,VIC,-36.5667,144.2333,4.0
13632,3571,Kamarooka North,Victoria,VIC,-36.4064,144.1719,3.0
13633,3571,Dingee,Victoria,VIC,-36.3667,144.2167,4.0
13634,3571,Pompapiel,Victoria,VIC,-36.35,144.0833,4.0
13635,3571,Tandarra,Victoria,VIC,-36.4285,144.2286,4.0
13636,3572,Tennyson,Victoria,VIC,-36.2833,144.4333,4.0
13637,3572,Piavella,Victoria,VIC,-36.3,144.3444,3.0
13638,3572,Milloo,Victoria,VIC,-36.3167,144.3667,4.0
13639,3572,Prairie,Victoria,VIC,-36.3,144.2333,4.0
13640,3573,Pine Grove,Victoria,VIC,-36.2333,144.4167,4.0
13641,3573,Calivil,Victoria,VIC,-36.2667,144.0667,4.0
13642,3573,Terrick Terrick East,Victoria,VIC,-36.2389,144.2389,3.0
13643,3573,Mitiamo,Victoria,VIC,-36.2078,144.2306,4.0
13644,3575,Gladfield,Victoria,VIC,-36.0506,143.9521,4.0
13645,3575,Mologa,Victoria,VIC,-36.1437,144.1791,4.0
13646,3575,Sylvaterre,Victoria,VIC,-36.11,144.2248,4.0
13647,3575,Loddon Vale,Victoria,VIC,-36.3561,143.7034,4.0
13648,3575,Pyramid Hill,Victoria,VIC,-36.0558,144.1147,4.0
13649,3575,Yarrawalla,Victoria,VIC,-36.1165,144.0308,4.0
13650,3575,Terrick Terrick,Victoria,VIC,-36.0843,144.2808,4.0
13651,3575,Jungaburra,Victoria,VIC,-36.114,144.0939,3.0
13652,3575,Mincha,Victoria,VIC,-36.0022,144.0757,4.0
13653,3576,Durham Ox,Victoria,VIC,-36.1259,143.9199,4.0
13654,3579,Mystic Park,Victoria,VIC,-35.5535,143.7221,4.0
13655,3579,Murrabit West,Victoria,VIC,-35.5193,143.9049,4.0
13656,3579,Teal Point,Victoria,VIC,-35.6746,144.0757,4.0
13657,3579,Kerang East,Victoria,VIC,-35.7167,143.8618,3.0
13658,3579,Beauchamp,Victoria,VIC,-35.6082,143.5719,4.0
13659,3579,Westby,Victoria,VIC,-35.7167,143.8618,3.0
13660,3579,Sandhill Lake,Victoria,VIC,-35.7248,143.685,4.0
13661,3579,Koroop,Victoria,VIC,-35.7425,144.0736,4.0
13662,3579,Appin South,Victoria,VIC,-35.9204,143.9123,4.0
13663,3579,Wandella,Victoria,VIC,-35.7167,143.8618,3.0
13664,3579,Budgerum East,Victoria,VIC,-35.7792,143.6597,4.0
13665,3579,Macorna,Victoria,VIC,-35.9177,144.0305,4.0
13666,3579,Capels Crossing,Victoria,VIC,-35.6333,143.4333,4.0
13667,3579,Meering West,Victoria,VIC,-35.7249,143.8763,3.0
13668,3579,Murrabit,Victoria,VIC,-35.5322,143.9524,4.0
13669,3579,Benjeroop,Victoria,VIC,-35.4913,143.8604,4.0
13670,3579,Tragowel,Victoria,VIC,-35.8513,143.9777,4.0
13671,3579,Lake Meran,Victoria,VIC,-35.7167,143.8618,3.0
13672,3579,Myall,Victoria,VIC,-35.581,144.0013,4.0
13673,3579,Gonn Crossing,Victoria,VIC,-35.7167,143.8618,3.0
13674,3579,Normanville,Victoria,VIC,-35.8161,143.7454,4.0
13675,3579,Fairley,Victoria,VIC,-35.6868,143.8612,4.0
13676,3579,Milnes Bridge,Victoria,VIC,-35.8,144.0667,4.0
13677,3579,Pine View,Victoria,VIC,-35.7167,143.8618,3.0
13678,3579,Reedy Lake,Victoria,VIC,-35.7167,143.8618,3.0
13679,3579,Kerang,Victoria,VIC,-35.7349,143.9203,4.0
13680,3579,Bael Bael,Victoria,VIC,-35.7167,143.8618,3.0
13681,3579,Appin,Victoria,VIC,-35.9065,143.8691,4.0
13682,3579,Dingwall,Victoria,VIC,-35.811,143.8309,4.0
13683,3580,Koondrook,Victoria,VIC,-35.6318,144.1248,4.0
13684,3581,Lake Charm,Victoria,VIC,-35.65,143.7833,4.0
13685,3583,Tresco,Victoria,VIC,-35.5057,143.6748,4.0
13686,3584,Tresco West,Victoria,VIC,-35.463,143.6326,3.0
13687,3584,Lake Boga,Victoria,VIC,-35.463,143.6326,4.0
13688,3585,Kunat,Victoria,VIC,-35.5412,143.4973,4.0
13689,3585,Goschen,Victoria,VIC,-35.4833,143.4667,4.0
13690,3585,Nowie,Victoria,VIC,-35.2435,143.3554,4.0
13691,3585,Winlaton,Victoria,VIC,-35.3964,143.4089,3.0
13692,3585,Chillingollah,Victoria,VIC,-35.25,143.05,4.0
13693,3585,Pira,Victoria,VIC,-35.2558,143.3676,4.0
13694,3585,Meatian,Victoria,VIC,-35.5715,143.3427,4.0
13695,3585,Speewa,Victoria,VIC,-35.3964,143.4089,3.0
13696,3585,Fish Point,Victoria,VIC,-35.4354,143.7268,4.0
13697,3585,Swan Hill,Victoria,VIC,-35.3378,143.5544,4.0
13698,3585,Nyrraby,Victoria,VIC,-35.3964,143.4089,3.0
13699,3585,Castle Donnington,Victoria,VIC,-35.3964,143.4089,3.0
13700,3585,Polisbet,Victoria,VIC,-35.3964,143.4089,3.0
13701,3585,Swan Hill West,Victoria,VIC,-35.3964,143.4089,3.0
13702,3586,Murrawee,Victoria,VIC,-35.3167,143.5333,4.0
13703,3586,Pental Island,Victoria,VIC,-35.4034,143.6912,4.0
13704,3586,Tyntynder South,Victoria,VIC,-35.2788,143.5356,4.0
13705,3586,Bulga,Victoria,VIC,-35.3134,143.5561,3.0
13706,3586,Tyntynder,Victoria,VIC,-35.2333,143.4667,4.0
13707,3586,Murraydale,Victoria,VIC,-35.3134,143.5561,3.0
13708,3588,Woorinen South,Victoria,VIC,-35.2911,143.4551,1.0
13709,3589,Woorinen North,Victoria,VIC,-35.255,143.4593,4.0
13710,3589,Woorinen,Victoria,VIC,-35.2925,143.4542,4.0
13711,3590,Beverford,Victoria,VIC,-35.2238,143.4727,4.0
13712,3591,Vinifera,Victoria,VIC,-35.2393,143.3195,1.0
13713,3594,Nyah,Victoria,VIC,-35.1755,143.3774,4.0
13714,3595,Nyah West,Victoria,VIC,-35.1854,143.3508,4.0
13715,3596,Miralie,Victoria,VIC,-35.1167,143.2833,3.0
13716,3596,Wood Wood,Victoria,VIC,-35.1037,143.3383,4.0
13717,3596,Towan,Victoria,VIC,-35.1167,143.2333,4.0
13718,3597,Narrung,Victoria,VIC,-34.774,143.2472,4.0
13719,3597,Kooloonong,Victoria,VIC,-34.8774,143.1459,4.0
13720,3597,Kenley,Victoria,VIC,-34.9083,143.2167,3.0
13721,3597,Natya,Victoria,VIC,-34.9567,143.2252,4.0
13722,3597,Piangil,Victoria,VIC,-35.0585,143.3063,4.0
13723,3597,Lake Powell,Victoria,VIC,-34.9083,143.2167,3.0
13724,3599,Boundary Bend,Victoria,VIC,-34.7213,143.1648,4.0
13725,3607,Tabilk,Victoria,VIC,-36.85,145.1667,4.0
13726,3608,Kirwans Bridge,Victoria,VIC,-36.7741,145.0958,3.0
13727,3608,Bailieston,Victoria,VIC,-36.7333,145.05,4.0
13728,3608,Graytown,Victoria,VIC,-36.8167,144.95,4.0
13729,3608,Nagambie,Victoria,VIC,-36.7851,145.1537,4.0
13730,3608,Goulburn Weir,Victoria,VIC,-36.7167,145.1833,4.0
13731,3608,Mitchellstown,Victoria,VIC,-36.85,145.0667,4.0
13732,3608,Wahring,Victoria,VIC,-36.7167,145.2167,4.0
13733,3608,Wirrate,Victoria,VIC,-36.8,145.05,4.0
13734,3610,Murchison North,Victoria,VIC,-36.596,145.2493,3.0
13735,3610,Moorilim,Victoria,VIC,-36.6167,145.3167,4.0
13736,3610,Dhurringile,Victoria,VIC,-36.5319,145.2132,4.0
13737,3610,Murchison,Victoria,VIC,-36.6189,145.2172,4.0
13738,3610,Murchison East,Victoria,VIC,-36.6167,145.25,4.0
13739,3612,Wanalta,Victoria,VIC,-36.6,144.8833,4.0
13740,3612,Moora,Victoria,VIC,-36.6099,144.9369,3.0
13741,3612,Rushworth,Victoria,VIC,-36.5867,145.0175,4.0
13742,3612,Whroo,Victoria,VIC,-36.65,145.0167,4.0
13743,3612,Waranga Shores,Victoria,VIC,-36.6122,144.9725,3.0
13744,3614,Toolamba,Victoria,VIC,-36.5,145.35,4.0
13745,3614,Toolamba West,Victoria,VIC,-36.4333,145.2833,4.0
13746,3616,Waranga,Victoria,VIC,-36.6,145.1167,4.0
13747,3616,Girgarre East,Victoria,VIC,-36.4333,145.0667,4.0
13748,3616,Tatura,Victoria,VIC,-36.4396,145.2299,4.0
13749,3616,Harston,Victoria,VIC,-36.4667,145.15,4.0
13750,3616,Tatura East,Victoria,VIC,-36.4455,145.1411,3.0
13751,3616,Gillieston,Victoria,VIC,-36.3167,145.2167,4.0
13752,3616,Cooma,Victoria,VIC,-36.4167,145.0667,4.0
13753,3616,Mooroopna North West,Victoria,VIC,-36.4455,145.1411,3.0
13754,3617,Byrneside,Victoria,VIC,-36.4167,145.1833,4.0
13755,3618,Merrigum,Victoria,VIC,-36.3724,145.1322,4.0
13756,3619,Kyabram,Victoria,VIC,-36.3134,145.0504,4.0
13757,3620,St Germains,Victoria,VIC,-36.25,145.1667,4.0
13758,3620,Wyuna,Victoria,VIC,-36.1968,145.0589,4.0
13759,3620,Kyabram South,Victoria,VIC,-36.3048,145.0719,3.0
13760,3620,Lancaster,Victoria,VIC,-36.3167,145.1333,4.0
13761,3620,Wyuna East,Victoria,VIC,-36.1968,145.0589,4.0
13762,3620,Kyabram,Victoria,VIC,-36.3134,145.0504,4.0
13763,3621,Kyvalley,Victoria,VIC,-36.2833,145.0,4.0
13764,3621,Koyuga South,Victoria,VIC,-36.208,144.9829,3.0
13765,3621,Tongala,Victoria,VIC,-36.2547,144.9562,4.0
13766,3621,Yambuna,Victoria,VIC,-36.1343,145.036,4.0
13767,3622,Koyuga,Victoria,VIC,-36.2207,144.8906,4.0
13768,3622,Strathallan,Victoria,VIC,-36.25,144.75,4.0
13769,3623,Stanhope,Victoria,VIC,-36.4472,144.9827,4.0
13770,3623,Carag Carag,Victoria,VIC,-36.4667,144.9167,4.0
13771,3623,Stanhope South,Victoria,VIC,-36.457,144.9497,3.0
13772,3624,Girgarre,Victoria,VIC,-36.3999,144.9496,4.0
13773,3629,Mooroopna North,Victoria,VIC,-36.3333,145.3,4.0
13774,3629,Mooroopna,Victoria,VIC,-36.4,145.35,4.0
13775,3629,Ardmona,Victoria,VIC,-36.3833,145.3,4.0
13776,3629,Undera,Victoria,VIC,-36.2833,145.2167,4.0
13777,3629,Coomboona,Victoria,VIC,-36.2833,145.2484,3.0
13778,3630,Shepparton,Victoria,VIC,-36.3805,145.3987,4.0
13779,3630,Shepparton South,Victoria,VIC,-36.4283,145.5142,3.0
13780,3630,Caniambo,Victoria,VIC,-36.4761,145.6297,4.0
13781,3630,Benarch,Victoria,VIC,-36.4681,145.586,3.0
13782,3630,Colliver,Victoria,VIC,-36.4681,145.586,3.0
13783,3630,Branditt,Victoria,VIC,-36.4681,145.586,3.0
13784,3630,Dunkirk,Victoria,VIC,-36.4681,145.586,3.0
13785,3631,Kialla East,Victoria,VIC,-36.45,145.5333,4.0
13786,3631,Kialla,Victoria,VIC,-36.4473,145.4142,4.0
13787,3631,Orrvale,Victoria,VIC,-36.4167,145.45,4.0
13788,3631,Arcadia South,Victoria,VIC,-36.4425,145.4837,3.0
13789,3631,Pine Lodge,Victoria,VIC,-36.4167,145.5,4.0
13790,3631,Karramomus,Victoria,VIC,-36.5333,145.4833,4.0
13791,3631,Lemnos,Victoria,VIC,-36.35,145.4667,4.0
13792,3631,Tamleugh West,Victoria,VIC,-36.5667,145.5333,4.0
13793,3631,Grahamvale,Victoria,VIC,-36.3484,145.4362,4.0
13794,3631,Kialla West,Victoria,VIC,-36.4645,145.3878,4.0
13795,3631,Arcadia,Victoria,VIC,-36.5654,145.3319,4.0
13796,3631,Shepparton North,Victoria,VIC,-36.4425,145.4837,3.0
13797,3631,Cosgrove,Victoria,VIC,-36.35,145.6667,4.0
13798,3631,Cosgrove South,Victoria,VIC,-36.4,145.6167,4.0
13799,3631,Shepparton East,Victoria,VIC,-36.4293,145.4749,3.0
13800,3632,Shepparton,Victoria,VIC,-36.3805,145.3987,4.0
13801,3633,Congupna,Victoria,VIC,-36.3,145.4333,4.0
13802,3634,Invergordon South,Victoria,VIC,-36.2456,145.4686,3.0
13803,3634,Tallygaroopna,Victoria,VIC,-36.25,145.4333,4.0
13804,3634,Bunbartha,Victoria,VIC,-36.2167,145.3167,4.0
13805,3634,Katandra West,Victoria,VIC,-36.2241,145.5583,4.0
13806,3634,Zeerust,Victoria,VIC,-36.2248,145.4883,3.0
13807,3634,Katandra,Victoria,VIC,-36.2333,145.6167,4.0
13808,3634,Marionvale,Victoria,VIC,-36.2248,145.4883,3.0
13809,3634,Marungi,Victoria,VIC,-36.1969,145.536,4.0
13810,3635,Wunghnu,Victoria,VIC,-36.1526,145.431,4.0
13811,3635,Kaarimba,Victoria,VIC,-36.1333,145.25,4.0
13812,3635,Mundoona,Victoria,VIC,-36.1545,145.3298,4.0
13813,3636,Naring,Victoria,VIC,-36.1295,145.5085,3.0
13814,3636,Numurkah,Victoria,VIC,-36.0885,145.4422,4.0
13815,3636,Drumanure,Victoria,VIC,-36.1312,145.5057,4.0
13816,3636,Invergordon,Victoria,VIC,-36.1667,145.5833,4.0
13817,3637,Yalca,Victoria,VIC,-35.9833,145.3167,4.0
13818,3637,Waaia,Victoria,VIC,-36.0475,145.3334,4.0
13819,3638,Nathalia,Victoria,VIC,-36.0577,145.2041,4.0
13820,3638,Yielima,Victoria,VIC,-35.9333,145.2167,3.0
13821,3638,Kotupna,Victoria,VIC,-36.1475,145.1337,4.0
13822,3639,Barmah,Victoria,VIC,-36.0159,144.9628,4.0
13823,3639,Picola West,Victoria,VIC,-36.0333,145.0278,3.0
13824,3639,Lower Moira,Victoria,VIC,-36.0855,144.9763,4.0
13825,3639,Picola,Victoria,VIC,-35.9969,145.1193,4.0
13826,3640,Katunga,Victoria,VIC,-36.0133,145.4695,4.0
13827,3641,Bearii,Victoria,VIC,-35.8857,145.3453,4.0
13828,3641,Strathmerton,Victoria,VIC,-35.9253,145.4787,4.0
13829,3641,Ulupna,Victoria,VIC,-35.8833,145.4,4.0
13830,3641,Mywee,Victoria,VIC,-35.8566,145.4976,4.0
13831,3643,Cobram,Victoria,VIC,-35.9207,145.6407,4.0
13832,3644,Koonoomoo,Victoria,VIC,-35.9503,145.6546,3.0
13833,3644,Cobram,Victoria,VIC,-35.9207,145.6407,4.0
13834,3644,Muckatah,Victoria,VIC,-36.0198,145.6478,4.0
13835,3644,Yarroweyah,Victoria,VIC,-35.9241,145.5572,4.0
13836,3644,Cobram East,Victoria,VIC,-35.9746,145.7364,4.0
13837,3646,Nalinga,Victoria,VIC,-36.4167,145.7167,4.0
13838,3646,Dookie,Victoria,VIC,-36.3273,145.6897,4.0
13839,3646,Mount Major,Victoria,VIC,-36.3606,145.6914,4.0
13840,3646,Yabba South,Victoria,VIC,-36.2755,145.7146,3.0
13841,3646,Waggarandall,Victoria,VIC,-36.25,145.8,4.0
13842,3646,Youanmite,Victoria,VIC,-36.1625,145.6899,4.0
13843,3646,Yabba North,Victoria,VIC,-36.2167,145.6833,4.0
13844,3647,Dookie College,Victoria,VIC,-36.3957,145.7047,4.0
13845,3649,Katamatite East,Victoria,VIC,-36.0759,145.6872,3.0
13846,3649,Katamatite,Victoria,VIC,-36.0759,145.6872,4.0
13847,3658,Waterford Park,Victoria,VIC,-37.3002,145.0668,4.0
13848,3658,Clonbinane,Victoria,VIC,-37.292,145.1406,3.0
13849,3658,Tyaak,Victoria,VIC,-37.2167,145.1333,4.0
13850,3658,Strath Creek,Victoria,VIC,-37.2333,145.2167,4.0
13851,3658,Broadford,Victoria,VIC,-37.2028,145.0484,4.0
13852,3658,Sugarloaf Creek,Victoria,VIC,-37.2602,145.1482,3.0
13853,3658,Reedy Creek,Victoria,VIC,-37.2667,145.1333,4.0
13854,3658,Sunday Creek,Victoria,VIC,-37.2602,145.1482,3.0
13855,3658,Hazeldene,Victoria,VIC,-37.3413,145.2908,4.0
13856,3659,Tallarook,Victoria,VIC,-37.0937,145.1,4.0
13857,3660,Northwood,Victoria,VIC,-36.9667,145.1167,4.0
13858,3660,Dropmore,Victoria,VIC,-37.0605,145.2132,3.0
13859,3660,Seymour South,Victoria,VIC,-37.0605,145.2132,3.0
13860,3660,Seymour,Victoria,VIC,-37.0266,145.1392,4.0
13861,3660,Whiteheads Creek,Victoria,VIC,-37.0468,145.2864,4.0
13862,3660,Trawool,Victoria,VIC,-37.1,145.2167,4.0
13863,3660,Caveat,Victoria,VIC,-37.0605,145.2132,3.0
13864,3660,Kerrisdale,Victoria,VIC,-37.15,145.2667,4.0
13865,3660,Highlands,Victoria,VIC,-37.1,145.4,4.0
13866,3660,Hilldene,Victoria,VIC,-37.0333,145.0667,4.0
13867,3661,Seymour,Victoria,VIC,-37.0266,145.1392,4.0
13868,3662,Puckapunyal Milpo,Victoria,VIC,-36.9604,145.0527,3.0
13869,3662,Puckapunyal,Victoria,VIC,-36.9949,145.0401,4.0
13870,3663,Mangalore,Victoria,VIC,-36.9333,145.1833,4.0
13871,3664,Upton Hill,Victoria,VIC,-36.9009,145.2337,3.0
13872,3664,Avenel,Victoria,VIC,-36.9009,145.2337,4.0
13873,3665,Longwood,Victoria,VIC,-36.8,145.4167,4.0
13874,3665,Locksley,Victoria,VIC,-36.8333,145.3333,4.0
13875,3666,Miepoll,Victoria,VIC,-36.6167,145.4667,4.0
13876,3666,Strathbogie,Victoria,VIC,-36.85,145.75,4.0
13877,3666,Creightons Creek,Victoria,VIC,-36.7804,145.5403,3.0
13878,3666,Gooram,Victoria,VIC,-36.9,145.5833,4.0
13879,3666,Kelvin View,Victoria,VIC,-36.8167,145.6667,4.0
13880,3666,Ruffy,Victoria,VIC,-36.9833,145.5,4.0
13881,3666,Kithbrook,Victoria,VIC,-36.7574,145.5632,3.0
13882,3666,Creighton,Victoria,VIC,-36.7833,145.5,4.0
13883,3666,Balmattum,Victoria,VIC,-36.7,145.65,4.0
13884,3666,Pranjip,Victoria,VIC,-36.7333,145.3667,4.0
13885,3666,Euroa,Victoria,VIC,-36.7555,145.5708,4.0
13886,3666,Moglonemby,Victoria,VIC,-36.65,145.5333,4.0
13887,3666,Molka,Victoria,VIC,-36.6833,145.45,4.0
13888,3666,Tarcombe,Victoria,VIC,-36.9833,145.4,4.0
13889,3666,Longwood East,Victoria,VIC,-36.8167,145.45,4.0
13890,3666,Riggs Creek,Victoria,VIC,-36.65,145.5667,4.0
13891,3666,Sheans Creek,Victoria,VIC,-36.7833,145.65,4.0
13892,3669,Earlston,Victoria,VIC,-36.55,145.6667,4.0
13893,3669,Boho,Victoria,VIC,-36.7167,145.8333,4.0
13894,3669,Tamleugh North,Victoria,VIC,-36.5,145.55,4.0
13895,3669,Koonda,Victoria,VIC,-36.5,145.7333,4.0
13896,3669,Marraweeney,Victoria,VIC,-36.75,145.75,4.0
13897,3669,Violet Town,Victoria,VIC,-36.6361,145.7151,4.0
13898,3669,Upotipotpon,Victoria,VIC,-36.4833,145.8167,4.0
13899,3669,Boho South,Victoria,VIC,-36.7833,145.8,4.0
13900,3669,Gowangardie,Victoria,VIC,-36.4833,145.7,4.0
13901,3669,Tamleugh,Victoria,VIC,-36.6,145.6333,4.0
13902,3669,Creek Junction,Victoria,VIC,-37.25,147.7167,4.0
13903,3670,Tarnook,Victoria,VIC,-36.6333,145.8667,3.0
13904,3670,Warrenbayne,Victoria,VIC,-36.6833,145.8667,4.0
13905,3670,Baddaginnie,Victoria,VIC,-36.5833,145.8667,4.0
13906,3671,Benalla,Victoria,VIC,-36.5511,145.9843,4.0
13907,3672,Benalla,Victoria,VIC,-36.5511,145.9843,4.0
13908,3673,Goomalibee,Victoria,VIC,-36.4833,145.9167,4.0
13909,3673,Upper Ryans Creek,Victoria,VIC,-36.6418,146.0718,3.0
13910,3673,Tatong,Victoria,VIC,-36.7333,146.1,4.0
13911,3673,Swanpool,Victoria,VIC,-36.7667,146.0167,4.0
13912,3673,Samaria,Victoria,VIC,-36.8,146.0833,4.0
13913,3673,Upper Lurg,Victoria,VIC,-36.5833,146.1833,4.0
13914,3673,Moorngag,Victoria,VIC,-36.75,146.0667,4.0
13915,3673,Winton,Victoria,VIC,-36.5167,146.0833,4.0
13916,3673,Benalla,Victoria,VIC,-36.5511,145.9843,4.0
13917,3673,Broken Creek,Victoria,VIC,-36.6418,146.0718,3.0
13918,3673,Molyullah,Victoria,VIC,-36.65,146.15,4.0
13919,3673,Winton North,Victoria,VIC,-36.6418,146.0718,3.0
13920,3673,Lurg,Victoria,VIC,-36.5833,146.1333,4.0
13921,3673,Lima East,Victoria,VIC,-36.6418,146.0718,3.0
13922,3673,Lima,Victoria,VIC,-36.702,146.0416,3.0
13923,3673,Lima South,Victoria,VIC,-36.6418,146.0718,3.0
13924,3675,Boweya,Victoria,VIC,-36.2667,146.1333,4.0
13925,3675,Greta,Victoria,VIC,-36.5833,146.2833,4.0
13926,3675,Taminick,Victoria,VIC,-36.4167,146.1667,4.0
13927,3675,Mount Bruno,Victoria,VIC,-36.46,146.2072,3.0
13928,3675,Greta West,Victoria,VIC,-36.5333,146.2167,4.0
13929,3675,Glenrowan,Victoria,VIC,-36.4635,146.2245,4.0
13930,3675,Glenrowan West,Victoria,VIC,-36.46,146.2072,3.0
13931,3675,Boweya North,Victoria,VIC,-36.2047,146.0685,4.0
13932,3675,Greta South,Victoria,VIC,-36.6167,146.25,4.0
13933,3675,Hansonville,Victoria,VIC,-36.6,146.3,4.0
13934,3676,Wangaratta,Victoria,VIC,-36.3585,146.3206,4.0
13935,3677,Yarrunga,Victoria,VIC,-36.3639,146.3103,3.0
13936,3677,Wangaratta,Victoria,VIC,-36.3585,146.3206,4.0
13937,3677,Appin Park,Victoria,VIC,-36.3639,146.3103,3.0
13938,3678,Oxley Flats,Victoria,VIC,-36.3954,146.3852,4.0
13939,3678,Rose River,Victoria,VIC,-36.4375,146.3894,3.0
13940,3678,Edi,Victoria,VIC,-36.65,146.4071,4.0
13941,3678,Meadow Creek,Victoria,VIC,-36.4375,146.3894,3.0
13942,3678,Waldara,Victoria,VIC,-36.3199,146.2844,4.0
13943,3678,Everton Upper,Victoria,VIC,-36.4375,146.3894,3.0
13944,3678,Tarrawingee,Victoria,VIC,-36.4,146.4667,4.0
13945,3678,Boorhaman,Victoria,VIC,-36.2333,146.3,4.0
13946,3678,Killawarra,Victoria,VIC,-36.25,146.25,4.0
13947,3678,Wangaratta Forward,Victoria,VIC,-36.4375,146.3894,3.0
13948,3678,Peechelba,Victoria,VIC,-36.1947,146.2299,4.0
13949,3678,Wangandary,Victoria,VIC,-36.4375,146.3894,3.0
13950,3678,Bobinawarrah,Victoria,VIC,-36.5167,146.5,4.0
13951,3678,Wangaratta South,Victoria,VIC,-36.4375,146.3894,3.0
13952,3678,North Wangaratta,Victoria,VIC,-36.4375,146.3894,3.0
13953,3678,King Valley,Victoria,VIC,-36.7,146.4333,4.0
13954,3678,Edi Upper,Victoria,VIC,-36.7,146.45,4.0
13955,3678,Boorhaman East,Victoria,VIC,-36.4375,146.3894,3.0
13956,3678,Docker,Victoria,VIC,-36.5167,146.3833,4.0
13957,3678,Peechelba East,Victoria,VIC,-36.1692,146.2544,4.0
13958,3678,Markwood,Victoria,VIC,-36.473,146.5088,4.0
13959,3678,Dockers Plains,Victoria,VIC,-36.4375,146.3894,3.0
13960,3678,Oxley,Victoria,VIC,-36.45,146.3667,4.0
13961,3678,Wabonga,Victoria,VIC,-36.4375,146.3894,3.0
13962,3678,Byawatha,Victoria,VIC,-36.4375,146.3894,3.0
13963,3678,Cheshunt South,Victoria,VIC,-36.4375,146.3894,3.0
13964,3678,Londrigan,Victoria,VIC,-36.3333,146.4167,4.0
13965,3678,Bowser,Victoria,VIC,-36.4375,146.3894,3.0
13966,3678,Everton,Victoria,VIC,-36.4167,146.55,4.0
13967,3678,Whitlands,Victoria,VIC,-36.4375,146.3894,3.0
13968,3678,Cheshunt,Victoria,VIC,-36.8,146.4333,4.0
13969,3678,East Wangaratta,Victoria,VIC,-36.1692,146.2544,4.0
13970,3678,Laceby,Victoria,VIC,-36.4333,146.3,4.0
13971,3678,Carboor,Victoria,VIC,-36.6333,146.55,4.0
13972,3678,Milawa,Victoria,VIC,-36.4333,146.4333,4.0
13973,3682,Norong,Victoria,VIC,-36.1167,146.4,4.0
13974,3682,Boralma,Victoria,VIC,-36.2167,146.4167,4.0
13975,3682,Springhurst,Victoria,VIC,-36.2,146.5,4.0
13976,3682,Lilliput,Victoria,VIC,-36.1131,146.4751,4.0
13977,3683,Chiltern Valley,Victoria,VIC,-36.1399,146.5408,4.0
13978,3683,Cornishtown,Victoria,VIC,-36.1419,146.5709,3.0
13979,3683,Chiltern,Victoria,VIC,-36.1504,146.6084,4.0
13980,3685,Prentice North,Victoria,VIC,-36.0333,146.5,4.0
13981,3685,Boorhaman North,Victoria,VIC,-36.045,146.5117,3.0
13982,3685,Browns Plains,Victoria,VIC,-36.0472,146.6387,4.0
13983,3685,Brimin,Victoria,VIC,-36.0513,146.2249,4.0
13984,3685,Rutherglen,Victoria,VIC,-36.0543,146.4621,4.0
13985,3685,Gooramadda,Victoria,VIC,-36.0,146.55,4.0
13986,3685,Great Southern,Victoria,VIC,-36.0667,146.4833,4.0
13987,3685,Carlyle,Victoria,VIC,-36.0427,146.4824,3.0
13988,3687,Wahgunyah,Victoria,VIC,-36.0118,146.3971,4.0
13989,3688,Indigo Valley,Victoria,VIC,-36.1399,146.5408,4.0
13990,3688,Barnawartha,Victoria,VIC,-36.1041,146.6761,4.0
13991,3689,Wodonga,Victoria,VIC,-36.1218,146.8881,4.0
13992,3690,Wodonga,Victoria,VIC,-36.1218,146.8881,4.0
13993,3690,Wodonga Plaza,Victoria,VIC,-36.0997,146.802,3.0
13994,3690,West Wodonga,Victoria,VIC,-36.1218,146.8881,3.0
13995,3691,Killara,Victoria,VIC,-36.1396,146.9514,4.0
13996,3691,Castle Creek,Victoria,VIC,-36.2843,147.0692,3.0
13997,3691,Upper Gundowring,Victoria,VIC,-36.4833,147.0667,4.0
13998,3691,Bandiana,Victoria,VIC,-36.1479,146.9262,4.0
13999,3691,Bethanga,Victoria,VIC,-36.1167,147.1,4.0
14000,3691,Baranduda,Victoria,VIC,-36.1911,146.9538,4.0
14001,3691,Allans Flat,Victoria,VIC,-36.2667,146.9,4.0
14002,3691,Mount Alfred,Victoria,VIC,-36.2959,147.0534,3.0
14003,3691,Bellbridge,Victoria,VIC,-36.0974,147.0617,4.0
14004,3691,Kergunyah South,Victoria,VIC,-36.2843,147.0692,3.0
14005,3691,Berringama,Victoria,VIC,-36.2167,147.65,4.0
14006,3691,Coral Bank,Victoria,VIC,-36.2843,147.0692,3.0
14007,3691,Talgarno,Victoria,VIC,-36.0833,147.1667,4.0
14008,3691,Kergunyah,Victoria,VIC,-36.3833,147.05,4.0
14009,3691,Gundowring,Victoria,VIC,-36.4333,147.05,4.0
14010,3691,Lone Pine,Victoria,VIC,-36.2959,147.0534,3.0
14011,3691,Glen Creek,Victoria,VIC,-36.45,146.95,4.0
14012,3691,Tangambalanga,Victoria,VIC,-36.2522,147.0286,4.0
14013,3691,Dederang,Victoria,VIC,-36.4833,147.0167,4.0
14014,3691,Wodonga Forward,Victoria,VIC,-36.2843,147.0692,3.0
14015,3691,Hume Weir,Victoria,VIC,-36.1022,147.0373,4.0
14016,3691,Bonegilla,Victoria,VIC,-36.1403,147.0062,4.0
14017,3691,Kancoona,Victoria,VIC,-36.5833,146.9833,4.0
14018,3691,Thologolong,Victoria,VIC,-36.2843,147.0692,3.0
14019,3691,Running Creek,Victoria,VIC,-36.6167,146.9167,4.0
14020,3691,Kiewa,Victoria,VIC,-36.2667,147.0167,4.0
14021,3691,Bungil,Victoria,VIC,-36.0667,147.35,4.0
14022,3691,Gateway Island,Victoria,VIC,-36.2843,147.0692,3.0
14023,3691,Lucyvale,Victoria,VIC,-36.2833,147.6167,4.0
14024,3691,Osbornes Flat,Victoria,VIC,-36.3167,146.8833,4.0
14025,3691,Leneva,Victoria,VIC,-36.2167,146.9,4.0
14026,3691,Barnawartha North,Victoria,VIC,-36.2843,147.0692,3.0
14027,3691,Mongans Bridge,Victoria,VIC,-36.6,147.1,4.0
14028,3691,Huon Creek,Victoria,VIC,-36.2843,147.0692,3.0
14029,3691,Staghorn Flat,Victoria,VIC,-36.2522,146.9228,3.0
14030,3691,Ebden,Victoria,VIC,-36.153,147.0252,4.0
14031,3694,Bandiana Milpo,Victoria,VIC,-36.1454,146.9188,1.0
14032,3695,Huon,Victoria,VIC,-36.2333,147.0667,4.0
14033,3695,Charleroi,Victoria,VIC,-36.332,147.1146,3.0
14034,3695,Sandy Creek,Victoria,VIC,-36.3,147.1,4.0
14035,3695,Red Bluff,Victoria,VIC,-36.2667,147.1,4.0
14036,3697,Tawonga,Victoria,VIC,-36.6895,147.1421,4.0
14037,3698,Tawonga South,Victoria,VIC,-36.7359,147.1521,1.0
14038,3699,Mount Beauty,Victoria,VIC,-36.7363,147.1753,4.0
14039,3699,Nelse,Victoria,VIC,-36.8005,147.2233,3.0
14040,3699,Falls Creek,Victoria,VIC,-36.8653,147.2778,4.0
14041,3699,Bogong,Victoria,VIC,-36.8047,147.2237,4.0
14042,3700,Georges Creek,Victoria,VIC,-36.1833,147.2833,4.0
14043,3700,Tallangatta,Victoria,VIC,-36.2179,147.177,4.0
14044,3700,Jarvis Creek,Victoria,VIC,-36.2004,147.2646,3.0
14045,3700,Bullioh,Victoria,VIC,-36.2,147.3333,4.0
14046,3700,Tallangatta East,Victoria,VIC,-36.2004,147.2646,3.0
14047,3701,Tallandoon,Victoria,VIC,-36.45,147.2,4.0
14048,3701,Shelley,Victoria,VIC,-36.4158,147.4436,3.0
14049,3701,Old Tallangatta,Victoria,VIC,-36.1929,147.2521,4.0
14050,3701,Tallangatta South,Victoria,VIC,-36.3737,147.3266,3.0
14051,3701,Mitta Mitta,Victoria,VIC,-36.55,147.3833,4.0
14052,3701,Eskdale,Victoria,VIC,-36.4667,147.2333,4.0
14053,3701,Tallangatta Valley,Victoria,VIC,-36.2936,147.389,4.0
14054,3701,Dartmouth,Victoria,VIC,-36.5462,147.5116,4.0
14055,3701,Granya,Victoria,VIC,-36.1167,147.3167,4.0
14056,3704,Koetong,Victoria,VIC,-36.15,147.5,4.0
14057,3705,Nariel Valley,Victoria,VIC,-36.3112,147.726,3.0
14058,3705,Cudgewa,Victoria,VIC,-36.2,147.75,4.0
14059,3707,Biggara,Victoria,VIC,-36.2667,148.0333,4.0
14060,3707,Tom Groggin,Victoria,VIC,-36.5192,148.127,4.0
14061,3707,Towong,Victoria,VIC,-36.1333,147.9833,4.0
14062,3707,Corryong,Victoria,VIC,-36.197,147.9026,4.0
14063,3707,Thowgla Valley,Victoria,VIC,-36.4104,147.9589,3.0
14064,3707,Colac Colac,Victoria,VIC,-36.4104,147.9589,3.0
14065,3707,Towong Upper,Victoria,VIC,-36.2167,148.0333,4.0
14066,3707,Nariel Valley,Victoria,VIC,-36.2034,147.9881,3.0
14067,3708,Tintaldra,Victoria,VIC,-36.05,147.9333,4.0
14068,3709,Walwa,Victoria,VIC,-35.9667,147.7333,4.0
14069,3709,Mount Alfred,Victoria,VIC,-36.0222,147.6444,3.0
14070,3709,Burrowye,Victoria,VIC,-36.0333,147.55,4.0
14071,3709,Guys Forest,Victoria,VIC,-36.0667,147.65,4.0
14072,3709,Pine Mountain,Victoria,VIC,-36.0222,147.6444,3.0
14073,3711,Buxton,Victoria,VIC,-37.4167,145.7167,4.0
14074,3712,Thornton,Victoria,VIC,-37.2558,145.7964,4.0
14075,3712,Rubicon,Victoria,VIC,-37.256,145.7977,3.0
14076,3713,Eildon,Victoria,VIC,-37.2324,145.9126,4.0
14077,3713,Lake Eildon,Victoria,VIC,-37.2324,145.9126,3.0
14078,3713,Taylor Bay,Victoria,VIC,-37.2324,145.9126,3.0
14079,3714,Alexandra,Victoria,VIC,-37.1913,145.7112,4.0
14080,3714,Acheron,Victoria,VIC,-37.25,145.7,4.0
14081,3714,Cathkin,Victoria,VIC,-37.15,145.5833,4.0
14082,3714,Maintongoon,Victoria,VIC,-37.2041,145.6741,3.0
14083,3714,Koriella,Victoria,VIC,-37.1667,145.65,4.0
14084,3714,Whanregarwen,Victoria,VIC,-37.2041,145.6741,3.0
14085,3714,Fawcett,Victoria,VIC,-37.1333,145.6833,4.0
14086,3714,Crystal Creek,Victoria,VIC,-37.2041,145.6741,3.0
14087,3714,Taggerty,Victoria,VIC,-37.3333,145.7167,4.0
14088,3714,Devils River,Victoria,VIC,-37.2041,145.6741,3.0
14089,3715,Merton,Victoria,VIC,-36.9768,145.7108,4.0
14090,3715,Ancona,Victoria,VIC,-36.9833,145.8167,4.0
14091,3715,Woodfield,Victoria,VIC,-37.0167,145.8,4.0
14092,3717,Flowerdale,Victoria,VIC,-37.3333,145.3333,4.0
14093,3717,Homewood,Victoria,VIC,-37.2,145.3333,4.0
14094,3717,Killingworth,Victoria,VIC,-37.2962,145.424,3.0
14095,3717,Yea,Victoria,VIC,-37.2107,145.4276,4.0
14096,3717,Limestone,Victoria,VIC,-37.25,145.5,4.0
14097,3717,Murrindindi,Victoria,VIC,-37.3667,145.5333,4.0
14098,3717,Ghin Ghin,Victoria,VIC,-37.2962,145.424,3.0
14099,3717,Glenburn,Victoria,VIC,-37.4167,145.4167,4.0
14100,3718,Molesworth,Victoria,VIC,-37.1667,145.5333,4.0
14101,3719,Yarck,Victoria,VIC,-37.1,145.6167,4.0
14102,3719,Gobur,Victoria,VIC,-37.0167,145.6,4.0
14103,3719,Terip Terip,Victoria,VIC,-37.0,145.5667,4.0
14104,3719,Kanumbra,Victoria,VIC,-37.05,145.6667,4.0
14105,3720,Bonnie Doon,Victoria,VIC,-37.0167,145.8667,4.0
14106,3722,Barwite,Victoria,VIC,-37.0,146.1667,4.0
14107,3722,Mirimbah,Victoria,VIC,-37.1103,146.3985,4.0
14108,3722,Mansfield,Victoria,VIC,-37.052,146.0885,4.0
14109,3723,Howes Creek,Victoria,VIC,-37.1667,146.0,4.0
14110,3723,Howqua Inlet,Victoria,VIC,-37.251,146.1822,3.0
14111,3723,Gaffneys Creek,Victoria,VIC,-37.4667,146.1833,4.0
14112,3723,Enochs Point,Victoria,VIC,-37.4167,146.1,4.0
14113,3723,Archerton,Victoria,VIC,-36.8833,146.2,4.0
14114,3723,Sawmill Settlement,Victoria,VIC,-37.251,146.1822,3.0
14115,3723,Knockwood,Victoria,VIC,-37.45,146.2333,4.0
14116,3723,Howqua,Victoria,VIC,-37.2333,146.1167,4.0
14117,3723,Mount Buller,Victoria,VIC,-37.146,146.4369,4.0
14118,3723,Mountain Bay,Victoria,VIC,-37.251,146.1822,3.0
14119,3723,Goughs Bay,Victoria,VIC,-37.1767,146.0635,3.0
14120,3723,Howqua Hills,Victoria,VIC,-37.2598,146.4295,4.0
14121,3723,Delatite,Victoria,VIC,-37.15,146.1333,4.0
14122,3723,Kevington,Victoria,VIC,-37.3667,146.15,4.0
14123,3723,Piries,Victoria,VIC,-37.2,146.1333,4.0
14124,3723,Matlock,Victoria,VIC,-37.6,146.2167,4.0
14125,3723,Merrijig,Victoria,VIC,-37.1,146.25,4.0
14126,3723,Barjarg,Victoria,VIC,-37.251,146.1822,3.0
14127,3723,Maindample,Victoria,VIC,-37.0333,145.9333,4.0
14128,3723,Boorolite,Victoria,VIC,-37.251,146.1822,3.0
14129,3723,Woods Point,Victoria,VIC,-37.5833,146.25,4.0
14130,3723,Bridge Creek,Victoria,VIC,-37.251,146.1822,3.0
14131,3723,Macs Cove,Victoria,VIC,-37.2125,146.1464,4.0
14132,3723,Jamieson,Victoria,VIC,-37.3167,146.1333,4.0
14133,3723,Tolmie,Victoria,VIC,-36.9333,146.2333,4.0
14134,3724,Mansfield,Victoria,VIC,-37.052,146.0885,4.0
14135,3725,Goorambat,Victoria,VIC,-36.4167,145.9167,4.0
14136,3725,Chesney Vale,Victoria,VIC,-36.3833,145.8292,3.0
14137,3725,Boxwood,Victoria,VIC,-36.3167,145.8,4.0
14138,3725,Major Plains,Victoria,VIC,-36.3667,145.8,4.0
14139,3725,Stewarton,Victoria,VIC,-36.4333,145.8,4.0
14140,3726,Bungeet,Victoria,VIC,-36.3,146.05,4.0
14141,3726,Bungeet West,Victoria,VIC,-36.3167,146.0056,3.0
14142,3726,Thoona,Victoria,VIC,-36.3167,146.0667,4.0
14143,3726,Devenish,Victoria,VIC,-36.3333,145.9,4.0
14144,3727,Yundool,Victoria,VIC,-36.2667,145.8333,4.0
14145,3727,Almonds,Victoria,VIC,-36.2,145.9667,4.0
14146,3727,Lake Rowan,Victoria,VIC,-36.2667,145.9667,4.0
14147,3727,Pelluebla,Victoria,VIC,-36.25,145.9167,3.0
14148,3727,St James,Victoria,VIC,-36.2667,145.9,4.0
14149,3728,Tungamah,Victoria,VIC,-36.161,145.8768,4.0
14150,3728,Boomahnoomoonah,Victoria,VIC,-36.1265,146.1321,4.0
14151,3728,Wilby,Victoria,VIC,-36.1574,146.022,4.0
14152,3728,Youarang,Victoria,VIC,-36.1767,145.791,4.0
14153,3730,Burramine,Victoria,VIC,-36.0639,145.854,4.0
14154,3730,Yarrawonga,Victoria,VIC,-36.0192,145.9997,4.0
14155,3730,Esmond,Victoria,VIC,-36.0797,146.1833,4.0
14156,3730,Boosey,Victoria,VIC,-36.05,145.7833,4.0
14157,3730,Bathumi,Victoria,VIC,-36.0367,146.0793,4.0
14158,3730,Bundalong,Victoria,VIC,-36.0298,146.1581,4.0
14159,3730,Yarrawonga South,Victoria,VIC,-36.0521,146.0092,3.0
14160,3730,Telford,Victoria,VIC,-36.0966,145.9337,4.0
14161,3730,Burramine South,Victoria,VIC,-36.0639,145.854,4.0
14162,3730,Bundalong South,Victoria,VIC,-36.0955,146.1876,4.0
14163,3732,Moyhu,Victoria,VIC,-36.578,146.3784,4.0
14164,3732,Myrrhee,Victoria,VIC,-36.75,146.3167,4.0
14165,3733,Whitfield,Victoria,VIC,-36.7833,146.4167,4.0
14166,3735,Whorouly South,Victoria,VIC,-36.55,146.5833,4.0
14167,3735,Whorouly,Victoria,VIC,-36.5167,146.6,4.0
14168,3735,Bowmans Forest,Victoria,VIC,-36.5706,146.5783,3.0
14169,3735,Whorouly East,Victoria,VIC,-36.5333,146.5917,3.0
14170,3736,Myrtleford,Victoria,VIC,-36.561,146.7237,4.0
14171,3737,Buffalo River,Victoria,VIC,-36.6333,146.6833,4.0
14172,3737,Abbeyard,Victoria,VIC,-36.6267,146.7254,3.0
14173,3737,Myrtleford,Victoria,VIC,-36.561,146.7237,4.0
14174,3737,Gapsted,Victoria,VIC,-36.5167,146.6833,4.0
14175,3737,Mudgegonga,Victoria,VIC,-36.4897,146.8658,3.0
14176,3737,Nug Nug,Victoria,VIC,-36.6656,146.7178,4.0
14177,3737,Merriang South,Victoria,VIC,-36.6267,146.7254,3.0
14178,3737,Havilah,Victoria,VIC,-36.6267,146.7254,3.0
14179,3737,Wonnangatta,Victoria,VIC,-36.6267,146.7254,3.0
14180,3737,Rosewhite,Victoria,VIC,-36.5833,146.8773,4.0
14181,3737,Merriang,Victoria,VIC,-36.6267,146.7254,3.0
14182,3737,Barwidgee,Victoria,VIC,-36.6267,146.7254,3.0
14183,3737,Selwyn,Victoria,VIC,-36.6267,146.7254,3.0
14184,3737,Dandongadale,Victoria,VIC,-36.8,146.6667,4.0
14185,3738,Ovens,Victoria,VIC,-36.5874,146.7593,4.0
14186,3739,Eurobin,Victoria,VIC,-36.6352,146.8596,4.0
14187,3740,Mount Buffalo,Victoria,VIC,-36.7829,146.8699,3.0
14188,3740,Porepunkah,Victoria,VIC,-36.6961,146.9104,4.0
14189,3740,Buckland,Victoria,VIC,-36.8833,146.85,4.0
14190,3741,Smoko,Victoria,VIC,-36.8202,147.0642,4.0
14191,3741,Mount Hotham,Victoria,VIC,-37.0712,147.0949,3.0
14192,3741,Bright,Victoria,VIC,-36.73,146.9598,4.0
14193,3741,Germantown,Victoria,VIC,-36.7427,147.0153,4.0
14194,3741,Hotham Heights,Victoria,VIC,-36.993,147.1523,4.0
14195,3741,Harrietville,Victoria,VIC,-36.8915,147.0619,4.0
14196,3741,Freeburgh,Victoria,VIC,-36.7599,147.0263,4.0
14197,3744,Wandiligong,Victoria,VIC,-36.7833,146.9833,4.0
14198,3746,Eldorado,Victoria,VIC,-36.3,146.5167,4.0
14199,3747,Wooragee,Victoria,VIC,-36.2833,146.7833,4.0
14200,3747,Baarmutha,Victoria,VIC,-36.4167,146.6833,4.0
14201,3747,Murmungee,Victoria,VIC,-36.45,146.6833,4.0
14202,3747,Stanley,Victoria,VIC,-36.4167,146.75,4.0
14203,3747,Beechworth,Victoria,VIC,-36.3583,146.6858,4.0
14204,3749,Bruarong,Victoria,VIC,-36.4167,146.85,4.0
14205,3749,Yackandandah,Victoria,VIC,-36.3137,146.8396,4.0
14206,3750,Wollert,Victoria,VIC,-37.5833,145.0333,4.0
14207,3751,Woodstock,Victoria,VIC,-37.55,145.0333,4.0
14208,3752,South Morang,Victoria,VIC,-37.65,145.1,4.0
14209,3753,Beveridge,Victoria,VIC,-37.4833,144.9833,4.0
14210,3754,Mernda,Victoria,VIC,-37.6007,145.0956,4.0
14211,3754,Doreen,Victoria,VIC,-37.6,145.15,4.0
14212,3755,Yan Yean,Victoria,VIC,-37.5667,145.1,4.0
14213,3756,Hidden Valley,Victoria,VIC,-37.4369,144.8946,3.0
14214,3756,Upper Plenty,Victoria,VIC,-37.4197,145.0547,4.0
14215,3756,Chintin,Victoria,VIC,-37.418,145.0166,3.0
14216,3756,Wallan,Victoria,VIC,-37.4162,144.9786,4.0
14217,3756,Darraweit Guim,Victoria,VIC,-37.4369,144.8946,3.0
14218,3757,Kinglake Central,Victoria,VIC,-37.5,145.3,4.0
14219,3757,Pheasant Creek,Victoria,VIC,-37.4833,145.2833,4.0
14220,3757,Humevale,Victoria,VIC,-37.5,145.1667,4.0
14221,3757,Kinglake West,Victoria,VIC,-37.4667,145.2333,4.0
14222,3757,Whittlesea,Victoria,VIC,-37.5115,145.1184,4.0
14223,3757,Eden Park,Victoria,VIC,-37.4833,145.0833,4.0
14224,3758,Wandong,Victoria,VIC,-37.3719,145.0321,4.0
14225,3758,Heathcote Junction,Victoria,VIC,-37.3719,145.0321,4.0
14226,3759,Panton Hill,Victoria,VIC,-37.6408,145.2399,4.0
14227,3760,Smiths Gully,Victoria,VIC,-37.6202,145.2603,4.0
14228,3761,St Andrews,Victoria,VIC,-37.5782,145.3074,1.0
14229,3762,Bylands,Victoria,VIC,-37.35,144.9667,4.0
14230,3763,Kinglake,Victoria,VIC,-37.5329,145.3396,4.0
14231,3764,Tantaraboo,Victoria,VIC,-37.4658,145.0672,3.0
14232,3764,Kilmore,Victoria,VIC,-37.2958,144.9525,4.0
14233,3764,High Camp,Victoria,VIC,-37.1833,144.9,4.0
14234,3764,Kilmore East,Victoria,VIC,-37.3,144.9833,4.0
14235,3764,Moranding,Victoria,VIC,-37.4658,145.0672,3.0
14236,3764,Forbes,Victoria,VIC,-38.45,145.5333,4.0
14237,3764,Glenaroua,Victoria,VIC,-37.1,144.9667,4.0
14238,3764,Willowmavin,Victoria,VIC,-37.4658,145.0672,3.0
14239,3765,Montrose,Victoria,VIC,-37.8167,145.35,4.0
14240,3766,Kalorama,Victoria,VIC,-37.8167,145.3667,4.0
14241,3767,Mount Dandenong,Victoria,VIC,-37.8333,145.3667,4.0
14242,3770,Coldstream,Victoria,VIC,-37.7249,145.378,4.0
14243,3770,Gruyere,Victoria,VIC,-37.7333,145.45,4.0
14244,3770,Yering,Victoria,VIC,-37.7,145.3667,4.0
14245,3775,Dixons Creek,Victoria,VIC,-37.6,145.4167,4.0
14246,3775,Yarra Glen,Victoria,VIC,-37.6579,145.3742,4.0
14247,3775,Christmas Hills,Victoria,VIC,-37.65,145.3333,4.0
14248,3775,Steels Creek,Victoria,VIC,-37.5833,145.3833,4.0
14249,3775,Tarrawarra,Victoria,VIC,-37.65,145.4333,4.0
14250,3777,Healesville,Victoria,VIC,-37.654,145.5172,4.0
14251,3777,Chum Creek,Victoria,VIC,-37.6051,145.4874,4.0
14252,3777,Healesville Main Street,Victoria,VIC,-37.6018,145.4842,3.0
14253,3777,Badger Creek,Victoria,VIC,-37.7,145.5167,4.0
14254,3777,Toolangi,Victoria,VIC,-37.5333,145.4667,4.0
14255,3777,Castella,Victoria,VIC,-37.5167,145.4333,4.0
14256,3777,Mount Toolebewong,Victoria,VIC,-37.6984,145.5625,4.0
14257,3778,Narbethong,Victoria,VIC,-37.5639,145.6557,4.0
14258,3778,Fernshaw,Victoria,VIC,-37.6,145.6333,4.0
14259,3779,Cambarville,Victoria,VIC,-37.5588,145.8906,4.0
14260,3779,Marysville,Victoria,VIC,-37.5098,145.7481,4.0
14261,3781,Mount Burnett,Victoria,VIC,-37.9833,145.5,4.0
14262,3781,Nangana,Victoria,VIC,-37.8667,145.5333,4.0
14263,3781,Cockatoo,Victoria,VIC,-37.9368,145.4938,4.0
14264,3782,Avonsleigh,Victoria,VIC,-37.9333,145.4667,4.0
14265,3782,Macclesfield,Victoria,VIC,-37.8833,145.4833,4.0
14266,3782,Clematis,Victoria,VIC,-37.9333,145.4167,4.0
14267,3782,Emerald,Victoria,VIC,-37.9317,145.4409,4.0
14268,3783,Gembrook,Victoria,VIC,-37.9532,145.5554,4.0
14269,3785,Tremont,Victoria,VIC,-37.9,145.3333,4.0
14270,3786,Ferny Creek,Victoria,VIC,-37.8833,145.3333,4.0
14271,3787,Sassafras Gully,Victoria,VIC,-37.8667,145.35,3.0
14272,3787,Sassafras,Victoria,VIC,-37.8667,145.35,4.0
14273,3788,Olinda,Victoria,VIC,-37.85,145.3667,4.0
14274,3789,Sherbrooke,Victoria,VIC,-37.8833,145.35,4.0
14275,3791,Kallista,Victoria,VIC,-37.8833,145.3667,4.0
14276,3792,The Patch,Victoria,VIC,-37.9,145.3833,4.0
14277,3793,Monbulk,Victoria,VIC,-37.8833,145.4,4.0
14278,3795,Silvan,Victoria,VIC,-37.8167,145.4167,4.0
14279,3796,Mount Evelyn,Victoria,VIC,-37.7833,145.3833,4.0
14280,3797,Gladysdale,Victoria,VIC,-37.8,145.65,4.0
14281,3797,Powelltown,Victoria,VIC,-37.8667,145.75,4.0
14282,3797,Three Bridges,Victoria,VIC,-37.8454,145.6845,4.0
14283,3797,Gilderoy,Victoria,VIC,-37.8667,145.7167,4.0
14284,3797,Yarra Junction,Victoria,VIC,-37.7819,145.6143,4.0
14285,3799,Big Pats Creek,Victoria,VIC,-37.7833,145.75,4.0
14286,3799,Mcmahons Creek,Victoria,VIC,-37.7167,145.8333,4.0
14287,3799,Warburton,Victoria,VIC,-37.7537,145.6904,4.0
14288,3799,Reefton,Victoria,VIC,-37.752,145.7172,3.0
14289,3799,East Warburton,Victoria,VIC,-37.7364,145.7429,4.0
14290,3799,Millgrove,Victoria,VIC,-37.7553,145.6535,4.0
14291,3799,Wesburn,Victoria,VIC,-37.7667,145.6333,4.0
14292,3800,Monash University,Victoria,VIC,-37.9106,145.1348,1.0
14293,3802,Endeavour Hills,Victoria,VIC,-37.977,145.2587,4.0
14294,3803,Hallam,Victoria,VIC,-38.0167,145.2667,4.0
14295,3804,Narre Warren North,Victoria,VIC,-37.9833,145.3167,4.0
14296,3804,Narre Warren East,Victoria,VIC,-37.9639,145.3629,4.0
14297,3805,Narre Warren,Victoria,VIC,-38.0333,145.3,4.0
14298,3805,Fountain Gate,Victoria,VIC,-38.0263,145.3069,4.0
14299,3805,Narre Warren South,Victoria,VIC,-38.0437,145.2923,4.0
14300,3806,Harkaway,Victoria,VIC,-38.0,145.35,4.0
14301,3806,Berwick,Victoria,VIC,-38.0333,145.35,4.0
14302,3807,Guys Hill,Victoria,VIC,-38.0161,145.3871,4.0
14303,3807,Beaconsfield,Victoria,VIC,-38.05,145.3667,4.0
14304,3808,Dewhurst,Victoria,VIC,-37.9801,145.4669,4.0
14305,3808,Beaconsfield Upper,Victoria,VIC,-37.9941,145.4142,4.0
14306,3809,Officer,Victoria,VIC,-38.0592,145.4095,4.0
14307,3809,Officer South,Victoria,VIC,-38.0863,145.4021,4.0
14308,3810,Rythdale,Victoria,VIC,-38.1333,145.4333,4.0
14309,3810,Pakenham South,Victoria,VIC,-38.1333,145.5167,4.0
14310,3810,Pakenham,Victoria,VIC,-38.0702,145.4741,4.0
14311,3810,Pakenham Upper,Victoria,VIC,-38.0167,145.5167,4.0
14312,3812,Maryknoll,Victoria,VIC,-38.036,145.5948,4.0
14313,3812,Nar Nar Goon,Victoria,VIC,-38.0825,145.5701,4.0
14314,3812,Nar Nar Goon North,Victoria,VIC,-38.0167,145.5667,4.0
14315,3813,Tynong,Victoria,VIC,-38.0834,145.6246,4.0
14316,3813,Tynong North,Victoria,VIC,-38.0667,145.6167,4.0
14317,3814,Cora Lynn,Victoria,VIC,-38.15,145.6,4.0
14318,3814,Garfield North,Victoria,VIC,-38.0333,145.6833,4.0
14319,3814,Garfield,Victoria,VIC,-38.0899,145.675,4.0
14320,3814,Vervale,Victoria,VIC,-38.1333,145.6667,4.0
14321,3815,Tonimbuk,Victoria,VIC,-38.0167,145.7333,4.0
14322,3815,Bunyip,Victoria,VIC,-38.0979,145.7161,4.0
14323,3815,Bunyip North,Victoria,VIC,-38.0634,145.7206,4.0
14324,3815,Iona,Victoria,VIC,-38.1333,145.6833,4.0
14325,3816,Labertouche,Victoria,VIC,-38.05,145.8,4.0
14326,3816,Longwarry North,Victoria,VIC,-38.0833,145.7667,4.0
14327,3816,Longwarry,Victoria,VIC,-38.1128,145.7685,4.0
14328,3816,Modella,Victoria,VIC,-38.1833,145.7167,4.0
14329,3818,Drouin West,Victoria,VIC,-38.1,145.8667,4.0
14330,3818,Ripplebrook,Victoria,VIC,-38.2001,145.7725,3.0
14331,3818,Drouin South,Victoria,VIC,-38.1667,145.8333,4.0
14332,3818,Drouin East,Victoria,VIC,-38.1561,145.8431,3.0
14333,3818,Hallora,Victoria,VIC,-38.2667,145.8333,4.0
14334,3818,Athlone,Victoria,VIC,-38.2333,145.7667,4.0
14335,3818,Drouin,Victoria,VIC,-38.1366,145.8584,4.0
14336,3818,Jindivick,Victoria,VIC,-38.0333,145.9,4.0
14337,3820,Warragul,Victoria,VIC,-38.1591,145.9312,4.0
14338,3820,Bona Vista,Victoria,VIC,-38.1462,145.9406,3.0
14339,3820,Lillico,Victoria,VIC,-38.1333,145.95,4.0
14340,3821,Brandy Creek,Victoria,VIC,-38.1,145.9,4.0
14341,3821,Lardner,Victoria,VIC,-38.2,145.8667,4.0
14342,3821,Seaview,Victoria,VIC,-38.1382,145.9483,3.0
14343,3821,Crossover,Victoria,VIC,-38.05,145.9667,4.0
14344,3821,Nilma North,Victoria,VIC,-38.15,145.9833,4.0
14345,3821,Rokeby,Victoria,VIC,-38.0667,145.9333,4.0
14346,3821,Neerim North,Victoria,VIC,-38.1952,145.9567,3.0
14347,3821,Buln Buln East,Victoria,VIC,-38.0833,146.0,4.0
14348,3821,Nilma,Victoria,VIC,-38.1833,145.9667,4.0
14349,3821,Neerim Junction,Victoria,VIC,-37.9296,145.9612,4.0
14350,3821,Torwood,Victoria,VIC,-38.1382,145.9483,3.0
14351,3821,Shady Creek,Victoria,VIC,-38.1167,146.05,4.0
14352,3821,Bravington,Victoria,VIC,-38.1382,145.9483,3.0
14353,3821,Tetoora Road,Victoria,VIC,-38.2667,145.9,4.0
14354,3821,Ferndale,Victoria,VIC,-38.3167,145.9333,4.0
14355,3821,Ellinbank,Victoria,VIC,-38.2333,145.9333,4.0
14356,3821,Warragul South,Victoria,VIC,-38.1382,145.9483,3.0
14357,3821,Warragul West,Victoria,VIC,-38.1382,145.9483,3.0
14358,3821,Buln Buln,Victoria,VIC,-38.1,145.9333,4.0
14359,3822,Gainsborough,Victoria,VIC,-38.2333,145.9667,4.0
14360,3822,Cloverlea,Victoria,VIC,-38.2333,146.0,4.0
14361,3822,Darnum,Victoria,VIC,-38.1885,146.0053,4.0
14362,3823,Yarragon,Victoria,VIC,-38.2052,146.0608,4.0
14363,3823,Yarragon South,Victoria,VIC,-38.236,146.0471,3.0
14364,3823,Allambee,Victoria,VIC,-38.2667,146.0333,4.0
14365,3824,Trafalgar South,Victoria,VIC,-38.2667,146.15,4.0
14366,3824,Trafalgar,Victoria,VIC,-38.2091,146.1535,4.0
14367,3824,Thorpdale South,Victoria,VIC,-38.3,146.1667,4.0
14368,3824,Childers,Victoria,VIC,-38.2993,146.1139,4.0
14369,3824,Trafalgar East,Victoria,VIC,-38.1833,146.1833,4.0
14370,3824,Narracan,Victoria,VIC,-38.25,146.2333,4.0
14371,3825,Yallourn,Victoria,VIC,-38.1783,146.261,4.0
14372,3825,Jacob Creek,Victoria,VIC,-38.0481,146.1801,3.0
14373,3825,Hernes Oak,Victoria,VIC,-38.1956,146.3258,3.0
14374,3825,Walhalla East,Victoria,VIC,-38.0481,146.1801,3.0
14375,3825,Aberfeldy,Victoria,VIC,-37.6833,146.3667,4.0
14376,3825,Jericho,Victoria,VIC,-38.0481,146.1801,3.0
14377,3825,Rawson,Victoria,VIC,-37.9546,146.3993,4.0
14378,3825,Tanjil South,Victoria,VIC,-38.1167,146.25,4.0
14379,3825,Willow Grove,Victoria,VIC,-38.0833,146.2,4.0
14380,3825,Amor,Victoria,VIC,-38.0481,146.1801,3.0
14381,3825,Yallourn North,Victoria,VIC,-38.1605,146.3645,4.0
14382,3825,Thomson,Victoria,VIC,-38.1698,144.3789,4.0
14383,3825,Fumina,Victoria,VIC,-37.8833,146.1,4.0
14384,3825,Coalville,Victoria,VIC,-38.25,146.2667,4.0
14385,3825,Moe,Victoria,VIC,-38.1783,146.261,4.0
14386,3825,Moondarra,Victoria,VIC,-38.0167,146.3667,4.0
14387,3825,Coopers Creek,Victoria,VIC,-37.9833,146.4333,4.0
14388,3825,Caringal,Victoria,VIC,-38.0481,146.1801,3.0
14389,3825,Fumina South,Victoria,VIC,-37.95,146.1167,4.0
14390,3825,Westbury,Victoria,VIC,-38.1363,146.2175,4.0
14391,3825,Boola,Victoria,VIC,-38.0481,146.1801,3.0
14392,3825,Hill End,Victoria,VIC,-38.0167,146.15,4.0
14393,3825,Thalloo,Victoria,VIC,-38.0481,146.1801,3.0
14394,3825,Erica,Victoria,VIC,-37.9833,146.3667,4.0
14395,3825,Tanjil,Victoria,VIC,-38.0481,146.1801,3.0
14396,3825,Walhalla,Victoria,VIC,-37.95,146.45,4.0
14397,3825,Moe South,Victoria,VIC,-38.0481,146.1801,3.0
14398,3825,Toombon,Victoria,VIC,-38.0481,146.1801,3.0
14399,3825,Newborough,Victoria,VIC,-38.1717,146.2926,4.0
14400,3831,Neerim East,Victoria,VIC,-37.9833,146.0,4.0
14401,3831,Neerim,Victoria,VIC,-37.9667,145.95,4.0
14402,3831,Neerim South,Victoria,VIC,-38.0168,145.9545,4.0
14403,3832,Neerim Junction,Victoria,VIC,-37.9296,145.9612,4.0
14404,3832,Neerim North,Victoria,VIC,-37.9315,145.9556,3.0
14405,3832,Nayook,Victoria,VIC,-37.9333,145.95,4.0
14406,3833,Toorongo,Victoria,VIC,-37.8728,146.1029,3.0
14407,3833,Icy Creek,Victoria,VIC,-37.8728,146.1029,3.0
14408,3833,Vesper,Victoria,VIC,-37.9167,146.0833,4.0
14409,3833,Gentle Annie,Victoria,VIC,-37.938,145.8359,4.0
14410,3833,Loch Valley,Victoria,VIC,-37.8333,146.0,4.0
14411,3833,Ada,Victoria,VIC,-37.8728,146.1029,3.0
14412,3833,Baw Baw Village,Victoria,VIC,-37.8378,146.2499,4.0
14413,3833,Noojee,Victoria,VIC,-37.9167,146.0,4.0
14414,3833,Piedmont,Victoria,VIC,-37.8728,146.1029,3.0
14415,3833,Tanjil Bren,Victoria,VIC,-37.9222,146.2121,4.0
14416,3833,Baw Baw,Victoria,VIC,-37.7412,146.331,4.0
14417,3835,Thorpdale,Victoria,VIC,-38.2833,146.1833,4.0
14418,3840,Hazelwood,Victoria,VIC,-38.2833,146.35,4.0
14419,3840,Driffield,Victoria,VIC,-38.3137,146.4182,3.0
14420,3840,Hazelwood South,Victoria,VIC,-38.317,146.4626,4.0
14421,3840,Morwell,Victoria,VIC,-38.2348,146.395,4.0
14422,3840,Maryvale,Victoria,VIC,-38.3137,146.4182,3.0
14423,3840,Mid Valley,Victoria,VIC,-38.2994,146.483,3.0
14424,3840,Jeeralang,Victoria,VIC,-38.4038,146.4753,4.0
14425,3840,Hazelwood North,Victoria,VIC,-38.3137,146.4182,3.0
14426,3840,Jeeralang Junction,Victoria,VIC,-38.3333,146.4167,4.0
14427,3841,Gippsland Mc,Victoria,VIC,-38.2458,146.6306,1.0
14428,3842,Churchill,Victoria,VIC,-38.3078,146.4137,4.0
14429,3844,Mount Tassie,Victoria,VIC,-38.3008,146.6242,3.0
14430,3844,Callignee,Victoria,VIC,-38.3333,146.5833,4.0
14431,3844,Tyers,Victoria,VIC,-38.1489,146.4804,4.0
14432,3844,Flynn,Victoria,VIC,-38.1667,146.6833,4.0
14433,3844,Carrajung Lower,Victoria,VIC,-38.4,146.7333,4.0
14434,3844,Traralgon South,Victoria,VIC,-38.2667,146.55,4.0
14435,3844,Blackwarry,Victoria,VIC,-38.4,146.65,4.0
14436,3844,Carrajung South,Victoria,VIC,-38.3833,146.7333,4.0
14437,3844,Koornalla,Victoria,VIC,-38.3167,146.5333,4.0
14438,3844,Callignee South,Victoria,VIC,-38.3833,146.6167,4.0
14439,3844,Flynns Creek,Victoria,VIC,-38.3008,146.6242,3.0
14440,3844,Willung South,Victoria,VIC,-38.35,146.7333,4.0
14441,3844,Traralgon East,Victoria,VIC,-38.3008,146.6242,3.0
14442,3844,Carrajung,Victoria,VIC,-38.3667,146.6833,4.0
14443,3844,Traralgon,Victoria,VIC,-38.1953,146.5415,4.0
14444,3844,Callignee North,Victoria,VIC,-38.3167,146.6,4.0
14445,3844,Loy Yang,Victoria,VIC,-38.1833,146.6167,4.0
14446,3847,Rosedale,Victoria,VIC,-38.1545,146.7886,4.0
14447,3847,Willung South,Victoria,VIC,-38.35,146.7333,4.0
14448,3847,Willung,Victoria,VIC,-38.25,146.8167,4.0
14449,3847,Hiamdale,Victoria,VIC,-38.2011,146.8055,3.0
14450,3847,Nambrok,Victoria,VIC,-38.05,146.8833,4.0
14451,3850,Wurruk,Victoria,VIC,-38.1167,147.0333,4.0
14452,3850,Guthridge,Victoria,VIC,-38.106,147.0608,3.0
14453,3850,Sale,Victoria,VIC,-38.111,147.068,4.0
14454,3851,Fulham,Victoria,VIC,-38.1,146.9833,4.0
14455,3851,Seaspray,Victoria,VIC,-38.3761,147.1906,4.0
14456,3851,Seacombe,Victoria,VIC,-38.1167,147.4333,4.0
14457,3851,Darriman,Victoria,VIC,-38.45,146.9333,4.0
14458,3851,The Heart,Victoria,VIC,-38.1167,147.1667,4.0
14459,3851,Kilmany,Victoria,VIC,-38.1,146.9,4.0
14460,3851,Montgomery,Victoria,VIC,-38.0333,147.0667,4.0
14461,3851,Golden Beach,Victoria,VIC,-38.2109,147.3987,4.0
14462,3851,Giffard,Victoria,VIC,-38.4167,147.0833,4.0
14463,3851,Airly,Victoria,VIC,-38.0333,147.1167,4.0
14464,3851,The Honeysuckles,Victoria,VIC,-38.1661,147.1648,3.0
14465,3851,Dutson,Victoria,VIC,-38.1833,147.1833,4.0
14466,3851,Cobains,Victoria,VIC,-38.0833,147.15,4.0
14467,3851,Paradise Beach,Victoria,VIC,-38.1962,147.4152,4.0
14468,3851,Glomar Beach,Victoria,VIC,-38.1661,147.1648,3.0
14469,3851,Loch Sport,Victoria,VIC,-38.0401,147.5918,4.0
14470,3851,Bundalaguah,Victoria,VIC,-38.0333,147.0167,4.0
14471,3851,Longford,Victoria,VIC,-38.1624,147.0859,4.0
14472,3851,Clydebank,Victoria,VIC,-38.05,147.2,4.0
14473,3851,Myrtlebank,Victoria,VIC,-38.1588,147.1833,3.0
14474,3851,Stradbroke,Victoria,VIC,-38.3,147.0333,4.0
14475,3851,Flamingo Beach,Victoria,VIC,-38.1661,147.1648,3.0
14476,3851,Giffard West,Victoria,VIC,-38.1661,147.1648,3.0
14477,3851,Dutson Downs,Victoria,VIC,-38.1661,147.1648,3.0
14478,3851,Pearsondale,Victoria,VIC,-38.1661,147.1648,3.0
14479,3851,Lake Wellington,Victoria,VIC,-38.1661,147.1648,3.0
14480,3851,Somerton Park,Victoria,VIC,-38.1661,147.1648,3.0
14481,3852,East Sale,Victoria,VIC,-38.1035,147.127,4.0
14482,3852,East Sale Raaf,Victoria,VIC,-38.104,147.1424,3.0
14483,3852,Sale East Raaf,Victoria,VIC,-38.1035,147.127,3.0
14484,3853,Sale,Victoria,VIC,-38.111,147.068,4.0
14485,3854,Glengarry,Victoria,VIC,-38.1167,146.5667,4.0
14486,3854,Glengarry West,Victoria,VIC,-38.15,146.5167,4.0
14487,3854,Glengarry North,Victoria,VIC,-38.1333,146.5417,3.0
14488,3856,Toongabbie,Victoria,VIC,-38.05,146.6167,4.0
14489,3857,Cowwarr,Victoria,VIC,-38.0167,146.6833,4.0
14490,3858,Dawson,Victoria,VIC,-37.9833,146.7333,4.0
14491,3858,Heyfield,Victoria,VIC,-37.9813,146.7856,4.0
14492,3858,Licola,Victoria,VIC,-37.6333,146.6167,4.0
14493,3858,Denison,Victoria,VIC,-38.0333,146.8833,4.0
14494,3858,Arbuckle,Victoria,VIC,-37.9307,146.7432,3.0
14495,3858,Gillum,Victoria,VIC,-37.9307,146.7432,3.0
14496,3858,Yangoura,Victoria,VIC,-37.9307,146.7432,3.0
14497,3858,Billabong,Victoria,VIC,-37.9307,146.7432,3.0
14498,3858,Tamboritha,Victoria,VIC,-37.9307,146.7432,3.0
14499,3858,Reynard,Victoria,VIC,-37.9307,146.7432,3.0
14500,3858,Worrowing,Victoria,VIC,-37.9307,146.7432,3.0
14501,3858,Seaton,Victoria,VIC,-37.9333,146.6667,4.0
14502,3858,Crookayan,Victoria,VIC,-37.9307,146.7432,3.0
14503,3858,Winnindoo,Victoria,VIC,-38.05,146.7667,4.0
14504,3858,Glenmaggie,Victoria,VIC,-37.9,146.75,4.0
14505,3858,Sargood,Victoria,VIC,-37.9307,146.7432,3.0
14506,3858,Buragwonduc,Victoria,VIC,-37.9307,146.7432,3.0
14507,3858,Glenfalloch,Victoria,VIC,-37.9307,146.7432,3.0
14508,3858,Howitt Plains,Victoria,VIC,-37.9307,146.7432,3.0
14509,3858,Licola North,Victoria,VIC,-37.9307,146.7432,3.0
14510,3859,Newry,Victoria,VIC,-37.9167,146.8833,4.0
14511,3859,Tinamba West,Victoria,VIC,-37.9264,146.8749,3.0
14512,3859,Maffra West Upper,Victoria,VIC,-37.9,146.85,4.0
14513,3859,Tinamba,Victoria,VIC,-37.9625,146.8914,4.0
14514,3860,Riverslea,Victoria,VIC,-38.0,146.95,4.0
14515,3860,Woolenook,Victoria,VIC,-37.8985,146.9703,3.0
14516,3860,Coongulla,Victoria,VIC,-37.8913,146.786,4.0
14517,3860,Nap Nap Marra,Victoria,VIC,-37.8985,146.9703,3.0
14518,3860,Wrathung,Victoria,VIC,-37.8985,146.9703,3.0
14519,3860,Bushy Park,Victoria,VIC,-37.8667,147.0333,4.0
14520,3860,Wrixon,Victoria,VIC,-37.8985,146.9703,3.0
14521,3860,Koorool,Victoria,VIC,-37.8985,146.9703,3.0
14522,3860,Toolome,Victoria,VIC,-37.8985,146.9703,3.0
14523,3860,Briagolong,Victoria,VIC,-37.8436,147.0727,4.0
14524,3860,Maffra,Victoria,VIC,-37.9713,146.9837,4.0
14525,3860,Boisdale,Victoria,VIC,-37.8833,146.9833,4.0
14526,3860,Moroka,Victoria,VIC,-37.8985,146.9703,3.0
14527,3860,Monomak,Victoria,VIC,-37.8985,146.9703,3.0
14528,3860,Valencia Creek,Victoria,VIC,-37.8333,146.9833,4.0
14529,3862,Llowalong,Victoria,VIC,-37.9333,147.0667,4.0
14530,3862,Budgee Budgee,Victoria,VIC,-37.8052,147.2018,3.0
14531,3862,Dargo,Victoria,VIC,-37.4833,147.2667,4.0
14532,3862,Meerlieu,Victoria,VIC,-38.0,147.4,4.0
14533,3862,Munro,Victoria,VIC,-37.9167,147.1833,4.0
14534,3862,Hollands Landing,Victoria,VIC,-37.8052,147.2018,3.0
14535,3862,Stockdale,Victoria,VIC,-37.8,147.1667,4.0
14536,3862,Cobbannah,Victoria,VIC,-37.6333,147.1833,4.0
14537,3862,Perry Bridge,Victoria,VIC,-38.0,147.2667,4.0
14538,3862,Crooked River,Victoria,VIC,-37.8052,147.2018,3.0
14539,3862,Stratford,Victoria,VIC,-37.9634,147.0826,4.0
14540,3862,Hawkhurst,Victoria,VIC,-37.8052,147.2018,3.0
14541,3862,Waterford,Victoria,VIC,-37.5167,147.2,4.0
14542,3862,Miowera,Victoria,VIC,-37.8052,147.2018,3.0
14543,3862,Wongungarra,Victoria,VIC,-37.8052,147.2018,3.0
14544,3862,Cowa,Victoria,VIC,-37.8052,147.2018,3.0
14545,3862,Moornapa,Victoria,VIC,-37.8052,147.2018,3.0
14546,3864,Glenaladale,Victoria,VIC,-37.7833,147.35,4.0
14547,3864,Fernbank,Victoria,VIC,-37.8667,147.3167,4.0
14548,3865,Lindenow,Victoria,VIC,-37.8005,147.4598,4.0
14549,3869,Yinnar,Victoria,VIC,-38.3225,146.3292,4.0
14550,3869,Yinnar South,Victoria,VIC,-38.3833,146.3833,4.0
14551,3869,Jumbuk,Victoria,VIC,-38.4,146.4278,4.0
14552,3870,Budgeree,Victoria,VIC,-38.4167,146.3333,4.0
14553,3870,Johnstones Hill,Victoria,VIC,-38.4153,146.2973,3.0
14554,3870,Boolarra,Victoria,VIC,-38.3794,146.2753,4.0
14555,3870,Grand Ridge,Victoria,VIC,-38.4153,146.2973,3.0
14556,3870,Boolarra South,Victoria,VIC,-38.45,146.2833,4.0
14557,3871,Mirboo North,Victoria,VIC,-38.401,146.1613,4.0
14558,3871,Dollar,Victoria,VIC,-38.5667,146.1667,4.0
14559,3871,Allambee Reserve,Victoria,VIC,-38.4141,146.1797,3.0
14560,3871,Darlimurla,Victoria,VIC,-38.3667,146.2167,4.0
14561,3871,Allambee South,Victoria,VIC,-38.35,146.1,4.0
14562,3871,Baromi,Victoria,VIC,-38.4141,146.1797,3.0
14563,3871,Mirboo,Victoria,VIC,-38.4667,146.2,4.0
14564,3871,Delburn,Victoria,VIC,-38.3333,146.2333,4.0
14565,3873,Gormandale,Victoria,VIC,-38.2833,146.7,4.0
14566,3874,Woodside,Victoria,VIC,-38.5238,146.8751,4.0
14567,3874,Mcloughlins Beach,Victoria,VIC,-38.4536,146.8042,3.0
14568,3874,Woodside North,Victoria,VIC,-38.4536,146.8042,3.0
14569,3874,Carrajung South,Victoria,VIC,-38.3833,146.7333,4.0
14570,3874,Woodside Beach,Victoria,VIC,-38.4536,146.8042,3.0
14571,3875,Bairnsdale,Victoria,VIC,-37.8229,147.6104,4.0
14572,3875,Granite Rock,Victoria,VIC,-37.7569,147.672,4.0
14573,3875,Lucknow,Victoria,VIC,-37.8167,147.65,4.0
14574,3875,Merrijig,Victoria,VIC,-37.1,146.25,4.0
14575,3875,Hillside,Victoria,VIC,-37.8333,147.5,4.0
14576,3875,Goon Nure,Victoria,VIC,-37.95,147.65,4.0
14577,3875,Walpa,Victoria,VIC,-37.8,147.45,4.0
14578,3875,Deptford,Victoria,VIC,-37.5833,147.7,4.0
14579,3875,Eastwood,Victoria,VIC,-37.7479,147.4935,3.0
14580,3875,Lindenow South,Victoria,VIC,-37.8167,147.4333,4.0
14581,3875,Woodglen,Victoria,VIC,-37.75,147.4833,4.0
14582,3875,Wentworth,Victoria,VIC,-37.7479,147.4935,3.0
14583,3875,Forge Creek,Victoria,VIC,-37.9,147.6333,4.0
14584,3875,Tabberabbera,Victoria,VIC,-37.5833,147.3833,4.0
14585,3875,Calulu,Victoria,VIC,-37.8,147.5167,4.0
14586,3875,Waterholes,Victoria,VIC,-37.7479,147.4935,3.0
14587,3875,Clifton Creek,Victoria,VIC,-37.7078,147.6658,4.0
14588,3875,Marthavale,Victoria,VIC,-37.7479,147.4935,3.0
14589,3875,Bullumwaal,Victoria,VIC,-37.6333,147.5333,4.0
14590,3875,Broadlands,Victoria,VIC,-37.7479,147.4935,3.0
14591,3875,Wy Yung,Victoria,VIC,-37.8,147.5833,4.0
14592,3875,Banksia Peninsula,Victoria,VIC,-37.7479,147.4935,3.0
14593,3875,Newlands Arm,Victoria,VIC,-37.9241,147.698,3.0
14594,3875,Ellaswood,Victoria,VIC,-37.7479,147.4935,3.0
14595,3875,East Bairnsdale,Victoria,VIC,-37.8229,147.6104,4.0
14596,3875,Iguana Creek,Victoria,VIC,-37.7333,147.3167,4.0
14597,3875,Wuk Wuk,Victoria,VIC,-37.7667,147.4333,4.0
14598,3875,Mount Taylor,Victoria,VIC,-37.7437,147.5994,4.0
14599,3875,Fairy Dell,Victoria,VIC,-36.3333,144.75,4.0
14600,3875,Melwood,Victoria,VIC,-37.7479,147.4935,3.0
14601,3875,Ryans,Victoria,VIC,-37.7479,147.4935,3.0
14602,3875,Flaggy Creek,Victoria,VIC,-37.7479,147.4935,3.0
14603,3875,Sarsfield,Victoria,VIC,-37.75,147.7167,4.0
14604,3875,Bengworden,Victoria,VIC,-37.9833,147.4667,4.0
14605,3878,Eagle Point,Victoria,VIC,-37.9,147.6833,4.0
14606,3880,Paynesville,Victoria,VIC,-37.9189,147.7194,4.0
14607,3880,Boole Poole,Victoria,VIC,-37.9178,147.7264,3.0
14608,3880,Ocean Grange,Victoria,VIC,-37.9178,147.7264,3.0
14609,3880,Raymond Island,Victoria,VIC,-37.9167,147.7333,4.0
14610,3882,Nicholson,Victoria,VIC,-37.8167,147.7333,4.0
14611,3885,Wulgulmerang,Victoria,VIC,-37.0833,148.2833,4.0
14612,3885,Wulgulmerang East,Victoria,VIC,-37.0833,148.2833,4.0
14613,3885,Buchan South,Victoria,VIC,-37.5667,148.1167,4.0
14614,3885,Suggan Buggan,Victoria,VIC,-36.9556,148.3276,4.0
14615,3885,W Tree,Victoria,VIC,-37.2648,148.1466,3.0
14616,3885,Butchers Ridge,Victoria,VIC,-37.2583,148.2443,4.0
14617,3885,Yalmy,Victoria,VIC,-37.4142,148.1025,3.0
14618,3885,Gelantipy,Victoria,VIC,-37.1833,148.2833,4.0
14619,3885,Wiseleigh,Victoria,VIC,-37.7117,147.8056,4.0
14620,3885,Buchan,Victoria,VIC,-37.5,148.1833,4.0
14621,3885,Brumby,Victoria,VIC,-37.4142,148.1025,3.0
14622,3885,Bruthen,Victoria,VIC,-37.7067,147.831,4.0
14623,3885,Wulgulmerang West,Victoria,VIC,-37.4142,148.1025,3.0
14624,3885,Mossiface,Victoria,VIC,-37.7415,147.8159,4.0
14625,3885,Murrindal,Victoria,VIC,-37.4167,148.2,4.0
14626,3885,Tambo Upper,Victoria,VIC,-37.767,147.843,4.0
14627,3885,Timbarra,Victoria,VIC,-37.4142,148.1025,3.0
14628,3886,Newmerella,Victoria,VIC,-37.7333,148.45,4.0
14629,3887,Nowa Nowa,Victoria,VIC,-37.7167,148.1,4.0
14630,3887,Lake Tyers,Victoria,VIC,-37.85,148.0667,4.0
14631,3887,Wairewa,Victoria,VIC,-37.6892,148.1693,4.0
14632,3888,Tostaree,Victoria,VIC,-37.75,148.1667,4.0
14633,3888,Brodribb River,Victoria,VIC,-37.7,148.5667,4.0
14634,3888,Bete Bolong North,Victoria,VIC,-37.5266,148.543,3.0
14635,3888,Goongerah,Victoria,VIC,-37.3321,148.6943,4.0
14636,3888,Marlo,Victoria,VIC,-37.7962,148.5319,4.0
14637,3888,Waygara,Victoria,VIC,-37.7333,148.3167,4.0
14638,3888,Bendoc,Victoria,VIC,-37.1333,148.9,4.0
14639,3888,Jarrahmond,Victoria,VIC,-37.6984,148.4064,4.0
14640,3888,Wombat Creek,Victoria,VIC,-37.5266,148.543,3.0
14641,3888,Bete Bolong,Victoria,VIC,-37.6858,148.3833,4.0
14642,3888,Haydens Bog,Victoria,VIC,-37.5266,148.543,3.0
14643,3888,Delegate River,Victoria,VIC,-37.0667,148.8,4.0
14644,3888,Simpsons Creek,Victoria,VIC,-37.5266,148.543,3.0
14645,3888,Nurran,Victoria,VIC,-37.5266,148.543,3.0
14646,3888,Bonang,Victoria,VIC,-37.2,148.75,4.0
14647,3888,Orbost,Victoria,VIC,-37.6964,148.457,4.0
14648,3888,Tubbut,Victoria,VIC,-37.3755,148.5993,3.0
14649,3888,Corringle,Victoria,VIC,-37.5266,148.543,3.0
14650,3888,Cape Conran,Victoria,VIC,-37.5266,148.543,3.0
14651,3888,Deddick Valley,Victoria,VIC,-37.5266,148.543,3.0
14652,3889,Cabbage Tree Creek,Victoria,VIC,-37.6967,148.7197,4.0
14653,3889,Bemm River,Victoria,VIC,-37.7582,148.9692,4.0
14654,3889,Errinundra,Victoria,VIC,-37.3831,148.8937,4.0
14655,3889,Bellbird Creek,Victoria,VIC,-37.5481,148.8764,3.0
14656,3889,Manorina,Victoria,VIC,-37.6756,148.7948,4.0
14657,3889,Club Terrace,Victoria,VIC,-37.5333,148.95,4.0
14658,3889,Combienbar,Victoria,VIC,-37.3833,149.0167,4.0
14659,3890,Buldah,Victoria,VIC,-37.2655,149.1431,4.0
14660,3890,Noorinbee North,Victoria,VIC,-37.4986,149.1425,3.0
14661,3890,Cann River,Victoria,VIC,-37.5658,149.151,4.0
14662,3890,Chandlers Creek,Victoria,VIC,-37.3385,149.1951,4.0
14663,3890,Noorinbee,Victoria,VIC,-37.5167,149.1667,4.0
14664,3890,Tonghi Creek,Victoria,VIC,-37.5638,149.0588,4.0
14665,3890,Tamboon,Victoria,VIC,-37.7393,149.1419,4.0
14666,3891,Wangarabell,Victoria,VIC,-37.475,149.6333,3.0
14667,3891,Genoa,Victoria,VIC,-37.4833,149.5833,4.0
14668,3891,Gipsy Point,Victoria,VIC,-37.4667,149.6833,4.0
14669,3891,Wallagaraugh,Victoria,VIC,-37.475,149.6333,3.0
14670,3891,Wroxham,Victoria,VIC,-37.475,149.6333,3.0
14671,3891,Wingan River,Victoria,VIC,-37.475,149.6333,3.0
14672,3891,Maramingo Creek,Victoria,VIC,-37.475,149.6333,3.0
14673,3892,Mallacoota,Victoria,VIC,-37.559,149.7541,4.0
14674,3893,Double Bridges,Victoria,VIC,-37.4667,147.7917,3.0
14675,3893,Stirling,Victoria,VIC,-37.4333,147.75,4.0
14676,3893,Tambo Crossing,Victoria,VIC,-37.5,147.8333,4.0
14677,3895,Ensay,Victoria,VIC,-37.3833,147.8333,4.0
14678,3895,Reedy Flat,Victoria,VIC,-37.4,147.9,4.0
14679,3895,Doctors Flat,Victoria,VIC,-37.3,147.75,4.0
14680,3895,Ensay North,Victoria,VIC,-37.3611,147.8278,3.0
14681,3896,Swifts Creek,Victoria,VIC,-37.25,147.7167,4.0
14682,3896,Brookville,Victoria,VIC,-37.3333,147.6167,4.0
14683,3896,Nunniong,Victoria,VIC,-37.2208,147.725,3.0
14684,3896,Tongio,Victoria,VIC,-37.1833,147.7333,4.0
14685,3896,Bindi,Victoria,VIC,-37.1167,147.8333,4.0
14686,3898,Hinnomunjie,Victoria,VIC,-37.0167,147.65,4.0
14687,3898,Glen Wills,Victoria,VIC,-36.85,147.5167,4.0
14688,3898,Omeo,Victoria,VIC,-37.0961,147.5949,4.0
14689,3898,Cobungra,Victoria,VIC,-37.1,147.4167,4.0
14690,3898,Dinner Plain,Victoria,VIC,-37.0236,147.2412,4.0
14691,3898,Bingo Munjie,Victoria,VIC,-37.0204,147.4992,3.0
14692,3898,Cassilis,Victoria,VIC,-37.2167,147.6,4.0
14693,3898,Omeo Valley,Victoria,VIC,-37.0204,147.4992,3.0
14694,3898,Anglers Rest,Victoria,VIC,-36.9935,147.4905,4.0
14695,3898,Bundara,Victoria,VIC,-37.0204,147.4992,3.0
14696,3898,Shannonvale,Victoria,VIC,-37.0204,147.4992,3.0
14697,3898,Glen Valley,Victoria,VIC,-36.8667,147.4833,4.0
14698,3900,Benambra,Victoria,VIC,-36.95,147.7167,4.0
14699,3900,Cobberas,Victoria,VIC,-36.95,147.7167,3.0
14700,3902,Johnsonville,Victoria,VIC,-37.8167,147.8,4.0
14701,3902,Bumberrah,Victoria,VIC,-37.8,147.8333,4.0
14702,3903,Swan Reach,Victoria,VIC,-37.8333,147.8667,4.0
14703,3904,Metung,Victoria,VIC,-37.8915,147.853,4.0
14704,3909,Lakes Entrance,Victoria,VIC,-37.8812,147.981,4.0
14705,3909,Nungurner,Victoria,VIC,-37.8819,147.8858,4.0
14706,3909,Lake Tyers Beach,Victoria,VIC,-37.859,148.0868,3.0
14707,3909,Toorloo Arm,Victoria,VIC,-37.8758,147.9423,3.0
14708,3909,Kalimna West,Victoria,VIC,-37.8568,147.9522,4.0
14709,3909,Lake Bunga,Victoria,VIC,-37.8758,147.9423,3.0
14710,3909,Nyerimilang,Victoria,VIC,-37.8758,147.9423,3.0
14711,3909,Kalimna,Victoria,VIC,-37.8833,147.95,4.0
14712,3910,Langwarrin,Victoria,VIC,-38.1667,145.1667,4.0
14713,3911,Langwarrin South,Victoria,VIC,-38.1987,145.1807,4.0
14714,3911,Baxter,Victoria,VIC,-38.2,145.15,4.0
14715,3912,Somerville,Victoria,VIC,-38.2167,145.1667,4.0
14716,3912,Pearcedale,Victoria,VIC,-38.203,145.2349,4.0
14717,3913,Tyabb,Victoria,VIC,-38.25,145.1833,4.0
14718,3915,Tuerong,Victoria,VIC,-38.2987,145.0967,4.0
14719,3915,Hastings,Victoria,VIC,-38.3,145.1833,4.0
14720,3916,Shoreham,Victoria,VIC,-38.4263,145.0469,4.0
14721,3916,Merricks,Victoria,VIC,-38.3833,145.0833,4.0
14722,3916,Point Leo,Victoria,VIC,-38.415,145.0694,4.0
14723,3918,Bittern,Victoria,VIC,-38.3333,145.1667,4.0
14724,3919,Crib Point,Victoria,VIC,-38.35,145.2,4.0
14725,3920,Hmas Cerberus,Victoria,VIC,-38.3649,145.2004,4.0
14726,3921,French Island,Victoria,VIC,-38.3406,145.341,4.0
14727,3921,Elizabeth Island,Victoria,VIC,-38.3667,145.3241,3.0
14728,3921,Tankerton,Victoria,VIC,-38.3868,145.2896,4.0
14729,3922,Sunset Strip,Victoria,VIC,-38.4922,145.2627,4.0
14730,3922,Sunderland Bay,Victoria,VIC,-38.4568,145.0754,3.0
14731,3922,Ventnor,Victoria,VIC,-38.4627,145.195,4.0
14732,3922,Cowes,Victoria,VIC,-38.4523,145.2386,4.0
14733,3922,Summerlands,Victoria,VIC,-38.4568,145.0754,3.0
14734,3922,Wimbledon Heights,Victoria,VIC,-38.4568,145.0754,3.0
14735,3922,Silverleaves,Victoria,VIC,-38.4539,145.2727,4.0
14736,3922,Surf Beach,Victoria,VIC,-38.3751,144.2564,4.0
14737,3922,Smiths Beach,Victoria,VIC,-38.5007,145.2552,4.0
14738,3923,Rhyll,Victoria,VIC,-38.4642,145.2995,4.0
14739,3925,Churchill Island,Victoria,VIC,-38.5262,145.3584,3.0
14740,3925,San Remo,Victoria,VIC,-38.5204,145.37,4.0
14741,3925,Newhaven,Victoria,VIC,-38.5121,145.3558,4.0
14742,3925,Cape Woolamai,Victoria,VIC,-38.5428,145.3441,4.0
14743,3926,Merricks North,Victoria,VIC,-38.35,145.0833,4.0
14744,3926,Balnarring Beach,Victoria,VIC,-38.4,145.1167,4.0
14745,3926,Balnarring,Victoria,VIC,-38.3667,145.1333,4.0
14746,3926,Merricks Beach,Victoria,VIC,-38.3988,145.106,4.0
14747,3927,Somers,Victoria,VIC,-38.4,145.1667,4.0
14748,3928,Main Ridge,Victoria,VIC,-38.3973,144.9724,4.0
14749,3929,Flinders,Victoria,VIC,-38.4739,145.019,4.0
14750,3930,Mount Eliza,Victoria,VIC,-38.1833,145.0833,4.0
14751,3930,Kunyung,Victoria,VIC,-38.1943,145.0926,3.0
14752,3931,Mornington,Victoria,VIC,-38.2179,145.0388,4.0
14753,3933,Moorooduc,Victoria,VIC,-38.2167,145.1167,4.0
14754,3934,Mount Martha,Victoria,VIC,-38.2667,145.0167,4.0
14755,3936,Dromana,Victoria,VIC,-38.3338,144.9646,4.0
14756,3936,Safety Beach,Victoria,VIC,-38.3153,145.0003,4.0
14757,3936,Arthurs Seat,Victoria,VIC,-38.3632,144.9598,4.0
14758,3937,Red Hill,Victoria,VIC,-38.35,145.0167,4.0
14759,3937,Red Hill South,Victoria,VIC,-38.3833,145.0333,4.0
14760,3938,Mccrae,Victoria,VIC,-38.3497,144.9281,4.0
14761,3939,Boneo,Victoria,VIC,-38.4167,144.8833,4.0
14762,3939,Rosebud Plaza,Victoria,VIC,-38.4106,144.8837,3.0
14763,3939,Rosebud,Victoria,VIC,-38.3554,144.9068,4.0
14764,3939,Fingal,Victoria,VIC,-38.414,144.8499,4.0
14765,3939,Cape Schanck,Victoria,VIC,-38.4616,144.9014,4.0
14766,3940,Rosebud West,Victoria,VIC,-38.3644,144.8775,4.0
14767,3941,Rye,Victoria,VIC,-38.3667,144.8167,4.0
14768,3941,Tootgarook,Victoria,VIC,-38.3777,144.8502,4.0
14769,3941,St Andrews Beach,Victoria,VIC,-38.4141,144.8244,3.0
14770,3942,Blairgowrie,Victoria,VIC,-38.3613,144.7795,4.0
14771,3943,Sorrento,Victoria,VIC,-38.3396,144.7413,4.0
14772,3944,Portsea,Victoria,VIC,-38.3167,144.7167,4.0
14773,3945,Krowera,Victoria,VIC,-38.4333,145.6667,4.0
14774,3945,Jeetho,Victoria,VIC,-38.3833,145.7167,4.0
14775,3945,Woodleigh,Victoria,VIC,-38.4,145.6333,4.0
14776,3945,Loch,Victoria,VIC,-38.3691,145.7081,4.0
14777,3946,Bena,Victoria,VIC,-38.4167,145.7667,4.0
14778,3950,Strzelecki,Victoria,VIC,-38.3333,145.9,4.0
14779,3950,Whitelaw,Victoria,VIC,-38.4167,145.7833,4.0
14780,3950,Kardella South,Victoria,VIC,-38.45,145.8833,4.0
14781,3950,Korumburra South,Victoria,VIC,-38.4667,145.85,4.0
14782,3950,Korumburra,Victoria,VIC,-38.4319,145.8235,4.0
14783,3951,Arawata,Victoria,VIC,-38.4,145.8667,4.0
14784,3951,Fairbank,Victoria,VIC,-38.45,145.7929,3.0
14785,3951,Ranceby,Victoria,VIC,-38.3833,145.85,4.0
14786,3951,Kardella,Victoria,VIC,-38.4167,145.8667,4.0
14787,3951,Moyarra,Victoria,VIC,-38.4833,145.7333,4.0
14788,3951,Outtrim,Victoria,VIC,-38.4833,145.7667,4.0
14789,3951,Jumbunna,Victoria,VIC,-38.4667,145.7667,4.0
14790,3951,Kongwak,Victoria,VIC,-38.5167,145.7,4.0
14791,3953,Ruby,Victoria,VIC,-38.45,145.9167,4.0
14792,3953,Leongatha North,Victoria,VIC,-38.4236,146.0027,3.0
14793,3953,Hallston,Victoria,VIC,-38.3667,146.0333,4.0
14794,3953,Mount Eccles South,Victoria,VIC,-38.3667,145.9833,4.0
14795,3953,Mount Eccles,Victoria,VIC,-38.3667,145.9833,4.0
14796,3953,Koorooman,Victoria,VIC,-38.4236,146.0027,3.0
14797,3953,Berrys Creek,Victoria,VIC,-38.4167,146.0667,4.0
14798,3953,Mardan,Victoria,VIC,-38.45,146.1333,4.0
14799,3953,Leongatha,Victoria,VIC,-38.4761,145.9469,4.0
14800,3953,Boorool,Victoria,VIC,-38.4236,146.0027,3.0
14801,3953,Leongatha South,Victoria,VIC,-38.5333,145.8833,4.0
14802,3953,Wild Dog Valley,Victoria,VIC,-38.4236,146.0027,3.0
14803,3953,Nerrena,Victoria,VIC,-38.5167,146.0833,4.0
14804,3953,Wooreen,Victoria,VIC,-38.4,146.0333,4.0
14805,3953,Trida,Victoria,VIC,-38.3167,145.9667,4.0
14806,3954,Koonwarra,Victoria,VIC,-38.55,145.95,4.0
14807,3956,Venus Bay,Victoria,VIC,-38.7004,145.8224,4.0
14808,3956,Tarwin,Victoria,VIC,-38.5833,145.9833,4.0
14809,3956,Dumbalk,Victoria,VIC,-38.5333,146.0833,4.0
14810,3956,Walkerville North,Victoria,VIC,-38.6678,145.9843,3.0
14811,3956,Meeniyan,Victoria,VIC,-38.5769,146.0193,4.0
14812,3956,Walkerville,Victoria,VIC,-38.6777,146.0009,3.0
14813,3956,Walkerville South,Victoria,VIC,-38.8599,145.9933,4.0
14814,3956,Middle Tarwin,Victoria,VIC,-38.6667,145.9333,4.0
14815,3956,Tarwin Lower,Victoria,VIC,-38.7,145.85,4.0
14816,3956,Dumbalk North,Victoria,VIC,-38.5167,146.1667,4.0
14817,3957,Stony Creek,Victoria,VIC,-38.5833,146.0333,4.0
14818,3958,Buffalo,Victoria,VIC,-38.65,146.0333,4.0
14819,3959,Sandy Point,Victoria,VIC,-38.8199,146.1174,4.0
14820,3959,Fish Creek,Victoria,VIC,-38.6833,146.0833,4.0
14821,3959,Waratah Bay,Victoria,VIC,-38.7697,146.0757,3.0
14822,3960,Gunyah,Victoria,VIC,-38.5333,146.3167,4.0
14823,3960,Boolarong,Victoria,VIC,-38.5667,146.25,4.0
14824,3960,Woorarra West,Victoria,VIC,-38.5638,146.1564,3.0
14825,3960,Bennison,Victoria,VIC,-38.6667,146.25,4.0
14826,3960,Shallow Inlet,Victoria,VIC,-38.5638,146.1564,3.0
14827,3960,Turtons Creek,Victoria,VIC,-38.55,146.25,4.0
14828,3960,Tidal River,Victoria,VIC,-38.8342,146.2888,3.0
14829,3960,Yanakie,Victoria,VIC,-38.8114,146.2057,4.0
14830,3960,Foster North,Victoria,VIC,-38.5638,146.1564,3.0
14831,3960,Wilsons Promontory,Victoria,VIC,-38.9602,146.3677,4.0
14832,3960,Wonga,Victoria,VIC,-37.7333,145.2667,4.0
14833,3960,Mount Best,Victoria,VIC,-38.6,146.3,4.0
14834,3960,Foster,Victoria,VIC,-38.6527,146.2007,4.0
14835,3962,Woorarra East,Victoria,VIC,-38.6167,146.3833,4.0
14836,3962,Toora,Victoria,VIC,-38.6629,146.3279,4.0
14837,3962,Wonyip,Victoria,VIC,-38.5622,146.3924,4.0
14838,3962,Toora North,Victoria,VIC,-38.633,146.3711,3.0
14839,3962,Agnes,Victoria,VIC,-38.6857,146.3898,4.0
14840,3964,Port Franklin,Victoria,VIC,-38.6833,146.2667,4.0
14841,3965,Port Welshpool,Victoria,VIC,-38.6992,146.4531,4.0
14842,3966,Binginwarri,Victoria,VIC,-38.5833,146.45,4.0
14843,3966,Welshpool,Victoria,VIC,-38.6667,146.4333,4.0
14844,3966,Hazel Park,Victoria,VIC,-38.6333,146.3833,4.0
14845,3967,Hedley,Victoria,VIC,-38.6333,146.5,4.0
14846,3971,Gelliondale,Victoria,VIC,-38.6194,146.6036,4.0
14847,3971,Yarram,Victoria,VIC,-38.5648,146.6756,4.0
14848,3971,Balook,Victoria,VIC,-38.4333,146.5667,4.0
14849,3971,Manns Beach,Victoria,VIC,-38.5398,146.6065,3.0
14850,3971,Tarraville,Victoria,VIC,-38.6333,146.7167,4.0
14851,3971,Madalya,Victoria,VIC,-38.5,146.4667,4.0
14852,3971,Langsborough,Victoria,VIC,-38.6551,146.678,4.0
14853,3971,Hunterston,Victoria,VIC,-38.5398,146.6065,3.0
14854,3971,Alberton,Victoria,VIC,-38.6167,146.6667,4.0
14855,3971,Won Wron,Victoria,VIC,-38.4667,146.7167,4.0
14856,3971,Hiawatha,Victoria,VIC,-38.5167,146.4667,4.0
14857,3971,Robertsons Beach,Victoria,VIC,-38.5398,146.6065,3.0
14858,3971,Devon North,Victoria,VIC,-38.505,146.6497,3.0
14859,3971,Jack River,Victoria,VIC,-38.55,146.5667,4.0
14860,3971,Tarra Valley,Victoria,VIC,-38.4333,146.5333,4.0
14861,3971,Snake Island,Victoria,VIC,-38.5398,146.6065,3.0
14862,3971,Macks Creek,Victoria,VIC,-38.4667,146.6333,4.0
14863,3971,Alberton West,Victoria,VIC,-38.6,146.6,4.0
14864,3971,Staceys Bridge,Victoria,VIC,-38.55,146.5333,4.0
14865,3971,Calrossie,Victoria,VIC,-38.4833,146.6667,4.0
14866,3971,Port Albert,Victoria,VIC,-38.6654,146.6885,4.0
14867,3975,Lyndhurst,Victoria,VIC,-38.05,145.25,4.0
14868,3975,Lynbrook,Victoria,VIC,-38.0559,145.2562,4.0
14869,3976,Hampton Park,Victoria,VIC,-38.0333,145.25,4.0
14870,3977,Botanic Ridge,Victoria,VIC,-38.1392,145.2684,4.0
14871,3977,Skye,Victoria,VIC,-38.1051,145.2163,4.0
14872,3977,Cannons Creek,Victoria,VIC,-38.2122,145.3153,4.0
14873,3977,Devon Meadows,Victoria,VIC,-38.1667,145.3,4.0
14874,3977,Cranbourne West,Victoria,VIC,-38.0965,145.2671,4.0
14875,3977,Cranbourne South,Victoria,VIC,-38.135,145.2396,4.0
14876,3977,Cranbourne,Victoria,VIC,-38.1134,145.2833,4.0
14877,3977,Junction Village,Victoria,VIC,-38.1364,145.2968,4.0
14878,3977,Cranbourne East,Victoria,VIC,-38.1153,145.2981,4.0
14879,3977,Five Ways,Victoria,VIC,-38.1667,145.3167,4.0
14880,3977,Sandhurst,Victoria,VIC,-38.081,145.2077,4.0
14881,3977,Cranbourne North,Victoria,VIC,-38.0829,145.2781,4.0
14882,3978,Clyde North,Victoria,VIC,-38.1167,145.3333,4.0
14883,3978,Cardinia,Victoria,VIC,-38.15,145.4167,4.0
14884,3978,Clyde,Victoria,VIC,-38.1333,145.3333,4.0
14885,3979,Glen Alvie,Victoria,VIC,-38.5167,145.7,4.0
14886,3979,Kernot,Victoria,VIC,-38.4333,145.6,4.0
14887,3979,Almurta,Victoria,VIC,-38.4667,145.5833,4.0
14888,3980,Blind Bight,Victoria,VIC,-38.2143,145.3377,4.0
14889,3980,Warneet,Victoria,VIC,-38.2253,145.3101,4.0
14890,3980,Tooradin,Victoria,VIC,-38.2147,145.3833,4.0
14891,3981,Koo Wee Rup North,Victoria,VIC,-38.1667,145.5333,4.0
14892,3981,Heath Hill,Victoria,VIC,-38.25,145.7,4.0
14893,3981,Koo Wee Rup,Victoria,VIC,-38.1994,145.4908,3.0
14894,3981,Yannathan,Victoria,VIC,-38.2333,145.65,4.0
14895,3981,Bayles,Victoria,VIC,-38.1833,145.5667,4.0
14896,3981,Dalmore,Victoria,VIC,-38.1833,145.4167,4.0
14897,3981,Catani,Victoria,VIC,-38.2,145.6333,4.0
14898,3984,The Gurdies,Victoria,VIC,-38.3151,145.5606,3.0
14899,3984,Tenby Point,Victoria,VIC,-38.441,145.5107,3.0
14900,3984,Pioneer Bay,Victoria,VIC,-38.3807,145.5495,4.0
14901,3984,Coronet Bay,Victoria,VIC,-38.4391,145.4457,4.0
14902,3984,Adams Estate,Victoria,VIC,-38.3488,145.5081,3.0
14903,3984,Lang Lang,Victoria,VIC,-38.266,145.5621,4.0
14904,3984,Queensferry,Victoria,VIC,-38.4167,145.5,4.0
14905,3984,Grantville,Victoria,VIC,-38.407,145.5301,4.0
14906,3984,Monomeith,Victoria,VIC,-38.2167,145.5167,4.0
14907,3984,Jam Jerrup,Victoria,VIC,-38.3151,145.5606,3.0
14908,3984,Corinella,Victoria,VIC,-38.4141,145.4276,4.0
14909,3984,Lang Lang East,Victoria,VIC,-38.3488,145.5081,3.0
14910,3984,Caldermeade,Victoria,VIC,-38.25,145.5333,4.0
14911,3987,Nyora,Victoria,VIC,-38.3336,145.6725,4.0
14912,3988,Poowong,Victoria,VIC,-38.3428,145.7638,4.0
14913,3988,Poowong East,Victoria,VIC,-38.3,145.8333,4.0
14914,3988,Mountain View,Victoria,VIC,-38.2667,145.8667,4.0
14915,3988,Poowong North,Victoria,VIC,-38.3,145.8,4.0
14916,3990,Glen Forbes,Victoria,VIC,-38.45,145.5333,4.0
14917,3991,Bass,Victoria,VIC,-38.4833,145.45,4.0
14918,3992,Ryanston,Victoria,VIC,-38.5333,145.5833,4.0
14919,3992,West Creek,Victoria,VIC,-38.5333,145.5833,3.0
14920,3992,Dalyston,Victoria,VIC,-38.5667,145.55,4.0
14921,3992,Blackwood Forest,Victoria,VIC,-38.5,145.6167,4.0
14922,3995,Wattle Bank,Victoria,VIC,-38.5667,145.7,4.0
14923,3995,Lance Creek,Victoria,VIC,-38.5752,145.5665,3.0
14924,3995,North Wonthaggi,Victoria,VIC,-38.6,145.6,4.0
14925,3995,Anderson,Victoria,VIC,-38.5333,145.45,4.0
14926,3995,Kilcunda,Victoria,VIC,-38.55,145.4833,4.0
14927,3995,Harmers Haven,Victoria,VIC,-38.5752,145.5665,3.0
14928,3995,Archies Creek,Victoria,VIC,-38.55,145.5667,4.0
14929,3995,Woolamai,Victoria,VIC,-38.5,145.5,4.0
14930,3995,South Dudley,Victoria,VIC,-38.6,145.5833,4.0
14931,3995,St Clair,Victoria,VIC,-38.5752,145.5665,3.0
14932,3995,Wonthaggi,Victoria,VIC,-38.6059,145.5936,4.0
14933,3995,Cape Paterson,Victoria,VIC,-38.6709,145.6213,4.0
14934,3996,Pound Creek,Victoria,VIC,-38.6333,145.8,4.0
14935,3996,Inverloch,Victoria,VIC,-38.6266,145.7226,4.0
